##########################################################
# Query made at 02/17/2025 22:34:28 UTC
# Time interval: from 10/01/2024 00:00  to 10/31/2024 23:59  UTC
##########################################################

##########################################################
# KSEA, Seattle, Seattle-Tacoma International Airport (United States)
# WMO index: 72793. WIGOS ID: 0-20000-0-72793
# Latitude 47-27-00N. Longitude 122-17-59W. Altitude 130 m.
##########################################################

###################################
#  METAR/SPECI from KSEA
###################################
202410312353 METAR KSEA 312353Z 12005KT 7SM -RA FEW026 BKN040 OVC050 09/06 A2982 RMK AO2 RAB25 SLP106 P0002 60002 T00890061 10106 20089 58013=
202410312253 METAR KSEA 312253Z 15003KT 10SM SCT026 OVC045 09/05 A2984 RMK AO2 SLP111 T00940050=
202410312153 METAR KSEA 312153Z 18004KT 10SM BKN040 OVC050 09/04 A2985 RMK AO2 SLP115 T00940044=
202410312053 METAR KSEA 312053Z VRB05KT 10SM BKN038 OVC050 09/04 A2986 RMK AO2 SLP119 60000 T00940044 58002=
202410311953 METAR KSEA 311953Z 23006KT 10SM BKN042 OVC060 09/05 A2987 RMK AO2 RAB22E32 SLP122 VCSH P0000 T00890050=
202410311853 METAR KSEA 311853Z 20006KT 10SM FEW015 BKN050 BKN060 OVC200 09/04 A2987 RMK AO2 SLP123 VCSH T00940039=
202410311753 METAR KSEA 311753Z 20003KT 10SM SCT041 BKN060 09/03 A2986 RMK AO2 SLP121 T00890033 10089 20050 56003=
202410311653 METAR KSEA 311653Z 21003KT 10SM SCT060 BKN100 BKN200 08/04 A2987 RMK AO2 SLP122 VIRGA SE T00780044=
202410311553 METAR KSEA 311553Z 14005KT 10SM SCT050 BKN065 BKN200 07/04 A2987 RMK AO2 SLP123 T00670039=
202410311453 METAR KSEA 311453Z 13005KT 10SM FEW010 FEW050 BKN065 BKN200 06/04 A2987 RMK AO2 SLP124 T00610039 58004=
202410311353 METAR KSEA 311353Z 10004KT 10SM SCT055 06/04 A2988 RMK AO2 SLP125 T00560039=
202410311253 METAR KSEA 311253Z VRB03KT 10SM FEW042 BKN055 06/04 A2988 RMK AO2 SLP128 T00560044=
202410311153 METAR KSEA 311153Z 00000KT 10SM SCT034 SCT043 OVC060 06/04 A2989 RMK AO2 SLP128 70023 T00610044 10067 20056 50000=
202410311053 METAR KSEA 311053Z 12005KT 10SM OVC034 06/04 A2989 RMK AO2 SLP130 T00610044=
202410310953 METAR KSEA 310953Z 13006KT 10SM SCT028 OVC042 06/05 A2989 RMK AO2 SLP130 T00560050=
202410310853 METAR KSEA 310853Z 16003KT 10SM BKN045 06/05 A2988 RMK AO2 SLP128 T00560050 53002=
202410310753 METAR KSEA 310753Z 15005KT 10SM SCT048 06/04 A2988 RMK AO2 SLP126 T00560044 401060056=
202410310653 METAR KSEA 310653Z 22003KT 10SM FEW023 BKN030 BKN040 06/06 A2988 RMK AO2 SLP126 T00610056=
202410310553 METAR KSEA 310553Z 14006KT 10SM FEW023 BKN040 BKN050 07/06 A2988 RMK AO2 SLP125 60002 T00670056 10083 20067 53003=
202410310453 METAR KSEA 310453Z 16009KT 10SM FEW023 SCT042 BKN060 07/06 A2988 RMK AO2 SLP125 T00720056=
202410310353 METAR KSEA 310353Z 15008KT 10SM BKN038 OVC049 07/06 A2987 RMK AO2 RAE28 SLP121 P0001 T00720056=
202410310253 METAR KSEA 310253Z 17010G17KT 7SM -RA BKN038 OVC050 08/06 A2987 RMK AO2 RAB04 SLP121 P0001 60001 T00780056 51016=
202410310153 METAR KSEA 310153Z 19011KT 10SM SCT021 OVC070 08/06 A2986 RMK AO2 SLP119 T00830056=
202410310138 SPECI KSEA 310138Z 19009KT 10SM SCT019 BKN027 OVC070 08/06 A2985 RMK AO2 T00830056=
202410310053 METAR KSEA 310053Z 16005KT 10SM FEW010 SCT036 OVC046 08/07 A2985 RMK AO2 SLP115 T00830067=
202410302353 METAR KSEA 302353Z 18008KT 10SM BKN035 BKN050 BKN100 08/07 A2982 RMK AO2 RAE45 SLP106 P0000 60021 T00830067 10106 20078 53003=
202410302253 METAR KSEA 302253Z 15008KT 10SM -RA BKN042 OVC049 08/06 A2981 RMK AO2 SLP101 P0004 T00830061=
202410302153 METAR KSEA 302153Z 12007KT 8SM -RA FEW023 OVC042 08/06 A2980 RMK AO2 SLP099 P0005 T00780061=
202410302053 METAR KSEA 302053Z 28003KT 6SM RA BR FEW015 OVC035 08/07 A2981 RMK AO2 SLP103 P0010 60012 T00780067 53010=
202410301953 METAR KSEA 301953Z 00000KT 9SM -RA OVC045 09/06 A2981 RMK AO2 SLP101 P0001 T00890056=
202410301853 METAR KSEA 301853Z 14006KT 7SM -RA BKN045 OVC050 10/03 A2979 RMK AO2 PK WND 14029/1829 RAB08 SLP094 P0001 T01000033=
202410301753 METAR KSEA 301753Z 13008KT 10SM BKN065 OVC080 10/01 A2978 RMK AO2 RAB1656E08 SLP092 P0000 60000 T01000011 10100 20061 55012=
202410301653 METAR KSEA 301653Z 09010KT 10SM BKN060 OVC090 09/02 A2977 RMK AO2 SLP089 T00940017=
202410301553 METAR KSEA 301553Z 13009KT 10SM OVC100 09/02 A2980 RMK AO2 SLP098 T00890017=
202410301453 METAR KSEA 301453Z 12008KT 10SM BKN120 08/02 A2982 RMK AO2 SLP104 T00830022 58022=
202410301353 METAR KSEA 301353Z 16005KT 10SM OVC130 07/03 A2984 RMK AO2 SLP111 T00720028=
202410301253 METAR KSEA 301253Z 15006KT 10SM OVC140 07/03 A2986 RMK AO2 SLP120 T00670028=
202410301153 METAR KSEA 301153Z 14005KT 10SM OVC160 06/03 A2988 RMK AO2 SLP126 T00610028 10072 20061 56028=
202410301053 METAR KSEA 301053Z 12009KT 10SM OVC150 07/03 A2990 RMK AO2 SLP134 T00670033=
202410300953 METAR KSEA 300953Z 13008KT 10SM BKN150 07/03 A2994 RMK AO2 SLP146 T00670033=
202410300853 METAR KSEA 300853Z 14007KT 10SM BKN220 06/04 A2997 RMK AO2 SLP155 T00610039 58019=
202410300753 METAR KSEA 300753Z 14007KT 10SM BKN250 07/04 A2999 RMK AO2 SLP163 T00670039 401220067=
202410300653 METAR KSEA 300653Z 13009KT 10SM SCT250 07/04 A3000 RMK AO2 SLP167 T00670039=
202410300553 METAR KSEA 300553Z 13010KT 10SM FEW060 07/04 A3002 RMK AO2 SLP174 T00720044 10117 20072 57010=
202410300453 METAR KSEA 300453Z 14009KT 10SM SCT060 08/05 A3004 RMK AO2 SLP179 T00830050=
202410300353 METAR KSEA 300353Z 14007KT 10SM BKN060 08/04 A3004 RMK AO2 SLP180 T00830039=
202410300253 METAR KSEA 300253Z 17004KT 10SM SCT060 09/04 A3006 RMK AO2 SLP185 T00890044 58004=
202410300153 METAR KSEA 300153Z 20004KT 10SM FEW060 SCT250 09/05 A3006 RMK AO2 SLP187 T00940050=
202410300053 METAR KSEA 300053Z 22005KT 10SM FEW024 SCT060 SCT250 11/04 A3006 RMK AO2 SLP188 T01060039=
202410292353 METAR KSEA 292353Z 19008KT 10SM FEW024 SCT050 SCT250 12/03 A3007 RMK AO2 SLP189 T01220033 10122 20094 56012=
202410292253 METAR KSEA 292253Z 23010KT 10SM FEW024 FEW050 SCT250 12/04 A3008 RMK AO2 SLP193 T01220039=
202410292153 METAR KSEA 292153Z 22009KT 10SM FEW022 SCT050 SCT250 12/04 A3009 RMK AO2 SLP197 T01220044=
202410292053 METAR KSEA 292053Z 26006KT 10SM FEW010 SCT019 BKN050 12/06 A3010 RMK AO2 SLP202 T01220061 58004=
202410292041 SPECI KSEA 292041Z VRB06KT 10SM FEW010 SCT019 BKN050 11/06 A3011 RMK AO2 T01110061=
202410291953 METAR KSEA 291953Z 20007KT 10SM SCT009 BKN015 BKN055 11/07 A3012 RMK AO2 SLP205 T01060072=
202410291946 SPECI KSEA 291946Z 20006KT 10SM SCT009 BKN015 BKN055 11/07 A3012 RMK AO2 T01060072=
202410291853 METAR KSEA 291853Z 21007KT 10SM BKN007 OVC013 09/07 A3012 RMK AO2 SLP208 T00940072=
202410291753 METAR KSEA 291753Z 19006KT 10SM BKN009 BKN018 OVC055 09/08 A3012 RMK AO2 SLP206 T00940078 10094 20083 51005=
202410291653 METAR KSEA 291653Z 16005KT 10SM BKN008 OVC014 09/07 A3012 RMK AO2 SLP206 T00890072=
202410291624 SPECI KSEA 291624Z 20004KT 10SM BKN008 OVC014 09/07 A3011 RMK AO2 T00890072=
202410291553 METAR KSEA 291553Z 19004KT 10SM SCT008 BKN014 BKN040 08/07 A3010 RMK AO2 SLP201 T00830072=
202410291548 SPECI KSEA 291548Z 19005KT 10SM SCT008 BKN014 BKN040 08/07 A3010 RMK AO2=
202410291510 SPECI KSEA 291510Z 18004KT 10SM BKN008 OVC014 08/07 A3010 RMK AO2 T00830072=
202410291500 SPECI KSEA 291500Z 18005KT 10SM OVC014 08/07 A3010 RMK AO2 T00830072=
202410291453 METAR KSEA 291453Z 17004KT 10SM BKN008 OVC014 08/07 A3009 RMK AO2 SLP198 T00830072 53007=
202410291353 METAR KSEA 291353Z 16005KT 10SM BKN006 OVC011 08/07 A3008 RMK AO2 SLP193 T00830072=
202410291253 METAR KSEA 291253Z 18004KT 10SM OVC006 08/07 A3008 RMK AO2 SLP193 T00830072=
202410291153 METAR KSEA 291153Z 19003KT 10SM OVC007 08/07 A3007 RMK AO2 SLP191 60000 70001 T00830072 10094 20083 53006=
202410291138 SPECI KSEA 291138Z 00000KT 10SM BKN007 OVC050 08/07 A3007 RMK AO2 T00830072=
202410291123 SPECI KSEA 291123Z 18004KT 10SM FEW007 OVC050 08/07 A3007 RMK AO2 T00830072=
202410291113 SPECI KSEA 291113Z 16004KT 10SM FEW013 BKN047 OVC055 08/07 A3006 RMK AO2 T00830072=
202410291053 METAR KSEA 291053Z 20003KT 10SM FEW013 BKN027 OVC047 08/07 A3006 RMK AO2 SLP187 T00830072=
202410291040 SPECI KSEA 291040Z 19004KT 10SM SCT013 BKN027 OVC047 08/07 A3006 RMK AO2 T00830072=
202410290953 METAR KSEA 290953Z 20003KT 10SM BKN009 BKN027 OVC037 08/07 A3006 RMK AO2 SLP185 T00830072=
202410290949 SPECI KSEA 290949Z 20003KT 10SM BKN009 BKN027 OVC037 08/07 A3005 RMK AO2=
202410290921 SPECI KSEA 290921Z 16005KT 10SM SCT007 BKN024 OVC080 08/07 A3005 RMK AO2 T00830072=
202410290853 METAR KSEA 290853Z 17005KT 10SM BKN024 BKN031 OVC080 08/07 A3005 RMK AO2 RAE00 SLP184 P0000 60000 T00830072 51008=
202410290753 METAR KSEA 290753Z 17006KT 10SM -RA FEW025 BKN038 OVC080 09/07 A3005 RMK AO2 RAB0655 SLP182 P0000 T00890072 401280083=
202410290719 SPECI KSEA 290719Z 18007KT 10SM -RA FEW010 SCT017 OVC035 09/07 A3004 RMK AO2 RAB0655 P0000 T00890072=
202410290653 METAR KSEA 290653Z 20005KT 8SM OVC011 09/07 A3004 RMK AO2 RAB07E19B42E51 SLP180 P0000 T00890067=
202410290553 METAR KSEA 290553Z 20007KT 10SM BKN013 BKN024 OVC032 09/07 A3003 RMK AO2 SLP176 T00940067 10122 20094 53017=
202410290453 METAR KSEA 290453Z 18009KT 10SM OVC013 10/07 A3001 RMK AO2 SLP170 T01000067=
202410290353 METAR KSEA 290353Z 23011KT 10SM BKN017 BKN085 10/07 A3000 RMK AO2 SLP165 T01000067=
202410290253 METAR KSEA 290253Z 21011KT 10SM SCT019 BKN041 BKN100 11/07 A2998 RMK AO2 SLP159 T01060067 53012=
202410290237 SPECI KSEA 290237Z 22011KT 10SM SCT021 BKN041 BKN110 11/07 A2998 RMK AO2 T01060067=
202410290153 METAR KSEA 290153Z 21011KT 10SM BKN022 BKN060 11/07 A2996 RMK AO2 SLP154 T01110072=
202410290111 SPECI KSEA 290111Z 22009KT 10SM BKN024 BKN100 11/07 A2996 RMK AO2 T01110067=
202410290053 METAR KSEA 290053Z 22010KT 10SM SCT026 BKN034 BKN120 12/07 A2995 RMK AO2 SLP149 T01170067=
202410282353 METAR KSEA 282353Z 21010G19KT 10SM SCT024 BKN031 12/07 A2994 RMK AO2 SLP147 T01220072 10128 20100 53002=
202410282253 METAR KSEA 282253Z 22011KT 10SM FEW022 BKN030 OVC042 12/07 A2994 RMK AO2 SLP145 T01170067=
202410282153 METAR KSEA 282153Z 20015KT 10SM BKN023 BKN042 12/07 A2993 RMK AO2 SLP142 T01220067=
202410282053 METAR KSEA 282053Z 22010KT 10SM BKN020 BKN100 12/07 A2994 RMK AO2 SLP144 T01170072 50001=
202410282000 SPECI KSEA 282000Z 22014G22KT 10SM BKN018 BKN110 12/07 A2994 RMK AO2 T01170072=
202410281953 METAR KSEA 281953Z 21014KT 10SM SCT015 SCT027 BKN110 12/07 A2994 RMK AO2 SLP145 T01170072=
202410281853 METAR KSEA 281853Z 21014G22KT 10SM FEW015 SCT027 BKN095 11/08 A2994 RMK AO2 SLP144 T01060078=
202410281753 METAR KSEA 281753Z 20012KT 10SM FEW027 SCT075 BKN110 10/07 A2993 RMK AO2 RAB01E12 SLP143 P0000 60001 T01000072 10100 20083 51010=
202410281653 METAR KSEA 281653Z 19014G20KT 10SM FEW022 BKN033 BKN080 09/07 A2992 RMK AO2 RAB1559E09 SLP140 P0001 T00890067=
202410281553 METAR KSEA 281553Z 19011KT 10SM SCT022 BKN038 BKN075 09/06 A2992 RMK AO2 SLP138 SHRA S-SW T00940061=
202410281502 SPECI KSEA 281502Z 19012KT 10SM SCT022 SCT050 BKN100 BKN200 09/06 A2990 RMK AO2 T00890056=
202410281453 METAR KSEA 281453Z 19011KT 10SM BKN022 BKN060 BKN075 09/06 A2990 RMK AO2 RAB13E43 SLP132 P0000 60000 T00890061 51008=
202410281413 SPECI KSEA 281413Z 19010KT 10SM -RA BKN024 BKN050 BKN075 09/06 A2990 RMK AO2 RAB13 P0000 T00890061=
202410281353 METAR KSEA 281353Z 19011KT 10SM SCT024 BKN060 BKN075 09/06 A2989 RMK AO2 SLP130 T00890061=
202410281253 METAR KSEA 281253Z 19012KT 10SM FEW035 FEW070 SCT100 BKN200 09/06 A2989 RMK AO2 SLP129 T00890061 $=
202410281153 METAR KSEA 281153Z 19013KT 10SM SCT035 SCT060 BKN200 09/07 A2988 RMK AO2 SLP124 70038 T00890067 10094 20089 58005 $=
202410281053 METAR KSEA 281053Z 20011KT 10SM BKN036 BKN200 09/07 A2989 RMK AO2 SLP127 T00890067 $=
202410280953 METAR KSEA 280953Z 20011KT 10SM FEW016 BKN030 OVC065 09/07 A2989 RMK AO2 SLP127 T00940067 $=
202410280853 METAR KSEA 280853Z 20010KT 10SM SCT036 BKN060 BKN150 09/07 A2989 RMK AO2 SLP129 T00940067 50004 $=
202410280753 METAR KSEA 280753Z 19012KT 10SM SCT027 BKN032 OVC045 09/06 A2989 RMK AO2 SLP129 T00940061 401390083 $=
202410280653 METAR KSEA 280653Z 16010KT 10SM BKN033 OVC050 09/06 A2989 RMK AO2 SLP127 T00890061 $=
202410280556 SPECI KSEA 280556Z 18013KT 10SM BKN032TCU BKN180 09/06 A2988 RMK AO2 TCU N T00890061 $=
202410280553 METAR KSEA 280553Z 18013KT 10SM BKN032TCU BKN180 09/06 A2988 RMK AO2 SLP125 60026 T00890061 10106 20083 53004 $=
202410280453 METAR KSEA 280453Z 19012G23KT 10SM FEW030 SCT180 09/07 A2987 RMK AO2 SLP120 T00940067 $=
202410280353 METAR KSEA 280353Z 17010KT 10SM FEW023 FEW032 SCT049 09/08 A2985 RMK AO2 RAE31 SLP116 P0012 T00940078 $=
202410280253 METAR KSEA 280253Z 19010KT 10SM -RA FEW025 BKN036 OVC045 09/08 A2987 RMK AO2 RAE0154B16 SLP121 P0009 60014 T00940078 53007 $=
202410280153 METAR KSEA 280153Z 18010KT 10SM -RA FEW023 SCT037 BKN060 10/08 A2986 RMK AO2 RAB40 SLP118 P0000 T01000078 $=
202410280053 METAR KSEA 280053Z 20011KT 10SM SCT029 SCT041 BKN060 10/08 A2984 RMK AO2 RAE32 SLP112 P0005 T01000083 $=
202410280034 SPECI KSEA 280034Z 20012G20KT 10SM FEW038 BKN047 OVC065 10/08 A2984 RMK AO2 RAE32 P0005 T01000078 $=
202410272353 METAR KSEA 272353Z 22012KT 9SM -RA FEW025 BKN029 OVC042 09/07 A2985 RMK AO2 PK WND 24032/2335 WSHFT 2325 RAB34 SLP114 P0004 60006 T00940072 10139 20094 53004 $=
202410272339 SPECI KSEA 272339Z 24015G32KT 3SM +RA BR FEW019 BKN025 BKN031 09/07 A2985 RMK AO2 PK WND 24032/2335 WSHFT 2325 RAB34 P0002 T00940072=
202410272335 SPECI KSEA 272335Z 24018G32KT 7SM -RA FEW021 BKN029 BKN036 11/07 A2985 RMK AO2 PK WND 24032/2335 RAB34 P0000 T01060072=
202410272253 METAR KSEA 272253Z 19015G23KT 10SM SCT021 BKN050 12/08 A2984 RMK AO2 PK WND 21027/2222 SLP109 T01220083=
202410272153 METAR KSEA 272153Z 19016G24KT 10SM SCT029 SCT046 13/08 A2983 RMK AO2 RAE30 SLP108 P0000 T01280083=
202410272053 METAR KSEA 272053Z 20014G21KT 8SM -RA FEW032 BKN048 OVC055 12/08 A2983 RMK AO2 RAE08B48 SLP108 P0002 60002 T01170083 58012=
202410271953 METAR KSEA 271953Z 21013G21KT 10SM -RA SCT030 BKN049 OVC060 12/08 A2986 RMK AO2 RAB32 SLP116 P0000 T01220083=
202410271853 METAR KSEA 271853Z 20017G23KT 10SM SCT039 BKN060 BKN120 13/08 A2986 RMK AO2 RAE1758 SLP117 P0000 T01330083=
202410271753 METAR KSEA 271753Z 19012G21KT 10SM -RA BKN037 OVC047 11/09 A2987 RMK AO2 RAB23E34B51 SLP121 P0000 60006 T01110089 10122 20094 51016=
202410271653 METAR KSEA 271653Z 19009KT 10SM SCT030 BKN045 OVC055 11/08 A2987 RMK AO2 SLP119 T01110083=
202410271553 METAR KSEA 271553Z 18013KT 10SM FEW030 BKN055 BKN120 10/07 A2985 RMK AO2 SLP114 T01000072=
202410271453 METAR KSEA 271453Z 19011G19KT 10SM SCT030 BKN065 BKN095 10/08 A2982 RMK AO2 SLP105 60006 T01000078 51018=
202410271353 METAR KSEA 271353Z 20010G19KT 10SM SCT045 BKN055 BKN120 10/08 A2981 RMK AO2 RAB05E36 SLP100 P0005 T01000078=
202410271318 SPECI KSEA 271318Z 20015G24KT 5SM RA BR FEW013 BKN022 OVC036 10/09 A2981 RMK AO2 RAB05 P0004 T01000094=
202410271253 METAR KSEA 271253Z 17011KT 7SM FEW011 SCT022 OVC031 11/09 A2980 RMK AO2 RAE24 SLP098 P0001 T01060089=
202410271241 SPECI KSEA 271241Z 18011KT 10SM SCT011 BKN020 OVC033 11/09 A2980 RMK AO2 RAE24 P0001 T01060094=
202410271153 METAR KSEA 271153Z 19015G21KT 10SM -RA OVC060 11/09 A2977 RMK AO2 RAE20B40 SLP086 P0003 60033 70065 T01060089 10139 20106 53022=
202410271135 SPECI KSEA 271135Z 19013G25KT 10SM FEW009 OVC065 11/09 A2975 RMK AO2 RAE20 P0002 T01060089=
202410271053 METAR KSEA 271053Z 21015G28KT 7SM -RA OVC060 11/09 A2971 RMK AO2 PK WND 20031/1024 WSHFT 1020 SLP068 P0009 T01110094=
202410271038 SPECI KSEA 271038Z 23015G25KT 8SM -RA FEW008 BKN031 OVC065 12/11 A2970 RMK AO2 PK WND 20031/1024 WSHFT 1020 P0006 T01220106=
202410271030 SPECI KSEA 271030Z 23015G31KT 5SM -RA BR SCT008 BKN029 OVC060 13/12 A2970 RMK AO2 PK WND 20031/1024 PRESRR P0005 T01280117=
202410270953 METAR KSEA 270953Z 14007KT 7SM -RA FEW048 OVC065 13/13 A2967 RMK AO2 SLP055 P0009 T01280128=
202410270925 SPECI KSEA 270925Z 15006KT 8SM -RA SCT006 BKN049 OVC075 13/12 A2968 RMK AO2 P0007 T01280122=
202410270914 SPECI KSEA 270914Z 17005KT 3SM -RA BR SCT006 BKN020 OVC049 13/12 A2968 RMK AO2 P0006 T01280122=
202410270910 SPECI KSEA 270910Z 18005KT 2 1/2SM +RA BR BKN005 BKN018 OVC033 13/12 A2969 RMK AO2 P0005 T01330122=
202410270900 SPECI KSEA 270900Z 22006KT 7SM -RA SCT008 BKN020 OVC032 13/12 A2970 RMK AO2 P0001 T01330122=
202410270853 METAR KSEA 270853Z 21006KT 4SM RA BR BKN020 BKN027 OVC032 13/12 A2970 RMK AO2 RAB29 SLP064 P0009 60012 T01330122 56027=
202410270849 SPECI KSEA 270849Z 22006KT 4SM RA BR SCT017 BKN022 OVC029 13/12 A2970 RMK AO2 RAB29 P0008=
202410270753 METAR KSEA 270753Z 18006KT 10SM BKN045 BKN055 OVC075 13/13 A2973 RMK AO2 RAB0658E51 SLP075 P0003 T01330128 401610117=
202410270722 SPECI KSEA 270722Z 18005KT 9SM -RA SCT015 SCT035 OVC049 13/13 A2976 RMK AO2 RAB0658 PRESFR P0002 T01330128=
202410270653 METAR KSEA 270653Z 16009KT 10SM BKN016 OVC019 14/13 A2978 RMK AO2 RAB0557E15 SLP091 P0000 T01390128=
202410270628 SPECI KSEA 270628Z 17007KT 10SM BKN016 BKN060 OVC095 13/13 A2979 RMK AO2 RAB0557E15 P0000 T01330128=
202410270553 METAR KSEA 270553Z 15008KT 10SM SCT014 BKN055 OVC075 13/13 A2979 RMK AO2 RAE48 SLP094 P0004 60019 T01330128 10139 20122 58025=
202410270453 METAR KSEA 270453Z 14009KT 10SM -RA FEW009 SCT025 BKN070 13/13 A2981 RMK AO2 SLP101 P0006 T01330128=
202410270353 METAR KSEA 270353Z 16009KT 10SM -RA FEW009 SCT028 OVC080 13/12 A2985 RMK AO2 RAE11B31 SLP114 P0002 T01330122=
202410270253 METAR KSEA 270253Z 15010KT 8SM -RA FEW005 SCT028 OVC065 13/12 A2987 RMK AO2 SLP120 P0004 60007 T01330122 58021=
202410270153 METAR KSEA 270153Z 16007KT 8SM -RA FEW005 SCT045 BKN065 13/12 A2990 RMK AO2 SLP130 P0003 T01280122=
202410270053 METAR KSEA 270053Z 16009KT 8SM -RA FEW009 SCT055 BKN070 BKN140 13/12 A2991 RMK AO2 RAB51 SLP134 P0000 T01280122=
202410270040 SPECI KSEA 270040Z 16008KT 10SM SCT004 BKN009 BKN043 BKN140 13/12 A2991 RMK AO2 T01280122=
202410270016 SPECI KSEA 270016Z 17006KT 7SM BKN004 OVC009 13/12 A2992 RMK AO2 T01280117=
202410262353 METAR KSEA 262353Z 18007KT 10SM SCT004 BKN010 BKN080 13/12 A2993 RMK AO2 SLP142 60011 T01280122 10128 20117 58013=
202410262347 SPECI KSEA 262347Z 17006KT 10SM SCT006 BKN010 BKN080 13/12 A2993 RMK AO2=
202410262253 METAR KSEA 262253Z 16006KT 7SM SCT006 BKN043 OVC080 13/12 A2995 RMK AO2 RAE43 SLP147 P0002 T01280122=
202410262233 SPECI KSEA 262233Z 17005KT 8SM -RA FEW008 SCT026 OVC043 13/11 A2995 RMK AO2 P0002 T01280111=
202410262213 SPECI KSEA 262213Z 15006KT 5SM -RA BR SCT005 BKN026 OVC043 13/12 A2996 RMK AO2 P0001 T01280117=
202410262201 SPECI KSEA 262201Z 19005KT 2SM -RA BR SCT005 BKN020 OVC024 13/12 A2996 RMK AO2 P0001 T01280117=
202410262153 METAR KSEA 262153Z 16005KT 1 1/2SM R16L/5000VP6000FT -RA BR SCT005 BKN020 OVC026 13/12 A2996 RMK AO2 TWR VIS 2 RAB34 SLP149 P0003 T01280117=
202410262147 SPECI KSEA 262147Z 18005KT 2SM R16L/5000VP6000FT -RA BR SCT006 BKN020 OVC026 13/12 A2997 RMK AO2 RAB34 P0002=
202410262127 SPECI KSEA 262127Z 19006KT 10SM SCT006 OVC028 13/11 A2996 RMK AO2 T01280111=
202410262053 METAR KSEA 262053Z 12005KT 7SM FEW006 OVC032 13/12 A2997 RMK AO2 RAB06E46 SLP154 P0001 60006 T01280117 58017=
202410261953 METAR KSEA 261953Z 15005KT 10SM FEW006 BKN034 OVC055 12/11 A3000 RMK AO2 RAE22 SLP167 P0001 T01220106=
202410261853 METAR KSEA 261853Z 16009KT 3SM -RA BR SCT004 BKN040 OVC065 12/11 A3003 RMK AO2 RAB05 SLP176 P0004 T01220111=
202410261807 SPECI KSEA 261807Z 13007KT 7SM -RA FEW005 BKN038 OVC060 12/11 A3003 RMK AO2 RAB05 P0000 T01170111=
202410261753 METAR KSEA 261753Z 12008KT 6SM BR FEW010 BKN038 OVC049 12/11 A3002 RMK AO2 RAB34E45 SLP172 P0000 60002 T01170111 10133 20117 51012=
202410261653 METAR KSEA 261653Z 14010KT 7SM FEW010 OVC039 12/11 A3002 RMK AO2 RAE50 SLP172 P0001 T01220106=
202410261553 METAR KSEA 261553Z 17008KT 10SM -RA BKN044 OVC065 12/11 A3001 RMK AO2 RAB50 SLP168 P0000 T01220106=
202410261453 METAR KSEA 261453Z 21008KT 10SM FEW010 BKN030 OVC050 12/11 A2999 RMK AO2 RAB26E38 SLP161 P0000 60001 T01220111 51019=
202410261411 SPECI KSEA 261411Z 20007KT 10SM FEW011 SCT028 OVC034 12/11 A2998 RMK AO2 T01220111=
202410261353 METAR KSEA 261353Z 21006KT 10SM BKN008 BKN017 OVC028 12/11 A2997 RMK AO2 RAB1259E29 SLP156 P0001 T01220111=
202410261330 SPECI KSEA 261330Z 21006KT 10SM BKN006 OVC015 12/12 A2997 RMK AO2 RAB1259E29 P0001 T01220117=
202410261300 SPECI KSEA 261300Z 24007G16KT 5SM -RA BR SCT009 BKN015 OVC020 13/12 A2997 RMK AO2 RAB1259 P0001 T01280117=
202410261253 METAR KSEA 261253Z 24009G16KT 5SM BR OVC015 13/12 A2996 RMK AO2 RAB42E53 SLP153 CIG 012V018 P0000 T01280117=
202410261153 METAR KSEA 261153Z 21005KT 10SM BKN018 BKN023 OVC033 13/12 A2993 RMK AO2 RAE40 SLP141 P0000 60005 70005 T01330117 10161 20111 53037=
202410261107 SPECI KSEA 261107Z 19010KT 6SM -RA FEW015 BKN027 OVC032 13/12 A2990 RMK AO2 P0000 T01330117=
202410261053 METAR KSEA 261053Z 19012KT 5SM -RA FEW015 BKN034 OVC046 14/12 A2989 RMK AO2 PK WND 18027/0957 RAB02 SLP128 P0002 T01390117=
202410260953 METAR KSEA 260953Z 19016G26KT 10SM BKN035 OVC050 16/10 A2985 RMK AO2 PK WND 17031/0921 RAB22E33 SLP114 P0000 T01610100=
202410260853 METAR KSEA 260853Z 18018G28KT 10SM BKN039 OVC050 16/09 A2982 RMK AO2 PK WND 19030/0839 RAE42 SLP103 P0002 60003 T01610089 53011=
202410260753 METAR KSEA 260753Z 16003KT 10SM -RA OVC046 11/08 A2980 RMK AO2 SLP096 P0000 T01110083 401500061=
202410260653 METAR KSEA 260653Z 10011KT 10SM -RA FEW049 OVC060 13/04 A2977 RMK AO2 SLP088 P0001 T01330044=
202410260553 METAR KSEA 260553Z VRB03KT 10SM -RA FEW050 OVC075 12/07 A2979 RMK AO2 RAB16 SLP093 P0000 60000 T01170067 10150 20111 55003=
202410260453 METAR KSEA 260453Z 16006KT 10SM FEW050 OVC085 15/01 A2978 RMK AO2 SLP090 VCSH T01500011=
202410260353 METAR KSEA 260353Z 12013KT 10SM BKN120 OVC200 15/00 A2978 RMK AO2 SLP090 T01500000=
202410260253 METAR KSEA 260253Z 12013KT 10SM BKN150 BKN250 15/00 A2980 RMK AO2 SLP096 T01500000 56011=
202410260153 METAR KSEA 260153Z 12013KT 10SM FEW160 SCT250 15/01 A2980 RMK AO2 SLP098 T01500006=
202410260053 METAR KSEA 260053Z 14004KT 10SM SCT160 BKN250 13/06 A2981 RMK AO2 SLP102 T01280056=
202410252353 METAR KSEA 252353Z 00000KT 10SM SCT160 BKN250 14/04 A2983 RMK AO2 SLP109 T01390044 10150 20100 56015=
202410252253 METAR KSEA 252253Z 00000KT 10SM SCT160 BKN250 14/04 A2984 RMK AO2 SLP112 T01440044=
202410252153 METAR KSEA 252153Z 31006KT 10SM SCT150 BKN250 14/03 A2986 RMK AO2 SLP119 T01390033=
202410252053 METAR KSEA 252053Z 29006KT 10SM SCT150 BKN240 14/07 A2987 RMK AO2 SLP123 T01440067 58024=
202410251953 METAR KSEA 251953Z 30004KT 10SM SCT150 BKN230 13/06 A2991 RMK AO2 SLP135 T01330056=
202410251853 METAR KSEA 251853Z 10SM SCT150 BKN200 12/04 A2993 RMK AO2 SLP141 T01220039=
202410251753 METAR KSEA 251753Z 33006KT 10SM SCT150 BKN200 10/05 A2995 RMK AO2 SLP148 T01000050 10106 20061 58008=
202410251653 METAR KSEA 251653Z 36005KT 10SM SCT150 OVC200 09/04 A2996 RMK AO2 SLP152 T00890044=
202410251553 METAR KSEA 251553Z 01007KT 10SM SCT150 OVC200 08/04 A2997 RMK AO2 SLP155 T00780039=
202410251453 METAR KSEA 251453Z 35007KT 10SM SCT150 BKN220 07/04 A2997 RMK AO2 SLP156 T00670044 56013=
202410251353 METAR KSEA 251353Z 01010KT 10SM BKN190 BKN250 06/05 A2997 RMK AO2 SLP157 T00610050=
202410251253 METAR KSEA 251253Z 02011KT 10SM BKN190 BKN250 07/05 A3000 RMK AO2 SLP165 T00670050=
202410251153 METAR KSEA 251153Z 02013KT 10SM SCT160 BKN230 06/05 A3001 RMK AO2 SLP169 T00610050 10078 20061 58021=
202410251053 METAR KSEA 251053Z 02011KT 10SM BKN160 BKN230 07/04 A3003 RMK AO2 SLP176 T00670044=
202410250953 METAR KSEA 250953Z 02013KT 10SM BKN160 BKN240 07/05 A3006 RMK AO2 SLP187 T00670050=
202410250853 METAR KSEA 250853Z 02012KT 10SM FEW150 SCT240 07/05 A3007 RMK AO2 SLP191 T00670050 56013=
202410250753 METAR KSEA 250753Z 01011KT 10SM SCT150 BKN240 07/05 A3008 RMK AO2 SLP192 T00720050 401280072=
202410250653 METAR KSEA 250653Z 01011KT 10SM FEW160 SCT220 07/04 A3010 RMK AO2 SLP200 T00720044=
202410250553 METAR KSEA 250553Z 01010KT 10SM SCT180 BKN220 08/04 A3011 RMK AO2 SLP204 T00780039 10111 20078 55016=
202410250453 METAR KSEA 250453Z 01012KT 10SM SCT180 BKN230 08/03 A3011 RMK AO2 SLP203 T00830033=
202410250353 METAR KSEA 250353Z 03011KT 10SM OVC200 09/03 A3013 RMK AO2 SLP211 T00940033=
202410250253 METAR KSEA 250253Z 02013KT 10SM OVC180 09/02 A3016 RMK AO2 SLP220 T00940022 56017=
202410250153 METAR KSEA 250153Z 02009KT 10SM BKN200 10/03 A3017 RMK AO2 SLP223 T01000033=
202410250053 METAR KSEA 250053Z 36007KT 10SM BKN200 BKN250 10/03 A3018 RMK AO2 SLP228 T01000033=
202410242353 METAR KSEA 242353Z 33007KT 10SM SCT200 BKN250 11/05 A3021 RMK AO2 SLP237 T01110050 10128 20094 56023=
202410242253 METAR KSEA 242253Z 36010KT 10SM FEW032 SCT250 12/02 A3023 RMK AO2 SLP243 T01220022=
202410242153 METAR KSEA 242153Z 02008KT 350V060 10SM FEW031 SCT250 13/03 A3025 RMK AO2 SLP249 T01280033=
202410242053 METAR KSEA 242053Z 04004KT 10SM SCT030 SCT060 12/03 A3028 RMK AO2 SLP261 T01220028 58023=
202410241953 METAR KSEA 241953Z 32004KT 10SM SCT027 SCT250 11/04 A3031 RMK AO2 SLP270 T01060044=
202410241853 METAR KSEA 241853Z 30004KT 10SM SCT021 BKN250 11/05 A3034 RMK AO2 SLP280 T01060050=
202410241753 METAR KSEA 241753Z VRB04KT 10SM SCT016 BKN220 09/05 A3035 RMK AO2 SLP285 60000 T00940050 10094 20072 58008=
202410241653 METAR KSEA 241653Z 24003KT 10SM BKN010 08/05 A3036 RMK AO2 SLP290 T00780050=
202410241639 SPECI KSEA 241639Z 16005KT 10SM BKN010 08/06 A3037 RMK AO2 T00830056=
202410241553 METAR KSEA 241553Z 14006KT 10SM SCT009 BKN030 BKN250 08/05 A3036 RMK AO2 SLP290 T00780050=
202410241532 SPECI KSEA 241532Z 12005KT 10SM SCT009 BKN030 BKN250 08/05 A3036 RMK AO2 T00780050=
202410241453 METAR KSEA 241453Z 21003KT 10SM BKN007 08/06 A3037 RMK AO2 SLP293 60000 T00780056 53001=
202410241353 METAR KSEA 241353Z 15004KT 10SM OVC007 08/06 A3038 RMK AO2 DZB33E50 SLP294 P0000 T00780056=
202410241334 SPECI KSEA 241334Z VRB04KT 10SM -DZ BKN008 OVC014 07/05 A3037 RMK AO2 DZB33 P0000 T00720050=
202410241253 METAR KSEA 241253Z 14004KT 10SM OVC014 07/05 A3036 RMK AO2 SLP290 T00720050=
202410241153 METAR KSEA 241153Z 17003KT 10SM OVC013 07/05 A3037 RMK AO2 SLP292 T00720050 10083 20072 51007=
202410241053 METAR KSEA 241053Z 15004KT 10SM OVC012 07/05 A3037 RMK AO2 SLP291 T00720050=
202410240953 METAR KSEA 240953Z 16003KT 10SM OVC013 08/05 A3036 RMK AO2 SLP289 T00780050=
202410240853 METAR KSEA 240853Z 17003KT 10SM OVC014 08/04 A3035 RMK AO2 SLP285 T00780044 53001=
202410240833 SPECI KSEA 240833Z 15003KT 10SM OVC014 08/04 A3035 RMK AO2 T00780044=
202410240753 METAR KSEA 240753Z 15004KT 10SM OVC015 07/04 A3034 RMK AO2 SLP283 T00720044 401170061=
202410240653 METAR KSEA 240653Z 16006KT 10SM OVC016 08/05 A3035 RMK AO2 SLP286 T00780050=
202410240609 SPECI KSEA 240609Z 16005KT 10SM BKN017 08/05 A3035 RMK AO2 T00830050=
202410240553 METAR KSEA 240553Z 19005KT 10SM FEW017 BKN060 08/05 A3035 RMK AO2 SLP284 T00830050 10106 20078 53002=
202410240453 METAR KSEA 240453Z 16004KT 10SM SCT060 08/05 A3034 RMK AO2 SLP283 T00780050=
202410240353 METAR KSEA 240353Z 15009KT 10SM FEW032 SCT060 BKN080 10/06 A3034 RMK AO2 SLP282 T01000061=
202410240253 METAR KSEA 240253Z 14005KT 10SM FEW032 BKN060 09/06 A3034 RMK AO2 SLP282 T00940061 53012=
202410240153 METAR KSEA 240153Z 14006KT 10SM FEW023 BKN060 10/05 A3032 RMK AO2 SLP274 T01000050=
202410240053 METAR KSEA 240053Z 17005KT 10SM FEW022 BKN070 09/04 A3031 RMK AO2 SLP270 T00940044=
202410232353 METAR KSEA 232353Z 00000KT 10SM SCT022 SCT070 10/04 A3031 RMK AO2 SLP270 T01000044 10117 20078 53002=
202410232253 METAR KSEA 232253Z 17004KT 10SM SCT018 SCT070 11/05 A3030 RMK AO2 SLP268 T01110050=
202410232153 METAR KSEA 232153Z VRB05KT 10SM FEW014 SCT032 BKN065 11/06 A3030 RMK AO2 SLP268 T01060061=
202410232053 METAR KSEA 232053Z VRB04KT 10SM FEW010 SCT014 BKN031 11/06 A3030 RMK AO2 SLP269 T01060061 50001=
202410232037 SPECI KSEA 232037Z 22005KT 10SM FEW010 BKN017 BKN033 10/07 A3030 RMK AO2 T01000067=
202410232000 SPECI KSEA 232000Z 21005KT 10SM BKN010 BKN017 OVC028 09/07 A3031 RMK AO2 T00940067=
202410231953 METAR KSEA 231953Z 21005KT 9SM SCT009 BKN017 OVC026 09/07 A3030 RMK AO2 SLP270 T00940067=
202410231940 SPECI KSEA 231940Z 21005KT 10SM SCT009 BKN014 OVC026 09/07 A3031 RMK AO2 T00940067=
202410231853 METAR KSEA 231853Z 17005KT 7SM BKN007 BKN023 OVC070 09/07 A3031 RMK AO2 SLP270 T00890067=
202410231753 METAR KSEA 231753Z 21005KT 7SM BKN006 OVC011 08/06 A3030 RMK AO2 SLP269 T00780061 10078 20061 51009=
202410231653 METAR KSEA 231653Z VRB03KT 10SM OVC005 07/05 A3029 RMK AO2 SLP266 T00720050=
202410231553 METAR KSEA 231553Z 00000KT 10SM OVC007 07/04 A3029 RMK AO2 SLP264 T00670044=
202410231453 METAR KSEA 231453Z 14004KT 7SM OVC007 07/04 A3027 RMK AO2 SLP258 T00670044 53004=
202410231424 SPECI KSEA 231424Z 15004KT 7SM OVC005 07/05 A3027 RMK AO2 T00670050=
202410231403 SPECI KSEA 231403Z 14003KT 7SM OVC004 07/06 A3026 RMK AO2 T00720056=
202410231353 METAR KSEA 231353Z 13003KT 7SM BKN006 OVC013 07/06 A3026 RMK AO2 SLP255 T00670056=
202410231323 SPECI KSEA 231323Z 13005KT 7SM OVC011 07/06 A3025 RMK AO2 T00720061=
202410231253 METAR KSEA 231253Z 11003KT 8SM OVC008 07/06 A3025 RMK AO2 SLP252 T00720061=
202410231153 METAR KSEA 231153Z 00000KT 8SM OVC005 07/06 A3026 RMK AO2 SLP254 T00720061 10089 20061 56001=
202410231151 SPECI KSEA 231151Z 00000KT 8SM OVC005 07/06 A3026 RMK AO2=
202410231138 SPECI KSEA 231138Z 00000KT 8SM OVC004 07/06 A3026 RMK AO2 T00720061=
202410231053 METAR KSEA 231053Z 00000KT 9SM OVC007 08/07 A3025 RMK AO2 SLP252 T00780067=
202410230953 METAR KSEA 230953Z 00000KT 9SM BKN009 06/05 A3026 RMK AO2 SLP255 T00610050=
202410230930 SPECI KSEA 230930Z 08003KT 10SM BKN009 07/06 A3027 RMK AO2 T00670061=
202410230853 METAR KSEA 230853Z 06004KT 10SM FEW050 07/06 A3027 RMK AO2 SLP257 T00720056 58007=
202410230753 METAR KSEA 230753Z 06005KT 10SM SCT200 08/06 A3028 RMK AO2 SLP262 T00780061 401390067=
202410230653 METAR KSEA 230653Z 05005KT 10SM FEW090 08/07 A3028 RMK AO2 SLP262 T00830067=
202410230553 METAR KSEA 230553Z 01004KT 10SM FEW090 08/06 A3029 RMK AO2 SLP264 T00780061 10133 20078 53002=
202410230453 METAR KSEA 230453Z 36006KT 10SM CLR 08/07 A3028 RMK AO2 SLP262 T00780067=
202410230353 METAR KSEA 230353Z 36007KT 10SM CLR 09/07 A3028 RMK AO2 SLP261 T00890072=
202410230253 METAR KSEA 230253Z 36007KT 10SM CLR 09/05 A3028 RMK AO2 SLP262 T00940050 55003=
202410230153 METAR KSEA 230153Z 36008KT 10SM FEW036 10/04 A3027 RMK AO2 SLP258 T01000044=
202410230053 METAR KSEA 230053Z 35006KT 10SM FEW036 12/04 A3028 RMK AO2 SLP263 T01170039=
202410222353 METAR KSEA 222353Z 34005KT 10SM FEW036 13/04 A3029 RMK AO2 SLP264 T01330039 10139 20111 56007=
202410222253 METAR KSEA 222253Z 32006KT 10SM SCT034 13/04 A3030 RMK AO2 SLP267 T01330039=
202410222153 METAR KSEA 222153Z 31007KT 10SM SCT038 13/04 A3030 RMK AO2 SLP268 T01330044=
202410222053 METAR KSEA 222053Z 29006KT 10SM SCT032 SCT040 13/05 A3031 RMK AO2 SLP272 T01280050 58013=
202410221953 METAR KSEA 221953Z 28004KT 10SM SCT028 SCT040 12/05 A3033 RMK AO2 SLP280 T01220050=
202410221853 METAR KSEA 221853Z 25003KT 10SM SCT025 SCT050 12/06 A3035 RMK AO2 SLP284 T01220056=
202410221753 METAR KSEA 221753Z 16006KT 10SM FEW025 SCT044 11/04 A3035 RMK AO2 SLP285 T01110044 10111 20067 51015=
202410221653 METAR KSEA 221653Z 14007KT 10SM FEW025 BKN044 09/04 A3035 RMK AO2 SLP285 T00940039=
202410221553 METAR KSEA 221553Z 14009KT 10SM FEW025 SCT046 SCT100 08/04 A3033 RMK AO2 SLP278 T00830039=
202410221453 METAR KSEA 221453Z 16007KT 10SM FEW025 SCT040 07/04 A3031 RMK AO2 SLP271 T00670039 51010=
202410221353 METAR KSEA 221353Z 15007KT 10SM SCT040 07/04 A3030 RMK AO2 SLP268 T00720044=
202410221253 METAR KSEA 221253Z 15007KT 10SM BKN037 08/05 A3029 RMK AO2 SLP265 T00780050 $=
202410221153 METAR KSEA 221153Z 19007KT 10SM BKN037 09/04 A3028 RMK AO2 SLP260 70020 T00890044 10100 20078 51013 $=
202410221053 METAR KSEA 221053Z 18007KT 10SM BKN039 09/05 A3026 RMK AO2 SLP256 T00940050 $=
202410220953 METAR KSEA 220953Z 18006KT 10SM BKN034 08/05 A3025 RMK AO2 SLP253 T00830050 $=
202410220853 METAR KSEA 220853Z 18009KT 10SM FEW029 09/05 A3024 RMK AO2 SLP246 T00890050 51016 $=
202410220753 METAR KSEA 220753Z 19010KT 10SM FEW029 SCT039 09/06 A3023 RMK AO2 SLP243 T00890056 401220089 $=
202410220653 METAR KSEA 220653Z 19012KT 10SM FEW029 BKN039 10/06 A3021 RMK AO2 SLP238 T01000061 $=
202410220626 SPECI KSEA 220626Z 18011KT 10SM FEW029 BKN039 09/07 A3020 RMK AO2 T00940067 $=
202410220553 METAR KSEA 220553Z 19012KT 10SM BKN029 BKN039 10/07 A3019 RMK AO2 SLP230 60009 T01000072 10122 20094 53025 $=
202410220515 SPECI KSEA 220515Z 19010KT 10SM BKN029 09/07 A3017 RMK AO2 T00940072 $=
202410220453 METAR KSEA 220453Z 20011KT 10SM SCT035 09/07 A3016 RMK AO2 SLP221 T00940072 $=
202410220353 METAR KSEA 220353Z 19012KT 10SM FEW031 BKN042 10/08 A3014 RMK AO2 SLP212 T01000078 $=
202410220253 METAR KSEA 220253Z 18013KT 10SM FEW018 BKN038 OVC049 11/08 A3011 RMK AO2 RAE08B34E45 SLP205 P0000 60009 T01060083 53019 $=
202410220201 SPECI KSEA 220201Z 17008KT 5SM -RA BR FEW018 BKN030 OVC050 11/08 A3010 RMK AO2 P0000 T01060083 $=
202410220153 METAR KSEA 220153Z 22006KT 2 1/2SM RA BR FEW016 BKN030 OVC048 10/08 A3010 RMK AO2 RAB23 SLP199 P0009 T01000078 $=
202410220136 SPECI KSEA 220136Z 24005KT 3SM -RA FEW014 BKN032 OVC048 11/07 A3009 RMK AO2 RAB23 P0005 T01060072 $=
202410220131 SPECI KSEA 220131Z 21005KT 1 3/4SM R16L/5500VP6000FT +RA SCT014 BKN026 BKN075 11/08 A3009 RMK AO2 RAB23 P0005 T01060078 $=
202410220120 SPECI KSEA 220120Z 16012KT 10SM FEW022 BKN029 BKN075 11/09 A3008 RMK AO2 T01110094 $=
202410220053 METAR KSEA 220053Z 15009KT 10SM FEW015 SCT030 BKN080 11/09 A3007 RMK AO2 SLP190 T01110094 $=
202410212353 METAR KSEA 212353Z 19010KT 10SM FEW015 FEW050 BKN075 12/09 A3006 RMK AO2 SLP184 60011 T01220094 10122 20100 53010 $=
202410212253 METAR KSEA 212253Z 20003KT 10SM FEW012 BKN039 BKN095 11/09 A3004 RMK AO2 RAE33 SLP181 P0004 T01110094 $=
202410212234 SPECI KSEA 212234Z VRB03KT 5SM BR FEW024 BKN050 OVC075 11/10 A3004 RMK AO2 RAE33 P0004 T01110100=
202410212222 SPECI KSEA 212222Z VRB03KT 2 1/2SM R16L/3000VP6000FT RA BR FEW022 BKN036 OVC047 11/09 A3003 RMK AO2 P0003 T01110094=
202410212153 METAR KSEA 212153Z 00000KT 4SM RA BR FEW025 BKN034 OVC050 11/09 A3003 RMK AO2 RAB05 SLP176 P0004 T01110094=
202410212132 SPECI KSEA 212132Z 29003KT 3SM -RA BR FEW025CB BKN036 OVC050 11/09 A3003 RMK AO2 RAB05 CB S MOV NE P0002 T01110089=
202410212117 SPECI KSEA 212117Z 30005KT 7SM VCTS -RA FEW030CB SCT050 OVC060 12/09 A3002 RMK AO2 RAB05 TS S MOV NE P0000 T01170089=
202410212053 METAR KSEA 212053Z 24003KT 10SM SCT015 BKN035 BKN050 12/08 A3003 RMK AO2 RAE24 SLP174 P0000 60003 T01170083 50004=
202410212028 SPECI KSEA 212028Z 23003KT 10SM SCT013 BKN035 OVC045 12/08 A3003 RMK AO2 RAE24 P0000 T01170083=
202410211953 METAR KSEA 211953Z 17004KT 10SM -RA BKN015 BKN033 OVC070 12/09 A3003 RMK AO2 SLP175 P0000 T01170094=
202410211853 METAR KSEA 211853Z VRB04KT 6SM -RA BR FEW009 BKN026 OVC045 11/09 A3002 RMK AO2 RAB32 SLP172 P0003 T01060089=
202410211753 METAR KSEA 211753Z VRB03KT 10SM FEW005 BKN015 OVC080 11/08 A3001 RMK AO2 SLP169 T01060083 10106 20094 51007=
202410211653 METAR KSEA 211653Z 20003KT 10SM SCT010 BKN027 BKN100 10/08 A3001 RMK AO2 SLP167 T01000083=
202410211553 METAR KSEA 211553Z 17004KT 10SM FEW010 BKN027 BKN100 09/08 A3000 RMK AO2 SLP165 T00940078=
202410211453 METAR KSEA 211453Z 17004KT 10SM SCT013 BKN022 OVC095 09/08 A2999 RMK AO2 SLP162 T00940078 53005=
202410211438 SPECI KSEA 211438Z 17005KT 10SM SCT008 BKN013 OVC022 09/08 A2999 RMK AO2 T00940078=
202410211353 METAR KSEA 211353Z 19004KT 10SM FEW011 BKN015 OVC022 09/08 A2998 RMK AO2 SLP159 T00940083=
202410211253 METAR KSEA 211253Z 03004KT 10SM BKN015 OVC027 10/08 A2998 RMK AO2 SLP157 T01000078=
202410211153 METAR KSEA 211153Z 05006KT 10SM BKN019 OVC027 10/08 A2997 RMK AO2 SLP156 70003 T01000078 10111 20100 53001=
202410211053 METAR KSEA 211053Z 04005KT 10SM FEW011 OVC016 10/07 A2996 RMK AO2 SLP153 T01000072=
202410210953 METAR KSEA 210953Z 00000KT 10SM SCT011 BKN016 OVC024 10/08 A2998 RMK AO2 SLP156 T01000083=
202410210853 METAR KSEA 210853Z 00000KT 10SM BKN015 BKN022 10/08 A2997 RMK AO2 SLP154 T01000083 53001=
202410210753 METAR KSEA 210753Z 00000KT 10SM SCT015 BKN021 BKN026 11/08 A2996 RMK AO2 SLP151 T01060083 401890100=
202410210653 METAR KSEA 210653Z 00000KT 10SM BKN017 OVC025 11/08 A2997 RMK AO2 SLP154 T01110083=
202410210553 METAR KSEA 210553Z 21006KT 10SM BKN019 11/08 A2997 RMK AO2 SLP154 60000 T01110083 10144 20111 50012=
202410210504 SPECI KSEA 210504Z VRB03KT 10SM BKN015 OVC024 11/08 A2997 RMK AO2 T01110083=
202410210453 METAR KSEA 210453Z 24007KT 10SM BKN013 OVC024 12/09 A2998 RMK AO2 SLP157 T01170089=
202410210403 SPECI KSEA 210403Z 23007KT 10SM OVC013 12/09 A2997 RMK AO2 T01170094=
202410210353 METAR KSEA 210353Z 23007KT 10SM OVC015 12/09 A2996 RMK AO2 SLP153 T01220094=
202410210338 SPECI KSEA 210338Z 25006KT 10SM OVC015 12/10 A2996 RMK AO2 T01220100=
202410210253 METAR KSEA 210253Z 25010KT 10SM BKN013 OVC110 12/11 A2993 RMK AO2 SLP143 60000 T01220106 53020=
202410210153 METAR KSEA 210153Z 20010KT 10SM FEW008 SCT012 BKN110 13/12 A2990 RMK AO2 SLP132 T01280117=
202410210053 METAR KSEA 210053Z 22010KT 10SM FEW008 BKN012 OVC080 13/12 A2989 RMK AO2 RAE08 SLP126 P0000 T01330122=
202410202357 SPECI KSEA 202357Z 23013G20KT 5SM -RA BR BKN007 BKN011 OVC032 14/13 A2987 RMK AO2 P0000 T01440128=
202410202353 METAR KSEA 202353Z 23012G19KT 3SM -RA BR FEW007 BKN020 OVC029 14/13 A2987 RMK AO2 RAB04E13B32 SLP121 P0003 60003 T01440128 10189 20144 53010=
202410202345 SPECI KSEA 202345Z 23010G20KT 3SM -RA BR FEW007 BKN029 OVC036 14/13 A2987 RMK AO2 RAB04E13B32 P0002 T01440133=
202410202253 METAR KSEA 202253Z 21015G29KT 10SM BKN034 OVC050 17/12 A2983 RMK AO2 PK WND 20030/2156 RAB26E52 SLP106 P0000 T01670122=
202410202153 METAR KSEA 202153Z 20019G29KT 10SM BKN036 BKN050 OVC065 18/11 A2983 RMK AO2 PK WND 19038/2104 SLP107 T01830111=
202410202053 METAR KSEA 202053Z 19018G33KT 10SM SCT038 BKN048 BKN140 18/11 A2984 RMK AO2 PK WND 18033/2046 SLP110 T01830106 58016=
202410201953 METAR KSEA 201953Z 21013G28KT 10SM FEW035 BKN070 OVC140 18/11 A2987 RMK AO2 PK WND 22028/1946 SLP119 T01780111=
202410201853 METAR KSEA 201853Z 22013G19KT 10SM FEW040 BKN065 17/12 A2989 RMK AO2 SLP126 T01720117=
202410201753 METAR KSEA 201753Z 21012KT 10SM BKN070 BKN140 16/11 A2989 RMK AO2 SLP127 T01560111 10161 20144 58003=
202410201653 METAR KSEA 201653Z 21009KT 10SM FEW065 BKN180 15/11 A2990 RMK AO2 SLP130 T01500111=
202410201553 METAR KSEA 201553Z 22007KT 10SM BKN055 BKN070 16/12 A2989 RMK AO2 SLP128 T01560117=
202410201453 METAR KSEA 201453Z 19005KT 10SM BKN046 15/12 A2990 RMK AO2 SLP130 T01500117 56019=
202410201353 METAR KSEA 201353Z 18004KT 10SM BKN042 15/12 A2992 RMK AO2 SLP136 T01500117=
202410201253 METAR KSEA 201253Z 18006KT 10SM OVC041 15/12 A2994 RMK AO2 SLP143 T01500117=
202410201153 METAR KSEA 201153Z 18007KT 10SM BKN034 OVC048 16/12 A2996 RMK AO2 SLP149 70013 T01560122 10167 20156 58019=
202410201053 METAR KSEA 201053Z 19005KT 10SM OVC035 16/12 A2998 RMK AO2 SLP159 T01610122=
202410200953 METAR KSEA 200953Z 20004KT 10SM OVC036 16/13 A3000 RMK AO2 SLP165 T01610128=
202410200853 METAR KSEA 200853Z 19008KT 10SM OVC035 17/12 A3001 RMK AO2 SLP168 T01670122 58016=
202410200753 METAR KSEA 200753Z 18010KT 10SM BKN033 16/13 A3003 RMK AO2 SLP173 T01610128 401830111=
202410200653 METAR KSEA 200653Z 19009KT 10SM BKN032 16/13 A3005 RMK AO2 SLP180 T01560128=
202410200553 METAR KSEA 200553Z 18008KT 10SM BKN030 OVC035 16/13 A3006 RMK AO2 RAE0457 SLP184 P0001 60012 T01560133 10161 20150 58013=
202410200453 METAR KSEA 200453Z 18010KT 6SM -RA BR FEW014 SCT024 OVC031 15/14 A3007 RMK AO2 RAE18B49 SLP189 P0001 T01500139=
202410200353 METAR KSEA 200353Z 17011KT 4SM -RA BR SCT015 OVC026 15/14 A3009 RMK AO2 SLP194 P0005 T01500139=
202410200253 METAR KSEA 200253Z 18009KT 4SM -RA BR SCT016 OVC027 15/14 A3010 RMK AO2 RAB0159 SLP197 P0004 60005 T01500139 55002=
202410200153 METAR KSEA 200153Z 17011G20KT 5SM BR FEW021 OVC026 16/13 A3009 RMK AO2 SLP196 T01560133=
202410200053 METAR KSEA 200053Z 19013G21KT 10SM BKN025 OVC032 16/13 A3008 RMK AO2 RAE03 SLP192 P0001 T01560133=
202410200042 SPECI KSEA 200042Z 19017G22KT 10SM BKN025 OVC032 16/13 A3008 RMK AO2 RAE03 P0001 T01560133=
202410192353 METAR KSEA 192353Z 21011G22KT 3SM -RA BR BKN030 OVC036 16/13 A3010 RMK AO2 PK WND 21032/2338 RAB34 SLP199 P0001 60001 T01560133 10183 20156 53003=
202410192253 METAR KSEA 192253Z 21015G24KT 10SM BKN032 OVC055 18/11 A3010 RMK AO2 PK WND 21031/2215 SLP197 T01830111=
202410192153 METAR KSEA 192153Z 20014G23KT 10SM BKN033 OVC055 18/11 A3008 RMK AO2 PK WND 19028/2055 SLP191 T01830106=
202410192053 METAR KSEA 192053Z 19016G26KT 10SM BKN034 BKN060 OVC120 18/11 A3009 RMK AO2 PK WND 17026/2053 RAB14E30 SLP196 P0000 60000 T01780111 58017=
202410191953 METAR KSEA 191953Z 19016G24KT 10SM FEW060 BKN110 18/11 A3013 RMK AO2 PK WND 19030/1919 SLP208 T01780106=
202410191853 METAR KSEA 191853Z 20014G23KT 10SM FEW032 BKN065 BKN150 18/11 A3016 RMK AO2 SLP219 T01780111=
202410191753 METAR KSEA 191753Z 19013G22KT 10SM FEW025 SCT060 BKN140 17/11 A3014 RMK AO2 SLP214 T01670106 10167 20133 58003=
202410191653 METAR KSEA 191653Z 19012G22KT 10SM FEW023 FEW060 BKN150 16/11 A3015 RMK AO2 SLP217 T01560106=
202410191616 SPECI KSEA 191616Z 18012G20KT 10SM FEW026 BKN055 OVC160 16/11 A3015 RMK AO2 T01560106=
202410191553 METAR KSEA 191553Z 18014KT 10SM BKN027 BKN050 OVC180 16/11 A3015 RMK AO2 SLP218 T01560106=
202410191509 SPECI KSEA 191509Z 17014G24KT 10SM BKN026 BKN050 16/11 A3016 RMK AO2 T01560106=
202410191453 METAR KSEA 191453Z 18021G26KT 10SM FEW028 SCT060 BKN170 15/11 A3015 RMK AO2 PK WND 18031/1357 SLP217 T01500106 51004=
202410191419 SPECI KSEA 191419Z 19015KT 10SM SCT023 BKN140 15/11 A3015 RMK AO2 PK WND 18031/1357 T01500106=
202410191353 METAR KSEA 191353Z 19018G25KT 10SM BKN025 OVC140 15/11 A3014 RMK AO2 SLP213 T01500106=
202410191253 METAR KSEA 191253Z 20013KT 10SM BKN023 14/11 A3016 RMK AO2 SLP219 T01390111=
202410191153 METAR KSEA 191153Z 20016G26KT 10SM BKN022 BKN035 OVC170 14/11 A3014 RMK AO2 PK WND 20026/1151 SLP213 60000 70007 T01390111 10139 20106 56005=
202410191053 METAR KSEA 191053Z 19010KT 10SM FEW013 OVC020 13/11 A3015 RMK AO2 SLP216 T01280111=
202410190953 METAR KSEA 190953Z 18010KT 10SM FEW008 SCT015 OVC022 12/11 A3015 RMK AO2 SLP215 T01220111=
202410190853 METAR KSEA 190853Z 20005KT 10SM FEW008 OVC017 12/11 A3016 RMK AO2 SLP219 60000 T01170106 51004=
202410190825 SPECI KSEA 190825Z 21007KT 10SM SCT008 BKN019 OVC027 11/11 A3016 RMK AO2 T01110106=
202410190753 METAR KSEA 190753Z 19008KT 10SM BKN008 BKN014 OVC019 11/11 A3016 RMK AO2 RAB12E27DZB30E50 SLP219 P0000 T01110106 401170067=
202410190736 SPECI KSEA 190736Z 19007KT 10SM -DZ BKN007 OVC013 11/11 A3016 RMK AO2 RAB12E27DZB30 P0000 T01110106=
202410190653 METAR KSEA 190653Z 18008KT 10SM SCT007 BKN016 OVC021 11/10 A3015 RMK AO2 RAE10 SLP216 P0000 T01110100=
202410190614 SPECI KSEA 190614Z 16004KT 10SM SCT009 SCT014 OVC023 11/10 A3016 RMK AO2 RAE10 P0000 T01060100=
202410190553 METAR KSEA 190553Z 19006KT 10SM -RA BKN005 BKN009 OVC023 11/10 A3015 RMK AO2 SLP215 P0002 60004 T01060100 10117 20106 51007=
202410190505 SPECI KSEA 190505Z 21006KT 10SM -RA BKN006 BKN012 OVC021 11/09 A3014 RMK AO2 P0000 T01060094=
202410190453 METAR KSEA 190453Z 21007KT 7SM -RA SCT006 BKN015 OVC023 11/09 A3014 RMK AO2 SLP213 P0002 T01060094=
202410190353 METAR KSEA 190353Z 21004KT 10SM -RA OVC025 11/08 A3013 RMK AO2 RAE0259B15 SLP212 P0000 T01110083=
202410190253 METAR KSEA 190253Z 19007KT 10SM -RA OVC027 11/07 A3013 RMK AO2 RAB29 SLP209 P0000 60000 T01110072 55004=
202410190231 SPECI KSEA 190231Z 18006KT 9SM -RA OVC027 12/07 A3013 RMK AO2 RAB29 P0000 T01170067=
202410190153 METAR KSEA 190153Z 18011KT 10SM OVC030 12/06 A3011 RMK AO2 SLP205 T01170061=
202410190053 METAR KSEA 190053Z 18005KT 10SM FEW015 OVC034 11/05 A3014 RMK AO2 SLP215 T01110050=
202410182353 METAR KSEA 182353Z VRB05KT 10SM OVC040 11/05 A3014 RMK AO2 SLP213 60003 T01110050 10111 20083 56021=
202410182253 METAR KSEA 182253Z 17007KT 10SM FEW020 BKN045 OVC100 11/06 A3014 RMK AO2 SLP214 T01060056=
202410182153 METAR KSEA 182153Z 20005KT 10SM FEW020 BKN050 OVC100 11/06 A3017 RMK AO2 SLP225 T01110056=
202410182053 METAR KSEA 182053Z 18011KT 10SM FEW015 SCT037 OVC048 11/06 A3020 RMK AO2 SLP234 60003 T01060056 58017=
202410181953 METAR KSEA 181953Z 19010KT 10SM FEW015 SCT047 OVC060 10/06 A3023 RMK AO2 SLP245 T01000061=
202410181853 METAR KSEA 181853Z 17008KT 10SM SCT037 BKN044 OVC065 09/06 A3025 RMK AO2 RAE39 SLP250 P0003 T00890061=
202410181753 METAR KSEA 181753Z 16009KT 7SM -RA FEW039 BKN046 OVC055 08/04 A3025 RMK AO2 RAB35 SLP252 P0000 60000 T00830044 10100 20067 51012=
202410181653 METAR KSEA 181653Z 16009KT 10SM BKN041 OVC090 09/04 A3025 RMK AO2 SLP250 VCSH T00890039=
202410181553 METAR KSEA 181553Z 17007KT 10SM SCT050 OVC110 08/04 A3023 RMK AO2 SLP243 T00780039=
202410181453 METAR KSEA 181453Z 14008KT 10SM FEW015 FEW060 SCT140 BKN200 07/04 A3022 RMK AO2 SLP239 T00720039 58004=
202410181353 METAR KSEA 181353Z 18006KT 10SM FEW140 BKN200 07/04 A3022 RMK AO2 SLP240 T00720039=
202410181253 METAR KSEA 181253Z 15006KT 10SM FEW040 07/04 A3023 RMK AO2 SLP244 T00720039=
202410181153 METAR KSEA 181153Z 16007KT 10SM FEW050 07/04 A3023 RMK AO2 SLP244 70005 T00720044 10089 20072 50003=
202410181053 METAR KSEA 181053Z 16006KT 10SM FEW055 07/05 A3023 RMK AO2 SLP244 T00720050=
202410180953 METAR KSEA 180953Z 17004KT 10SM BKN055 07/06 A3023 RMK AO2 SLP244 T00720056=
202410180853 METAR KSEA 180853Z 16005KT 10SM BKN060 07/05 A3022 RMK AO2 SLP240 T00720050 56000=
202410180753 METAR KSEA 180753Z 16006KT 10SM BKN060 08/05 A3022 RMK AO2 SLP242 T00780050 401280072=
202410180653 METAR KSEA 180653Z 15008KT 10SM SCT060 08/05 A3022 RMK AO2 SLP240 T00830050=
202410180553 METAR KSEA 180553Z 15005KT 10SM FEW038 SCT050 BKN060 09/06 A3022 RMK AO2 SLP241 T00890056 10117 20089 51014=
202410180453 METAR KSEA 180453Z 12007KT 090V150 10SM BKN047 OVC060 10/06 A3020 RMK AO2 SLP236 T01000061=
202410180353 METAR KSEA 180353Z 13005KT 10SM BKN060 10/05 A3020 RMK AO2 SLP234 T01000050=
202410180253 METAR KSEA 180253Z 00000KT 10SM BKN060 10/06 A3018 RMK AO2 SLP227 T01000056 53011=
202410180153 METAR KSEA 180153Z 00000KT 10SM BKN060 11/06 A3016 RMK AO2 SLP220 T01060056=
202410180053 METAR KSEA 180053Z 31004KT 10SM FEW028 BKN055 10/06 A3015 RMK AO2 SLP216 T01000061=
202410172353 METAR KSEA 172353Z 32006KT 10SM FEW028 SCT055 12/06 A3015 RMK AO2 SLP216 60005 T01170061 10128 20078 53013=
202410172253 METAR KSEA 172253Z 30005KT 10SM FEW027 SCT050 13/06 A3013 RMK AO2 SLP210 T01280056=
202410172153 METAR KSEA 172153Z 28005KT 10SM FEW021 SCT047 BKN060 12/07 A3012 RMK AO2 SLP205 T01170067=
202410172053 METAR KSEA 172053Z 00000KT 10SM SCT030 BKN046 BKN060 10/06 A3011 RMK AO2 RAE26 SLP203 P0002 60005 T01000061 51023=
202410172017 SPECI KSEA 172017Z 00000KT 7SM -RA SCT027 BKN041 08/06 A3010 RMK AO2 P0002 T00830061 $=
202410171953 METAR KSEA 171953Z 33006KT 7SM -RA BKN018 BKN023 08/07 A3010 RMK AO2 WSHFT 1919 RAB34 SLP200 P0003 T00780067 $=
202410171935 SPECI KSEA 171935Z 35011KT 7SM -RA BKN019 OVC026 09/06 A3009 RMK AO2 WSHFT 1919 RAB34 P0000 T00890056=
202410171853 METAR KSEA 171853Z 17006KT 10SM FEW023 BKN027 BKN034 11/05 A3005 RMK AO2 SLP184 T01060050=
202410171753 METAR KSEA 171753Z 20005KT 10SM BKN019 BKN025 10/05 A3004 RMK AO2 SLP179 T01000050 10111 20072 52026=
202410171738 SPECI KSEA 171738Z 00000KT 10SM SCT017 BKN025 10/06 A3003 RMK AO2 T01000056=
202410171713 SPECI KSEA 171713Z 18004KT 10SM SCT025 BKN050 09/06 A3002 RMK AO2 T00940056=
202410171653 METAR KSEA 171653Z 20006KT 10SM SCT015 BKN025 09/06 A3002 RMK AO2 SLP171 T00890056=
202410171553 METAR KSEA 171553Z 20006KT 10SM BKN020 BKN025 08/05 A2999 RMK AO2 SLP161 T00830050=
202410171453 METAR KSEA 171453Z 17006KT 10SM SCT016 OVC025 08/05 A2996 RMK AO2 SLP153 T00780050 53017=
202410171353 METAR KSEA 171353Z 17008KT 10SM FEW015 BKN021 07/05 A2994 RMK AO2 SLP145 T00720050=
202410171306 SPECI KSEA 171306Z 17005KT 10SM BKN015 BKN022 08/06 A2993 RMK AO2 T00780056=
202410171253 METAR KSEA 171253Z 16006KT 10SM SCT013 BKN047 BKN095 07/05 A2993 RMK AO2 SLP141 T00720050=
202410171239 SPECI KSEA 171239Z 19006KT 10SM SCT013 SCT047 BKN095 07/05 A2992 RMK AO2 T00720050=
202410171153 METAR KSEA 171153Z 18004KT 10SM OVC013 08/06 A2991 RMK AO2 SLP135 70001 T00780056 10089 20072 58003=
202410171129 SPECI KSEA 171129Z 17007KT 10SM OVC013 08/05 A2991 RMK AO2 T00780050=
202410171053 METAR KSEA 171053Z 17008KT 10SM BKN016 BKN020 OVC110 08/06 A2992 RMK AO2 SLP136 T00780056=
202410170953 METAR KSEA 170953Z 16005KT 10SM BKN015 08/06 A2992 RMK AO2 SLP138 T00780061=
202410170950 SPECI KSEA 170950Z 16004KT 10SM BKN015 07/06 A2992 RMK AO2=
202410170853 METAR KSEA 170853Z 17009KT 10SM BKN014 BKN019 08/07 A2991 RMK AO2 SLP135 T00830067 56004=
202410170836 SPECI KSEA 170836Z 17010KT 10SM BKN013 BKN018 08/06 A2991 RMK AO2 T00830061=
202410170753 METAR KSEA 170753Z 19008KT 10SM SCT013 BKN100 08/07 A2991 RMK AO2 SLP135 T00830067 401610083=
202410170653 METAR KSEA 170653Z 20007KT 10SM FEW013 SCT090 OVC180 08/07 A2992 RMK AO2 SLP137 T00830072=
202410170553 METAR KSEA 170553Z 19010KT 10SM FEW013 BKN070 OVC110 09/07 A2992 RMK AO2 SLP138 60001 T00890067 10139 20089 58005=
202410170453 METAR KSEA 170453Z 20007KT 10SM FEW013 BKN085 OVC100 09/07 A2993 RMK AO2 RAE05 SLP143 P0000 T00890072=
202410170353 METAR KSEA 170353Z 22007KT 10SM -RA SCT039 BKN055 OVC110 09/07 A2994 RMK AO2 RAB12E24B42 SLP144 P0001 T00940072=
202410170253 METAR KSEA 170253Z 22010KT 10SM FEW042 SCT095 BKN150 11/06 A2994 RMK AO2 SLP144 60000 T01060056 53003=
202410170153 METAR KSEA 170153Z 22011KT 10SM FEW040 SCT070 BKN100 BKN200 11/04 A2993 RMK AO2 RAB0057E06 SLP142 P0000 T01110044=
202410170053 METAR KSEA 170053Z 24016G27KT 10SM FEW030 BKN100 BKN200 13/03 A2992 RMK AO2 PK WND 25030/0037 SLP137 T01280028=
202410162353 METAR KSEA 162353Z 23012KT 10SM FEW030 SCT060 BKN100 BKN200 14/04 A2993 RMK AO2 SLP140 T01390039 10161 20139 56011=
202410162253 METAR KSEA 162253Z 21013G19KT 10SM SCT060 SCT090 16/05 A2994 RMK AO2 SLP143 T01560050=
202410162153 METAR KSEA 162153Z 20013G20KT 10SM FEW043 BKN060 16/05 A2995 RMK AO2 SLP147 T01610050=
202410162053 METAR KSEA 162053Z 20012KT 10SM SCT042 BKN055 16/06 A2996 RMK AO2 SLP152 T01610056 58011=
202410161953 METAR KSEA 161953Z 20015KT 10SM SCT037 SCT055 15/07 A2998 RMK AO2 SLP158 T01500067=
202410161853 METAR KSEA 161853Z 21012G20KT 10SM SCT032 14/08 A2999 RMK AO2 SLP162 T01440078=
202410161753 METAR KSEA 161753Z 24014G23KT 10SM SCT015 SCT070 14/08 A2999 RMK AO2 SLP163 T01390078 10139 20106 51007=
202410161653 METAR KSEA 161653Z 21014G20KT 10SM SCT015 SCT060 BKN075 13/09 A2998 RMK AO2 SLP159 T01280094=
202410161553 METAR KSEA 161553Z 19008KT 10SM FEW010 BKN060 BKN100 12/10 A2998 RMK AO2 SLP159 T01220100=
202410161453 METAR KSEA 161453Z 20011KT 10SM SCT009 BKN065 12/10 A2997 RMK AO2 SLP155 T01170100 53001=
202410161353 METAR KSEA 161353Z 20012KT 10SM SCT004 BKN075 OVC120 11/10 A2996 RMK AO2 SLP151 T01110100=
202410161253 METAR KSEA 161253Z 20011KT 10SM SCT004 BKN060 BKN120 11/10 A2996 RMK AO2 SLP152 T01110100=
202410161153 METAR KSEA 161153Z 18011KT 10SM FEW004 BKN049 BKN070 11/10 A2997 RMK AO2 SLP154 60004 70004 T01060100 10117 20106 58014=
202410161148 SPECI KSEA 161148Z 18010KT 10SM FEW004 BKN049 BKN070 11/10 A2997 RMK AO2=
202410161053 METAR KSEA 161053Z 18008KT 7SM BKN004 OVC008 11/10 A2999 RMK AO2 RAE22 SLP160 P0002 T01060100=
202410161043 SPECI KSEA 161043Z 19006KT 7SM BKN004 BKN008 OVC013 11/10 A2999 RMK AO2 RAE22 P0002 T01060100=
202410161030 SPECI KSEA 161030Z 18006KT 9SM FEW008 BKN013 OVC021 11/10 A2999 RMK AO2 RAE22 P0001 T01060100=
202410160953 METAR KSEA 160953Z 18005KT 6SM -RA BR OVC025 11/10 A3000 RMK AO2 RAB0854E04B51 SLP165 P0000 T01110100=
202410160925 SPECI KSEA 160925Z 16007KT 10SM BKN028 OVC034 11/09 A3000 RMK AO2 RAB0854E04 P0000 T01110094=
202410160853 METAR KSEA 160853Z 18007KT 10SM BKN040 OVC048 11/09 A3001 RMK AO2 RAE16 SLP168 P0001 60002 T01110089 58007=
202410160753 METAR KSEA 160753Z 18009KT 10SM -RA SCT050 OVC060 11/08 A3002 RMK AO2 RAB33 SLP171 P0001 T01110083 401500111=
202410160653 METAR KSEA 160653Z 20009KT 10SM BKN055 OVC085 12/08 A3003 RMK AO2 SLP174 T01170083=
202410160553 METAR KSEA 160553Z 20009KT 10SM FEW009 OVC085 12/08 A3003 RMK AO2 SLP175 60000 T01170083 10139 20117 53004=
202410160453 METAR KSEA 160453Z 20009KT 10SM FEW009 OVC095 12/10 A3002 RMK AO2 RAB08E23 SLP173 P0000 T01220100=
202410160353 METAR KSEA 160353Z 22010KT 10SM FEW008 OVC085 13/11 A3002 RMK AO2 RAB0256E07 SLP172 P0000 T01280111=
202410160317 SPECI KSEA 160317Z 20008KT 10SM FEW009 BKN090 OVC110 13/12 A3002 RMK AO2 RAB0256E07 P0000 T01330122=
202410160253 METAR KSEA 160253Z 19007KT 10SM SCT011 OVC044 14/12 A3002 RMK AO2 SLP171 T01390117 56007=
202410160153 METAR KSEA 160153Z 17007KT 10SM FEW020 OVC041 13/12 A3002 RMK AO2 SLP172 T01330117=
202410160053 METAR KSEA 160053Z 17006KT 10SM SCT010 BKN027 OVC060 14/12 A3002 RMK AO2 SLP172 T01390117=
202410160041 SPECI KSEA 160041Z 16007KT 10SM SCT010 BKN027 OVC055 13/11 A3003 RMK AO2 T01330111=
202410160014 SPECI KSEA 160014Z 18004KT 10SM BKN013 BKN027 OVC100 13/11 A3004 RMK AO2 T01330106=
202410152353 METAR KSEA 152353Z 20004KT 10SM SCT017 OVC027 14/11 A3004 RMK AO2 SLP179 T01390106 10150 20133 50001=
202410152339 SPECI KSEA 152339Z 18004KT 10SM SCT018 BKN027 OVC120 14/11 A3004 RMK AO2 T01390106=
202410152312 SPECI KSEA 152312Z 00000KT 10SM FEW014 BKN041 OVC120 14/11 A3004 RMK AO2 T01390106=
202410152253 METAR KSEA 152253Z 19003KT 10SM SCT014 BKN024 OVC120 14/11 A3005 RMK AO2 SLP181 T01390106=
202410152241 SPECI KSEA 152241Z 00000KT 10SM FEW012 BKN024 BKN029 14/10 A3005 RMK AO2 T01390100=
202410152210 SPECI KSEA 152210Z 21005KT 10SM OVC013 14/09 A3005 RMK AO2 T01390094=
202410152153 METAR KSEA 152153Z 25004KT 10SM OVC015 14/09 A3005 RMK AO2 SLP182 T01390094=
202410152053 METAR KSEA 152053Z 24003KT 10SM BKN020 OVC037 13/08 A3004 RMK AO2 SLP178 T01330083 58015=
202410152041 SPECI KSEA 152041Z 25005KT 10SM BKN020 OVC037 13/09 A3005 RMK AO2 T01330089=
202410151953 METAR KSEA 151953Z 00000KT 10SM FEW020 BKN037 OVC050 15/09 A3006 RMK AO2 SLP185 T01500094=
202410151853 METAR KSEA 151853Z VRB05KT 10SM BKN033 OVC050 14/09 A3007 RMK AO2 SLP190 T01440089=
202410151753 METAR KSEA 151753Z 36005KT 10SM BKN035 OVC047 13/09 A3008 RMK AO2 SLP194 60000 T01330089 10139 20117 53001=
202410151724 SPECI KSEA 151724Z 35007KT 10SM SCT030 OVC047 13/08 A3008 RMK AO2 T01330083=
202410151653 METAR KSEA 151653Z 03005KT 10SM BKN029 OVC042 13/08 A3007 RMK AO2 SLP190 T01280083=
202410151553 METAR KSEA 151553Z 02008KT 7SM FEW009 BKN028 OVC034 12/08 A3008 RMK AO2 RAB07E16 SLP192 P0000 T01220083=
202410151541 SPECI KSEA 151541Z 03009KT 7SM FEW009 BKN028 OVC034 12/08 A3008 RMK AO2 RAB07E16 P0000 T01220083=
202410151453 METAR KSEA 151453Z 36006KT 7SM FEW009 BKN035 OVC050 12/10 A3008 RMK AO2 SLP193 60000 T01220100 56008=
202410151353 METAR KSEA 151353Z 33005KT 10SM SCT009 BKN038 OVC055 12/10 A3008 RMK AO2 SLP194 T01170100=
202410151340 SPECI KSEA 151340Z 36004KT 10SM SCT009 BKN038 OVC055 12/10 A3008 RMK AO2 T01170100=
202410151304 SPECI KSEA 151304Z 02006KT 10SM BKN004 OVC034 12/11 A3008 RMK AO2 T01170106=
202410151253 METAR KSEA 151253Z 35004KT 10SM BKN005 OVC036 12/10 A3008 RMK AO2 DZB01E14 SLP194 P0000 T01170100=
202410151222 SPECI KSEA 151222Z 32006KT 10SM OVC005 12/11 A3009 RMK AO2 DZB01E14 P0000 T01170106=
202410151153 METAR KSEA 151153Z 31006KT 8SM OVC004 12/11 A3011 RMK AO2 SLP200 60004 70004 T01170106 10139 20117 55012=
202410151104 SPECI KSEA 151104Z 02005KT 10SM OVC004 12/11 A3010 RMK AO2 T01220111=
202410151053 METAR KSEA 151053Z 04005KT 10SM OVC005 12/11 A3010 RMK AO2 SLP198 T01220111=
202410151018 SPECI KSEA 151018Z 02005KT 10SM OVC005 12/11 A3012 RMK AO2 T01220111=
202410150953 METAR KSEA 150953Z 36005KT 9SM OVC004 12/12 A3012 RMK AO2 RAE12 SLP206 P0000 T01220117=
202410150941 SPECI KSEA 150941Z 03006KT 9SM OVC004 12/12 A3012 RMK AO2 RAE12 P0000 T01220117=
202410150853 METAR KSEA 150853Z 36004KT 4SM -RA BR OVC005 12/12 A3014 RMK AO2 RAB24 SLP213 P0002 60004 T01220117 51005=
202410150753 METAR KSEA 150753Z 03005KT 10SM OVC006 13/12 A3014 RMK AO2 RAE19 SLP210 P0000 T01330122 401890128=
202410150735 SPECI KSEA 150735Z 05004KT 10SM OVC005 13/13 A3014 RMK AO2 RAE19 P0000 T01330128=
202410150653 METAR KSEA 150653Z 30003KT 6SM -RA BR OVC004 13/13 A3014 RMK AO2 RAB04E32B51 SLP211 P0002 T01330128=
202410150553 METAR KSEA 150553Z 00000KT 10SM OVC008 14/13 A3013 RMK AO2 DZE50 SLP207 P0000 60000 T01440133 10161 20139 50003=
202410150516 SPECI KSEA 150516Z 03003KT 10SM -DZ FEW008 SCT036 OVC050 14/13 A3012 RMK AO2 P0000 T01390128=
202410150453 METAR KSEA 150453Z 31003KT 8SM -DZ SCT013 BKN034 OVC050 14/13 A3013 RMK AO2 DZB53 SLP208 P0000 T01390128=
202410150424 SPECI KSEA 150424Z 23003KT 10SM BKN013 OVC055 15/13 A3013 RMK AO2 T01500128=
202410150353 METAR KSEA 150353Z 20003KT 10SM OVC055 15/13 A3012 RMK AO2 SLP206 T01500128=
202410150253 METAR KSEA 150253Z 00000KT 10SM FEW015 OVC041 15/13 A3012 RMK AO2 DZE03 SLP204 P0000 60000 T01500133 50005=
202410150153 METAR KSEA 150153Z 20005KT 10SM -DZ FEW014 BKN040 OVC070 16/14 A3012 RMK AO2 RAB23E32DZB39 SLP205 P0000 T01560139=
202410150053 METAR KSEA 150053Z 21008KT 10SM FEW025 BKN050 OVC080 16/14 A3011 RMK AO2 SLP201 T01610139=
202410142353 METAR KSEA 142353Z 21011KT 10SM FEW030 SCT050 OVC070 17/14 A3010 RMK AO2 SLP199 60000 T01670139 10189 20161 53001=
202410142253 METAR KSEA 142253Z 24006KT 10SM BKN030 OVC036 17/13 A3010 RMK AO2 SLP198 T01720133=
202410142153 METAR KSEA 142153Z 21004KT 10SM FEW025 OVC032 17/13 A3009 RMK AO2 SLP196 T01720133=
202410142053 METAR KSEA 142053Z 25006KT 7SM FEW025 OVC036 17/14 A3010 RMK AO2 RAB24E46 SLP198 P0000 60000 T01670139 53008=
202410141953 METAR KSEA 141953Z 27003KT 10SM BKN042 18/12 A3008 RMK AO2 SLP190 T01780122=
202410141853 METAR KSEA 141853Z 23006KT 10SM BKN048 18/12 A3007 RMK AO2 SLP189 T01830117=
202410141753 METAR KSEA 141753Z 19009KT 10SM BKN046 BKN080 BKN220 18/12 A3008 RMK AO2 SLP190 T01780117 10178 20128 51006=
202410141653 METAR KSEA 141653Z 14006KT 10SM FEW045 FEW080 SCT140 SCT220 16/11 A3007 RMK AO2 SLP189 T01560111=
202410141553 METAR KSEA 141553Z 15007KT 10SM FEW045 SCT140 BKN220 14/11 A3007 RMK AO2 SLP187 T01390111 $=
202410141453 METAR KSEA 141453Z 14006KT 10SM FEW010 FEW050 SCT150 BKN250 13/11 A3006 RMK AO2 SLP184 T01330111 50005 $=
202410141353 METAR KSEA 141353Z 18004KT 10SM FEW010 SCT055 BKN250 13/12 A3006 RMK AO2 SLP185 T01280117 $=
202410141253 METAR KSEA 141253Z 17004KT 10SM BKN250 13/12 A3005 RMK AO2 SLP180 T01280117 $=
202410141153 METAR KSEA 141153Z 17006KT 10SM BKN250 13/11 A3004 RMK AO2 SLP179 T01280111 10178 20128 51001 $=
202410141053 METAR KSEA 141053Z 13005KT 10SM BKN250 13/11 A3004 RMK AO2 SLP178 T01330111 $=
202410140953 METAR KSEA 140953Z 15005KT 10SM BKN250 13/11 A3005 RMK AO2 SLP179 T01330111 $=
202410140853 METAR KSEA 140853Z 17005KT 10SM FEW250 14/11 A3004 RMK AO2 SLP177 T01390111 53003 $=
202410140753 METAR KSEA 140753Z 14007KT 10SM BKN240 15/11 A3003 RMK AO2 SLP173 T01500111 402220100 $=
202410140653 METAR KSEA 140653Z 24005KT 10SM SCT240 14/11 A3003 RMK AO2 SLP175 T01390106 $=
202410140553 METAR KSEA 140553Z 13008KT 10SM BKN240 16/11 A3003 RMK AO2 SLP175 T01610111 10217 20156 55000 $=
202410140453 METAR KSEA 140453Z 15007KT 10SM SCT250 18/11 A3003 RMK AO2 SLP175 T01780106 $=
202410140353 METAR KSEA 140353Z 17004KT 10SM SCT250 18/10 A3003 RMK AO2 SLP174 T01830100 $=
202410140253 METAR KSEA 140253Z 16005KT 10SM SCT250 18/11 A3003 RMK AO2 SLP176 T01830106 56004 $=
202410140153 METAR KSEA 140153Z 17004KT 10SM FEW100 SCT250 19/11 A3004 RMK AO2 SLP176 T01890111 $=
202410140053 METAR KSEA 140053Z 19004KT 10SM SCT100 BKN250 20/11 A3004 RMK AO2 SLP177 T02000111 $=
202410132353 METAR KSEA 132353Z 21003KT 10SM FEW080 BKN250 22/11 A3005 RMK AO2 SLP180 T02170111 10222 20167 56016 $=
202410132253 METAR KSEA 132253Z 00000KT 10SM FEW080 BKN250 22/11 A3006 RMK AO2 SLP184 T02170111 $=
202410132153 METAR KSEA 132153Z 28004KT 10SM FEW140 BKN240 22/09 A3007 RMK AO2 SLP188 T02170094 $=
202410132053 METAR KSEA 132053Z VRB04KT 10SM FEW150 BKN240 21/11 A3010 RMK AO2 SLP196 T02110106 58022 $=
202410131953 METAR KSEA 131953Z 00000KT 10SM FEW140 BKN240 19/11 A3012 RMK AO2 SLP206 T01890111 $=
202410131853 METAR KSEA 131853Z 22004KT 10SM FEW150 BKN230 19/11 A3014 RMK AO2 SLP213 T01890106=
202410131753 METAR KSEA 131753Z VRB04KT 10SM FEW140 BKN200 17/10 A3016 RMK AO2 SLP219 T01670100 10167 20100 58003=
202410131653 METAR KSEA 131653Z VRB06KT 10SM BKN210 14/10 A3017 RMK AO2 SLP223 T01440100=
202410131553 METAR KSEA 131553Z 12008KT 10SM BKN240 12/09 A3018 RMK AO2 SLP225 T01220094=
202410131453 METAR KSEA 131453Z 16004KT 10SM SCT230 11/10 A3017 RMK AO2 SLP223 T01060100 53007=
202410131353 METAR KSEA 131353Z 20004KT 10SM FEW250 11/10 A3016 RMK AO2 SLP219 T01110100=
202410131253 METAR KSEA 131253Z 25003KT 10SM FEW250 11/09 A3015 RMK AO2 SLP216 T01060089=
202410131153 METAR KSEA 131153Z 13007KT 10SM FEW250 12/09 A3015 RMK AO2 SLP215 T01220094 10133 20117 58006=
202410131053 METAR KSEA 131053Z 12006KT 10SM FEW250 13/09 A3017 RMK AO2 SLP221 T01280094=
202410130953 METAR KSEA 130953Z 13007KT 10SM FEW250 12/10 A3018 RMK AO2 SLP226 T01220100=
202410130853 METAR KSEA 130853Z 13010KT 10SM FEW250 13/10 A3017 RMK AO2 SLP221 T01280100 51012=
202410130753 METAR KSEA 130753Z 18005KT 10SM FEW250 12/09 A3016 RMK AO2 SLP220 T01170089 401890072=
202410130653 METAR KSEA 130653Z 16003KT 10SM FEW250 12/08 A3014 RMK AO2 SLP214 T01220083=
202410130553 METAR KSEA 130553Z 18004KT 10SM FEW250 13/08 A3013 RMK AO2 SLP210 T01280083 10189 20117 51005=
202410130453 METAR KSEA 130453Z 17003KT 10SM FEW250 14/08 A3013 RMK AO2 SLP208 T01440083=
202410130353 METAR KSEA 130353Z 00000KT 10SM FEW250 14/08 A3013 RMK AO2 SLP208 T01440078=
202410130253 METAR KSEA 130253Z 00000KT 10SM FEW250 14/09 A3012 RMK AO2 SLP204 T01440089 51009=
202410130153 METAR KSEA 130153Z 20003KT 10SM FEW250 16/09 A3011 RMK AO2 SLP202 T01610089=
202410130053 METAR KSEA 130053Z VRB03KT 10SM CLR 18/06 A3010 RMK AO2 SLP199 T01830061=
202410122353 METAR KSEA 122353Z 00000KT 10SM FEW200 19/06 A3009 RMK AO2 SLP195 T01890056 10189 20106 52002=
202410122253 METAR KSEA 122253Z 30004KT 10SM FEW200 18/07 A3009 RMK AO2 SLP195 T01830072=
202410122153 METAR KSEA 122153Z 33004KT 10SM FEW140 FEW200 18/09 A3008 RMK AO2 SLP193 T01830094=
202410122053 METAR KSEA 122053Z VRB03KT 10SM FEW140 FEW200 18/09 A3008 RMK AO2 SLP193 T01780094 58003=
202410121953 METAR KSEA 121953Z 29003KT 10SM FEW010 SCT200 16/10 A3010 RMK AO2 SLP198 T01560100=
202410121853 METAR KSEA 121853Z 00000KT 7SM FEW001 SCT010 SCT200 14/10 A3009 RMK AO2 SLP196 T01390100=
202410121813 SPECI KSEA 121813Z VRB03KT 4SM BR SCT005 11/10 A3009 RMK AO2 T01110100=
202410121753 METAR KSEA 121753Z 28003KT 4SM BR BKN002 11/09 A3009 RMK AO2 SLP198 T01060094 10111 20072 58001=
202410121739 SPECI KSEA 121739Z 00000KT 3SM BR BKN002 11/10 A3010 RMK AO2 T01060100=
202410121653 METAR KSEA 121653Z 00000KT 1/4SM R16L/P6000FT FG VV001 09/09 A3010 RMK AO2 SLP200 T00940089=
202410121633 SPECI KSEA 121633Z 00000KT 1/4SM R16L/1200V2400FT FG VV001 09/09 A3010 RMK AO2 SFC VIS 1/2 T00940094=
202410121553 METAR KSEA 121553Z 16005KT 1/4SM R16L/0700V1800FT FG VV001 09/08 A3010 RMK AO2 SLP202 T00890083=
202410121541 SPECI KSEA 121541Z 10005KT 1/4SM R16L/1200V2200FT FG VV001 09/08 A3009 RMK AO2 T00890083=
202410121528 SPECI KSEA 121528Z 13005KT 1/4SM R16L/1400V2800FT FG VV001 08/08 A3010 RMK AO2 SFC VIS 1/2 T00830083=
202410121453 METAR KSEA 121453Z 14004KT 1/4SM R16L/2800VP6000FT FG OVC003 09/08 A3010 RMK AO2 SFC VIS 1/2 SLP199 T00890083 53021=
202410121415 SPECI KSEA 121415Z 15003KT 1/4SM R16L/P6000FT FG OVC002 09/09 A3009 RMK AO2 SFC VIS 1/2 T00890089=
202410121353 METAR KSEA 121353Z 13003KT 1/4SM R16L/2600VP6000FT FG VV001 09/09 A3008 RMK AO2 SFC VIS 1/2 SLP193 T00890089=
202410121322 SPECI KSEA 121322Z 14005KT 1/4SM R16L/1600V3000FT FG VV001 08/08 A3007 RMK AO2 T00830083=
202410121315 SPECI KSEA 121315Z 16004KT 1/4SM R16L/1600V2200FT FG VV001 08/08 A3007 RMK AO2 T00780078=
202410121305 SPECI KSEA 121305Z 14007KT 1/4SM R16L/1400VP6000FT FG OVC001 08/08 A3006 RMK AO2 SFC VIS 1/2 T00830083=
202410121253 METAR KSEA 121253Z 12005KT 1/4SM R16L/P6000FT FG SCT003 08/08 A3005 RMK AO2 SFC VIS 1/2 SLP182 T00830078=
202410121246 SPECI KSEA 121246Z 12004KT 1/4SM R16L/P6000FT FG SCT003 08/08 A3005 RMK AO2 SFC VIS 1/2 T00830078=
202410121153 METAR KSEA 121153Z 00000KT 10SM CLR 08/08 A3004 RMK AO2 SLP177 T00830078 10106 20072 53002=
202410121053 METAR KSEA 121053Z 33005KT 10SM FEW010 08/08 A3003 RMK AO2 SLP174 T00830078=
202410120953 METAR KSEA 120953Z 34004KT 10SM CLR 08/08 A3002 RMK AO2 SLP172 T00830078=
202410120853 METAR KSEA 120853Z 00000KT 10SM CLR 09/08 A3003 RMK AO2 SLP175 T00890083 55000=
202410120753 METAR KSEA 120753Z 00000KT 10SM FEW250 09/08 A3003 RMK AO2 SLP175 T00890078 401440083=
202410120653 METAR KSEA 120653Z VRB03KT 10SM SCT250 09/08 A3003 RMK AO2 SLP176 T00890078=
202410120553 METAR KSEA 120553Z 00000KT 10SM SCT180 SCT250 09/08 A3003 RMK AO2 SLP176 T00940078 10144 20094 53003=
202410120453 METAR KSEA 120453Z 34005KT 10SM SCT200 11/09 A3002 RMK AO2 SLP173 T01110089=
202410120353 METAR KSEA 120353Z 00000KT 10SM BKN200 12/08 A3001 RMK AO2 SLP170 T01170083=
202410120253 METAR KSEA 120253Z 34004KT 10SM BKN200 12/08 A3002 RMK AO2 SLP173 T01170083 51002=
202410120153 METAR KSEA 120153Z 34004KT 10SM SCT120 SCT180 13/08 A3002 RMK AO2 SLP173 T01280083=
202410120053 METAR KSEA 120053Z 35008KT 10SM BKN110 BKN180 14/08 A3002 RMK AO2 SLP171 T01390083=
202410112353 METAR KSEA 112353Z 03007KT 10SM BKN110 OVC160 14/09 A3001 RMK AO2 SLP169 T01440089 10144 20111 58007=
202410112253 METAR KSEA 112253Z 31003KT 10SM BKN120 OVC160 13/09 A3003 RMK AO2 SLP174 T01330089=
202410112153 METAR KSEA 112153Z 27006KT 10SM OVC110 14/09 A3003 RMK AO2 SLP174 T01390094=
202410112053 METAR KSEA 112053Z VRB03KT 10SM FEW080 BKN110 OVC180 14/09 A3004 RMK AO2 SLP177 T01390089 58008=
202410111953 METAR KSEA 111953Z 30004KT 10SM FEW010 BKN130 BKN190 12/09 A3005 RMK AO2 SLP184 T01220089=
202410111853 METAR KSEA 111853Z 00000KT 10SM FEW008 BKN140 BKN190 12/08 A3006 RMK AO2 SLP186 T01220083=
202410111800 SPECI KSEA 111800Z 04003KT 6SM BR SCT008 BKN140 11/08 A3006 RMK AO2 T01110083=
202410111753 METAR KSEA 111753Z 32003KT 6SM BR FEW003 BKN008 BKN140 11/08 A3006 RMK AO2 SLP186 BKN008 V SCT T01060083 10111 20083 50004=
202410111719 SPECI KSEA 111719Z 32003KT 2SM BR SCT003 BKN006 11/08 A3006 RMK AO2 SFC VIS 5 T01060078=
202410111653 METAR KSEA 111653Z 01004KT 2SM BR SCT002 BKN004 10/08 A3007 RMK AO2 SFC VIS 3 SLP188 T01000083=
202410111553 METAR KSEA 111553Z 36005KT 1SM R16L/P6000FT BR BKN002 OVC005 09/08 A3006 RMK AO2 SFC VIS 2 SLP186 T00940083=
202410111453 METAR KSEA 111453Z 35003KT 1/4SM R16L/1600V2400FT FG VV001 08/08 A3005 RMK AO2 SLP182 T00830083 51001=
202410111445 SPECI KSEA 111445Z VRB05KT M1/4SM R16L/1600V2400FT FG VV001 08/08 A3004 RMK AO2 T00830083=
202410111353 METAR KSEA 111353Z 01005KT 1/4SM R16L/5500VP6000FT FG BKN001 OVC003 08/08 A3004 RMK AO2 SFC VIS 3/4 SLP181 T00830078=
202410111253 METAR KSEA 111253Z 33003KT 1/4SM R16L/1600V2400FT FG VV001 08/08 A3005 RMK AO2 SLP182 T00830083=
202410111239 SPECI KSEA 111239Z 34004KT 1/4SM R16L/1800V5500FT FG VV001 09/08 A3004 RMK AO2 T00890083=
202410111232 SPECI KSEA 111232Z 35005KT 1/4SM R16L/1800V2200FT FG VV001 09/08 A3004 RMK AO2 T00890083=
202410111153 METAR KSEA 111153Z 36005KT 1/2SM R16L/1800V2400FT FG VV001 09/08 A3004 RMK AO2 SLP179 T00890083 10106 20083 58003=
202410111117 SPECI KSEA 111117Z 02006KT 1SM R16L/3500VP6000FT BR OVC001 09/08 A3005 RMK AO2 SFC VIS 1 1/2 T00890083=
202410111111 SPECI KSEA 111111Z 03004KT 1 1/2SM R16L/5000VP6000FT BR OVC002 09/08 A3005 RMK AO2 T00890083=
202410111053 METAR KSEA 111053Z 36005KT 1 1/2SM BR OVC002 09/08 A3005 RMK AO2 SFC VIS 4 SLP182 T00940083=
202410110953 METAR KSEA 110953Z 02005KT 7SM OVC003 09/09 A3005 RMK AO2 SLP182 T00940089=
202410110915 SPECI KSEA 110915Z 35006KT 8SM OVC004 09/08 A3005 RMK AO2 T00890083=
202410110853 METAR KSEA 110853Z 36003KT 10SM BKN006 08/08 A3005 RMK AO2 SLP182 T00830078 56008=
202410110841 SPECI KSEA 110841Z 02006KT 10SM BKN006 08/07 A3005 RMK AO2 T00830072=
202410110810 SPECI KSEA 110810Z 32004KT 10SM SCT006 08/08 A3006 RMK AO2 T00830078=
202410110753 METAR KSEA 110753Z 34005KT 10SM FEW200 09/08 A3006 RMK AO2 SLP186 T00890078 401500083=
202410110653 METAR KSEA 110653Z 35006KT 10SM SCT200 09/08 A3006 RMK AO2 SLP187 T00940083=
202410110553 METAR KSEA 110553Z 01010KT 10SM SCT200 10/08 A3007 RMK AO2 SLP191 T01000083 10139 20094 56009=
202410110453 METAR KSEA 110453Z 36008KT 10SM FEW015 SCT200 10/08 A3008 RMK AO2 SLP194 T01000083=
202410110416 SPECI KSEA 110416Z 35008KT 10SM SCT014 10/08 A3008 RMK AO2 T01000083=
202410110353 METAR KSEA 110353Z 35006KT 10SM OVC014 10/08 A3008 RMK AO2 SLP194 T01000083=
202410110335 SPECI KSEA 110335Z 36007KT 10SM OVC014 11/08 A3008 RMK AO2 T01060083=
202410110253 METAR KSEA 110253Z 35005KT 10SM BKN015 11/09 A3010 RMK AO2 SLP200 T01110089 58006=
202410110231 SPECI KSEA 110231Z 35005KT 10SM BKN015 11/08 A3010 RMK AO2 T01060083=
202410110153 METAR KSEA 110153Z 36005KT 10SM FEW030 SCT250 11/08 A3011 RMK AO2 SLP203 T01060083=
202410110053 METAR KSEA 110053Z 36009KT 10SM FEW025 SCT250 13/09 A3011 RMK AO2 SLP204 T01280089=
202410102353 METAR KSEA 102353Z 02012KT 10SM FEW020 SCT250 14/08 A3012 RMK AO2 SLP206 T01390083 10150 20106 56022=
202410102253 METAR KSEA 102253Z 01010KT 10SM FEW020 SCT250 14/08 A3014 RMK AO2 SLP211 T01440083=
202410102153 METAR KSEA 102153Z 03008KT 340V070 10SM FEW019 SCT250 14/07 A3017 RMK AO2 SLP222 T01390072=
202410102053 METAR KSEA 102053Z 03007KT 10SM FEW017 SCT250 13/07 A3019 RMK AO2 SLP229 T01330072 56021=
202410102039 SPECI KSEA 102039Z 03008KT 10SM SCT015 BKN250 13/07 A3020 RMK AO2 T01280072=
202410102006 SPECI KSEA 102006Z 01010KT 10SM BKN015 12/08 A3021 RMK AO2 T01220078=
202410101953 METAR KSEA 101953Z 02011KT 10SM BKN014 12/08 A3021 RMK AO2 SLP237 T01220078=
202410101853 METAR KSEA 101853Z 03011KT 10SM OVC011 11/07 A3022 RMK AO2 SLP241 T01110072=
202410101753 METAR KSEA 101753Z 05009KT 10SM OVC010 11/07 A3025 RMK AO2 SLP250 T01060072 10111 20083 56001=
202410101741 SPECI KSEA 101741Z 04010KT 10SM OVC010 10/07 A3025 RMK AO2 T01000072=
202410101653 METAR KSEA 101653Z 36009KT 10SM OVC008 10/08 A3025 RMK AO2 SLP250 T01000078=
202410101622 SPECI KSEA 101622Z 02008KT 10SM BKN008 10/08 A3025 RMK AO2 T01000078=
202410101604 SPECI KSEA 101604Z 01010KT 10SM SCT008 SCT250 09/08 A3025 RMK AO2 T00940078=
202410101553 METAR KSEA 101553Z 36010KT 10SM SCT010 SCT250 10/08 A3025 RMK AO2 SLP250 T01000078=
202410101453 METAR KSEA 101453Z 36006KT 10SM FEW010 SCT040 08/07 A3025 RMK AO2 SLP251 T00830072 53007=
202410101353 METAR KSEA 101353Z 01008KT 10SM SCT041 10/08 A3024 RMK AO2 SLP247 T01000078=
202410101253 METAR KSEA 101253Z 02010KT 10SM SCT028 BKN040 11/08 A3024 RMK AO2 SLP246 T01110078=
202410101153 METAR KSEA 101153Z 04006KT 10SM FEW021 BKN033 11/08 A3023 RMK AO2 SLP243 T01060078 10128 20106 51003=
202410101053 METAR KSEA 101053Z 05006KT 10SM BKN030 11/08 A3023 RMK AO2 SLP243 T01060083=
202410100953 METAR KSEA 100953Z 03007KT 10SM SCT030 11/08 A3023 RMK AO2 SLP244 T01060083=
202410100919 SPECI KSEA 100919Z 02007KT 10SM SCT030 SCT034 11/09 A3023 RMK AO2 T01110089=
202410100853 METAR KSEA 100853Z 36004KT 10SM FEW016 BKN027 12/09 A3022 RMK AO2 SLP241 T01170094 53005=
202410100843 SPECI KSEA 100843Z 00000KT 10SM SCT016 BKN025 12/09 A3022 RMK AO2 T01170094=
202410100808 SPECI KSEA 100808Z 00000KT 10SM SCT025 11/09 A3022 RMK AO2 T01110094=
202410100753 METAR KSEA 100753Z 00000KT 10SM BKN025 12/09 A3022 RMK AO2 SLP239 T01170094 401610117=
202410100653 METAR KSEA 100653Z 00000KT 10SM OVC021 12/09 A3021 RMK AO2 SLP237 T01220094=
202410100610 SPECI KSEA 100610Z 00000KT 10SM BKN018 BKN065 12/09 A3021 RMK AO2 T01220094=
202410100553 METAR KSEA 100553Z 00000KT 10SM BKN065 12/09 A3021 RMK AO2 SLP235 T01220094 10161 20122 53010=
202410100453 METAR KSEA 100453Z 21005KT 10SM SCT070 13/09 A3018 RMK AO2 SLP227 T01280089=
202410100353 METAR KSEA 100353Z 20004KT 10SM FEW070 13/09 A3018 RMK AO2 SLP225 T01280089=
202410100253 METAR KSEA 100253Z 19005KT 10SM SCT070 14/08 A3018 RMK AO2 SLP225 T01390083 51010=
202410100153 METAR KSEA 100153Z 21007KT 10SM FEW030 BKN070 14/08 A3018 RMK AO2 SLP225 T01440078=
202410100053 METAR KSEA 100053Z 21006KT 10SM FEW030 SCT080 15/08 A3015 RMK AO2 SLP217 T01500078=
202410092353 METAR KSEA 092353Z 20007KT 10SM SCT030 SCT070 16/08 A3015 RMK AO2 SLP215 T01610083 10161 20139 51004=
202410092253 METAR KSEA 092253Z 21008KT 10SM SCT027 16/09 A3014 RMK AO2 SLP213 T01560089=
202410092153 METAR KSEA 092153Z 18005KT 10SM SCT027 SCT250 16/09 A3014 RMK AO2 SLP212 T01560089=
202410092053 METAR KSEA 092053Z 21006KT 10SM SCT030 BKN250 16/07 A3013 RMK AO2 SLP210 T01560072 51005=
202410091953 METAR KSEA 091953Z 23006KT 10SM SCT030 SCT100 BKN220 14/07 A3013 RMK AO2 SLP210 T01440072=
202410091853 METAR KSEA 091853Z 10SM SCT028 BKN090 BKN220 14/09 A3013 RMK AO2 SLP207 T01440089=
202410091753 METAR KSEA 091753Z 16007KT 10SM FEW030 SCT090 BKN220 14/10 A3012 RMK AO2 SLP204 T01390100 10139 20117 51018=
202410091653 METAR KSEA 091653Z VRB05KT 10SM FEW025 SCT060 BKN095 BKN250 13/09 A3010 RMK AO2 SLP199 T01280089=
202410091553 METAR KSEA 091553Z 09007KT 10SM FEW025 BKN060 BKN080 12/08 A3009 RMK AO2 SLP194 T01220083=
202410091453 METAR KSEA 091453Z 08006KT 10SM FEW025 BKN055 OVC075 12/08 A3006 RMK AO2 SLP186 T01220083 53018 $=
202410091353 METAR KSEA 091353Z 05006KT 10SM FEW025 BKN055 BKN070 12/09 A3005 RMK AO2 SLP180 T01170094 $=
202410091300 SPECI KSEA 091300Z 03008KT 10SM FEW023 SCT034 OVC049 12/09 A3003 RMK AO2 T01170089 $=
202410091253 METAR KSEA 091253Z 02006KT 10SM FEW021 BKN029 OVC049 12/09 A3003 RMK AO2 SLP174 T01170089 $=
202410091212 SPECI KSEA 091212Z 04009KT 10SM OVC016 12/09 A3002 RMK AO2 T01170094 $=
202410091153 METAR KSEA 091153Z 04007KT 10SM OVC012 12/10 A3001 RMK AO2 RAE11B34E50 SLP168 P0000 60008 70036 T01170100 10150 20117 53010 $=
202410091114 SPECI KSEA 091114Z 00000KT 10SM FEW004 BKN009 OVC028 13/12 A3000 RMK AO2 RAE11 P0000 T01280122 $=
202410091053 METAR KSEA 091053Z 30003KT 9SM -RA FEW002 SCT011 OVC028 13/12 A3000 RMK AO2 RAB22 SLP163 P0000 T01280122 $=
202410091025 SPECI KSEA 091025Z 29003KT 2SM -RA BR SCT002 BKN011 OVC028 13/13 A2999 RMK AO2 SFC VIS 6 RAB22 P0000 T01330128 $=
202410090953 METAR KSEA 090953Z 22005KT 10SM BKN009 OVC030 14/13 A2999 RMK AO2 SLP161 T01390133 $=
202410090920 SPECI KSEA 090920Z 21004KT 10SM BKN007 OVC030 14/13 A2999 RMK AO2 T01390133 $=
202410090853 METAR KSEA 090853Z 23005KT 10SM SCT008 OVC030 14/14 A2998 RMK AO2 SLP158 60008 T01440139 53006 $=
202410090827 SPECI KSEA 090827Z 23006KT 10SM SCT008 OVC032 14/14 A2998 RMK AO2 T01440139 $=
202410090753 METAR KSEA 090753Z 20007KT 10SM FEW021 BKN027 OVC034 15/14 A2998 RMK AO2 RAB15E45 SLP156 P0006 T01500139 401890122 $=
202410090653 METAR KSEA 090653Z 22006KT 10SM FEW007 BKN015 OVC033 15/14 A2997 RMK AO2 RAE03 SLP153 P0002 T01500144=
202410090636 SPECI KSEA 090636Z 21007KT 10SM FEW007 BKN020 OVC035 15/14 A2997 RMK AO2 RAE03 P0002 T01500139=
202410090615 SPECI KSEA 090615Z 21007KT 10SM FEW020 OVC036 15/14 A2996 RMK AO2 RAE03 P0002 T01500144=
202410090553 METAR KSEA 090553Z 20008KT 7SM -RA BKN020 OVC033 15/14 A2997 RMK AO2 RAB16 SLP152 P0006 60006 T01500144 10178 20150 53006=
202410090504 SPECI KSEA 090504Z 21006KT 10SM BKN016 OVC034 16/14 A2996 RMK AO2 T01560139=
202410090453 METAR KSEA 090453Z 20007KT 10SM FEW019 OVC033 16/14 A2996 RMK AO2 SLP149 T01610139=
202410090440 SPECI KSEA 090440Z 19004KT 10SM FEW019 OVC030 16/14 A2995 RMK AO2 T01560139=
202410090353 METAR KSEA 090353Z 20004KT 10SM OVC026 16/14 A2995 RMK AO2 SLP147 T01610139=
202410090253 METAR KSEA 090253Z 19003KT 10SM BKN028 OVC065 16/14 A2995 RMK AO2 SLP147 T01610139 56003=
202410090241 SPECI KSEA 090241Z 00000KT 10SM BKN028 OVC065 16/14 A2995 RMK AO2 T01610139=
202410090153 METAR KSEA 090153Z 21003KT 10SM SCT028 OVC070 17/14 A2995 RMK AO2 SLP146 T01670139=
202410090053 METAR KSEA 090053Z 23006KT 10SM FEW021 BKN028 BKN090 17/13 A2995 RMK AO2 SLP146 T01720133=
202410082353 METAR KSEA 082353Z 24004KT 10SM BKN021 BKN080 18/14 A2996 RMK AO2 SLP149 T01780139 10189 20139 56006=
202410082253 METAR KSEA 082253Z 23007KT 10SM BKN018 BKN070 18/14 A2996 RMK AO2 SLP149 T01780139=
202410082153 METAR KSEA 082153Z 21009KT 10SM BKN015 BKN070 18/14 A2996 RMK AO2 SLP151 T01830144=
202410082053 METAR KSEA 082053Z 19008KT 10SM SCT012 BKN018 BKN050 18/14 A2998 RMK AO2 SLP156 T01780139 58004=
202410082030 SPECI KSEA 082030Z 19007KT 10SM SCT012 BKN018 BKN050 17/14 A2998 RMK AO2 T01720139=
202410082009 SPECI KSEA 082009Z 19008KT 10SM BKN014 OVC019 17/13 A2998 RMK AO2 T01670133=
202410081953 METAR KSEA 081953Z 20006KT 10SM FEW005 OVC015 16/13 A2999 RMK AO2 SLP159 T01610133=
202410081853 METAR KSEA 081853Z 15008KT 10SM FEW005 OVC015 15/13 A2998 RMK AO2 SLP157 T01500128=
202410081809 SPECI KSEA 081809Z 17006KT 10SM FEW005 OVC015 14/12 A2999 RMK AO2 T01390122=
202410081753 METAR KSEA 081753Z 16009G15KT 10SM FEW005 BKN014 OVC025 14/12 A2999 RMK AO2 SLP160 60022 T01390122 10156 20122 51017=
202410081700 SPECI KSEA 081700Z 15013KT 10SM BKN010 OVC013 13/12 A2998 RMK AO2 T01330117=
202410081653 METAR KSEA 081653Z 15013KT 10SM BKN009 OVC013 13/12 A2998 RMK AO2 SLP157 T01330122=
202410081634 SPECI KSEA 081634Z 13011KT 10SM SCT006 OVC013 13/12 A2998 RMK AO2 T01330122=
202410081553 METAR KSEA 081553Z 18012KT 10SM FEW003 BKN015 OVC050 13/12 A2996 RMK AO2 RAB1458E04 SLP149 P0000 T01280122=
202410081532 SPECI KSEA 081532Z 19013KT 10SM SCT003 BKN015 OVC050 13/12 A2994 RMK AO2 RAB1458E04 P0000 T01280117=
202410081517 SPECI KSEA 081517Z 20011KT 3SM BR BKN004 OVC015 12/12 A2994 RMK AO2 RAB1458E04 P0000 T01220117=
202410081457 SPECI KSEA 081457Z 20012KT 2SM BR BKN003 BKN017 OVC024 12/12 A2994 RMK AO2 TWR VIS 3 T01220117=
202410081453 METAR KSEA 081453Z 20012KT 2SM BR SCT005 BKN019 OVC024 12/12 A2994 RMK AO2 TWR VIS 3 RAE52 SLP142 P0012 60022 T01220117 51009=
202410081358 SPECI KSEA 081358Z 21006KT 1 1/2SM RA BR FEW006 BKN025 OVC033 12/11 A2993 RMK AO2 TWR VIS 2 P0001 T01220111=
202410081353 METAR KSEA 081353Z 22003KT 1SM R16L/P6000FT -RA BR BKN025 OVC031 12/11 A2993 RMK AO2 RAB07 SLP140 P0010 T01220111=
202410081345 SPECI KSEA 081345Z 25005KT 1SM R16L/6000VP6000FT +RA BR BKN028 OVC038 12/11 A2993 RMK AO2 RAB07 P0007 T01220111=
202410081324 SPECI KSEA 081324Z 27007KT 1 3/4SM RA BR BKN034 OVC042 13/11 A2993 RMK AO2 RAB07 P0003 T01280106=
202410081253 METAR KSEA 081253Z 23007KT 10SM BKN042 BKN055 OVC095 15/08 A2992 RMK AO2 SLP136 T01500078=
202410081153 METAR KSEA 081153Z 19005KT 10SM BKN095 14/08 A2991 RMK AO2 SLP132 T01440078 10194 20139 58001=
202410081053 METAR KSEA 081053Z 18006KT 10SM FEW120 BKN150 14/08 A2991 RMK AO2 SLP132 T01440078=
202410080953 METAR KSEA 080953Z 17009KT 10SM SCT120 BKN200 14/07 A2992 RMK AO2 SLP135 T01440072=
202410080853 METAR KSEA 080853Z 18010KT 10SM SCT170 BKN220 16/06 A2991 RMK AO2 SLP134 T01610056 53014=
202410080753 METAR KSEA 080753Z 21008KT 10SM BKN170 15/11 A2990 RMK AO2 SLP128 T01500106 402390094=
202410080653 METAR KSEA 080653Z 18003KT 10SM BKN180 15/10 A2989 RMK AO2 SLP125 T01500100=
202410080553 METAR KSEA 080553Z VRB04KT 10SM BKN180 19/10 A2987 RMK AO2 SLP119 T01890100 10233 20183 56003=
202410080453 METAR KSEA 080453Z 14004KT 10SM BKN180 20/09 A2987 RMK AO2 SLP119 T02000089=
202410080353 METAR KSEA 080353Z 00000KT 10SM BKN180 21/08 A2988 RMK AO2 SLP123 T02060083=
202410080253 METAR KSEA 080253Z 17004KT 10SM BKN200 21/08 A2988 RMK AO2 SLP124 T02060083 56014=
202410080153 METAR KSEA 080153Z 20003KT 10SM SCT220 22/08 A2989 RMK AO2 SLP127 T02170083=
202410080053 METAR KSEA 080053Z 16004KT 10SM SCT200 21/08 A2990 RMK AO2 SLP130 T02110083=
202410072353 METAR KSEA 072353Z 19004KT 10SM SCT200 23/07 A2992 RMK AO2 SLP137 T02330067 10239 20161 56017=
202410072253 METAR KSEA 072253Z 29003KT 10SM FEW200 24/07 A2994 RMK AO2 SLP142 T02390072=
202410072153 METAR KSEA 072153Z 28004KT 10SM FEW200 22/04 A2995 RMK AO2 SLP148 T02220044=
202410072053 METAR KSEA 072053Z 26004KT 10SM FEW030 FEW200 21/09 A2997 RMK AO2 SLP155 T02110094 58027=
202410071953 METAR KSEA 071953Z 00000KT 10SM FEW030 FEW200 21/08 A3000 RMK AO2 SLP165 T02110078=
202410071853 METAR KSEA 071853Z 28003KT 10SM FEW030 FEW200 17/09 A3003 RMK AO2 SLP175 T01720089=
202410071753 METAR KSEA 071753Z VRB03KT 10SM FEW200 16/09 A3006 RMK AO2 SLP183 T01610094 10167 20094 58006=
202410071653 METAR KSEA 071653Z VRB04KT 10SM FEW200 15/08 A3007 RMK AO2 SLP187 T01500078=
202410071553 METAR KSEA 071553Z 16003KT 10SM FEW005 FEW200 13/09 A3008 RMK AO2 SLP190 T01280089=
202410071453 METAR KSEA 071453Z 00000KT 10SM FEW005 FEW200 11/08 A3008 RMK AO2 SLP191 T01060078 56005=
202410071438 SPECI KSEA 071438Z 19003KT 10SM FEW005 FEW200 10/08 A3007 RMK AO2 T01000078=
202410071353 METAR KSEA 071353Z 17003KT 10SM FEW250 10/08 A3008 RMK AO2 SLP191 T01000078=
202410071253 METAR KSEA 071253Z 15005KT 10SM FEW250 10/08 A3008 RMK AO2 SLP192 T01000078 $=
202410071153 METAR KSEA 071153Z 16004KT 10SM FEW250 11/08 A3009 RMK AO2 SLP195 T01060083 10150 20100 57012 $=
202410071053 METAR KSEA 071053Z 15004KT 10SM SCT250 11/09 A3010 RMK AO2 SLP199 T01060089 $=
202410070953 METAR KSEA 070953Z 15004KT 10SM SCT250 11/09 A3011 RMK AO2 SLP202 T01110089 $=
202410070853 METAR KSEA 070853Z 15004KT 10SM SCT250 11/09 A3012 RMK AO2 SLP206 T01110089 56009 $=
202410070753 METAR KSEA 070753Z 12005KT 10SM SCT250 13/09 A3013 RMK AO2 SLP207 T01280094 401940078 $=
202410070653 METAR KSEA 070653Z 13005KT 10SM CLR 13/09 A3014 RMK AO2 SLP210 T01330089 $=
202410070553 METAR KSEA 070553Z 14006KT 10SM CLR 14/08 A3015 RMK AO2 SLP217 T01440078 10194 20139 51001 $=
202410070453 METAR KSEA 070453Z 00000KT 10SM FEW200 16/08 A3015 RMK AO2 SLP217 T01560083 $=
202410070353 METAR KSEA 070353Z 00000KT 10SM FEW200 16/08 A3016 RMK AO2 SLP218 T01560078 $=
202410070253 METAR KSEA 070253Z 00000KT 10SM FEW200 15/08 A3015 RMK AO2 SLP216 T01500078 53000 $=
202410070153 METAR KSEA 070153Z 19004KT 10SM FEW070 FEW200 17/07 A3014 RMK AO2 SLP212 T01720067 $=
202410070053 METAR KSEA 070053Z 19005KT 10SM FEW150 FEW220 18/07 A3014 RMK AO2 SLP213 T01830072 $=
202410062353 METAR KSEA 062353Z 19007KT 10SM FEW150 FEW220 19/08 A3015 RMK AO2 SLP215 T01940083 10194 20128 56010 $=
202410062253 METAR KSEA 062253Z 24008KT 10SM FEW150 SCT220 19/09 A3016 RMK AO2 SLP219 T01940089 $=
202410062153 METAR KSEA 062153Z 18006KT 10SM FEW150 SCT210 19/07 A3016 RMK AO2 SLP220 T01890072 $=
202410062053 METAR KSEA 062053Z 21007KT 10SM FEW150 FEW210 18/09 A3018 RMK AO2 SLP225 T01780089 58002 $=
202410061957 SPECI KSEA 061957Z 19006KT 10SM FEW020 FEW160 SCT220 17/09 A3019 RMK AO2 T01720089 $=
202410061953 METAR KSEA 061953Z VRB06KT 10SM FEW020 FEW160 SCT220 17/08 A3019 RMK AO2 SLP230 T01670083 $=
202410061853 METAR KSEA 061853Z 29004KT 10SM FEW015 FEW160 SCT240 16/10 A3019 RMK AO2 SLP229 T01610100 $=
202410061753 METAR KSEA 061753Z 25003KT 8SM FEW004 FEW180 12/10 A3019 RMK AO2 SLP228 T01220100 10128 20078 51016 $=
202410061730 SPECI KSEA 061730Z 00000KT 3SM BR SCT002 12/10 A3018 RMK AO2 T01220100 $=
202410061722 SPECI KSEA 061722Z 10004KT 2SM BR SCT002 12/09 A3017 RMK AO2 T01170094 $=
202410061714 SPECI KSEA 061714Z VRB04KT 1SM R16L/P6000FT BR BKN002 11/10 A3017 RMK AO2 TWR VIS 3 T01110100 $=
202410061653 METAR KSEA 061653Z 21004KT 1/2SM R16L/5000VP6000FT FG BKN003 10/09 A3018 RMK AO2 TWR VIS 1 SLP228 T01000094 $=
202410061632 SPECI KSEA 061632Z 15005KT 1/2SM R16L/P6000FT FG OVC002 09/09 A3017 RMK AO2 T00940089 $=
202410061553 METAR KSEA 061553Z 16003KT 1/4SM R16L/1400VP6000FT FG VV001 09/09 A3016 RMK AO2 TWR VIS 1/2 SLP220 T00940089 $=
202410061500 SPECI KSEA 061500Z 15005KT 1/4SM R16L/P6000FT FG VV003 08/07 A3014 RMK AO2 TWR VIS 1/2 T00780072 $=
202410061453 METAR KSEA 061453Z 14004KT 2SM BR BKN002 08/08 A3014 RMK AO2 TWR VIS 10 SLP213 T00830078 53008=
202410061423 SPECI KSEA 061423Z 14007KT 2SM BR BKN002 09/08 A3012 RMK AO2 TWR VIS 10 T00890078=
202410061402 SPECI KSEA 061402Z 14006KT 3SM BR BKN002 08/08 A3012 RMK AO2 TWR VIS 8 T00830078=
202410061353 METAR KSEA 061353Z 14007KT 8SM BKN002 08/08 A3012 RMK AO2 SLP208 T00830078=
202410061302 SPECI KSEA 061302Z 14005KT 10SM FEW008 SCT230 08/08 A3012 RMK AO2 T00830078=
202410061253 METAR KSEA 061253Z 13005KT 4SM BR FEW008 SCT220 08/08 A3011 RMK AO2 SLP204 T00830078=
202410061153 METAR KSEA 061153Z 13003KT 10SM FEW220 09/08 A3011 RMK AO2 SLP201 T00890083 10117 20089 56006=
202410061053 METAR KSEA 061053Z 06004KT 10SM FEW210 10/09 A3011 RMK AO2 SLP202 T01000089=
202410060953 METAR KSEA 060953Z 03007KT 10SM SCT220 11/09 A3012 RMK AO2 SLP204 T01060089=
202410060853 METAR KSEA 060853Z 01004KT 10SM SCT210 11/09 A3012 RMK AO2 SLP207 T01060089 55004=
202410060753 METAR KSEA 060753Z 36010KT 10SM SCT200 11/08 A3012 RMK AO2 SLP207 T01110083 401780094=
202410060653 METAR KSEA 060653Z 36010KT 10SM SCT200 12/09 A3013 RMK AO2 SLP209 T01170089=
202410060553 METAR KSEA 060553Z 36009KT 10SM FEW180 SCT240 12/09 A3014 RMK AO2 SLP211 T01170089 10167 20117 58014=
202410060453 METAR KSEA 060453Z 35007KT 10SM FEW180 SCT250 12/09 A3015 RMK AO2 SLP217 T01220094=
202410060353 METAR KSEA 060353Z 36006KT 10SM FEW180 SCT250 12/09 A3016 RMK AO2 SLP221 T01220089=
202410060253 METAR KSEA 060253Z 35009KT 10SM FEW150 SCT220 12/09 A3018 RMK AO2 SLP225 T01220089 56009=
202410060153 METAR KSEA 060153Z 35006KT 10SM FEW110 FEW150 SCT220 13/09 A3018 RMK AO2 SLP226 VIRGA SW T01280089=
202410060053 METAR KSEA 060053Z 36009KT 10SM FEW150 SCT220 16/09 A3019 RMK AO2 SLP229 T01560089=
202410052353 METAR KSEA 052353Z 33009KT 10SM FEW150 SCT220 17/09 A3020 RMK AO2 SLP234 ACSL DSNT SE T01670089 10178 20144 56014=
202410052253 METAR KSEA 052253Z 36008KT 10SM FEW030 FEW140 BKN220 17/08 A3021 RMK AO2 SLP236 ACSL DSNT SE T01720083=
202410052153 METAR KSEA 052153Z 34009KT 10SM FEW030 FEW140 BKN220 17/09 A3023 RMK AO2 SLP244 T01670094=
202410052053 METAR KSEA 052053Z 02009KT 10SM FEW030 BKN220 17/08 A3025 RMK AO2 SLP249 T01720078 58011=
202410051953 METAR KSEA 051953Z 02007KT 10SM FEW025 BKN210 17/09 A3027 RMK AO2 SLP257 T01670094=
202410051853 METAR KSEA 051853Z 32006KT 10SM FEW020 BKN230 16/09 A3028 RMK AO2 SLP259 T01560094=
202410051753 METAR KSEA 051753Z 00000KT 10SM FEW015 BKN220 15/08 A3028 RMK AO2 SLP260 T01500078 10150 20094 50004=
202410051653 METAR KSEA 051653Z VRB03KT 10SM FEW015 BKN220 13/07 A3028 RMK AO2 SLP262 T01330072=
202410051553 METAR KSEA 051553Z 11004KT 10SM FEW015 BKN200 11/07 A3028 RMK AO2 SLP261 T01110072=
202410051453 METAR KSEA 051453Z 18004KT 10SM FEW015 SCT200 09/07 A3027 RMK AO2 SLP256 T00940072 52010=
202410051353 METAR KSEA 051353Z 12007KT 10SM SCT012 BKN200 09/07 A3025 RMK AO2 SLP251 T00940072=
202410051326 SPECI KSEA 051326Z 13006KT 10SM FEW009 OVC013 10/08 A3026 RMK AO2 T01000078=
202410051306 SPECI KSEA 051306Z 16005KT 10SM OVC011 10/08 A3025 RMK AO2 T01000078=
202410051253 METAR KSEA 051253Z 15005KT 10SM OVC009 10/08 A3025 RMK AO2 SLP250 T01000083=
202410051153 METAR KSEA 051153Z 14004KT 10SM BKN008 OVC011 11/10 A3024 RMK AO2 SLP246 70042 T01110100 10117 20094 50008=
202410051136 SPECI KSEA 051136Z 16003KT 10SM BKN008 OVC011 11/10 A3024 RMK AO2 T01110100=
202410051053 METAR KSEA 051053Z 00000KT 10SM SCT008 OVC011 10/09 A3024 RMK AO2 SLP248 SCT V BKN T01000094=
202410050953 METAR KSEA 050953Z 16003KT 10SM SCT008 BKN011 11/09 A3023 RMK AO2 SLP242 T01110094=
202410050914 SPECI KSEA 050914Z 15004KT 10SM FEW008 BKN013 11/09 A3021 RMK AO2 T01060094=
202410050853 METAR KSEA 050853Z 00000KT 10SM SCT013 11/09 A3021 RMK AO2 SLP238 SCT V BKN T01060094 51021=
202410050753 METAR KSEA 050753Z 17005KT 10SM SCT015 11/09 A3020 RMK AO2 SLP232 T01060094 401610089=
202410050653 METAR KSEA 050653Z 17004KT 10SM FEW015 10/09 A3018 RMK AO2 SLP227 T01000089=
202410050553 METAR KSEA 050553Z 15007KT 10SM CLR 11/09 A3015 RMK AO2 SLP217 T01110094 10156 20106 51024=
202410050453 METAR KSEA 050453Z 21003KT 10SM FEW020 12/09 A3014 RMK AO2 SLP213 T01170094=
202410050353 METAR KSEA 050353Z 22007KT 10SM FEW020 12/09 A3011 RMK AO2 SLP201 T01220094=
202410050253 METAR KSEA 050253Z 22009KT 10SM FEW020 13/09 A3008 RMK AO2 SLP192 T01280094 51026=
202410050153 METAR KSEA 050153Z 21013G20KT 10SM FEW020 FEW070 13/10 A3006 RMK AO2 SLP184 T01330100=
202410050053 METAR KSEA 050053Z 21013G23KT 10SM FEW025 FEW095 14/09 A3003 RMK AO2 PK WND 20027/0016 SLP175 T01390094=
202410042353 METAR KSEA 042353Z 20016KT 10SM FEW025 FEW050 SCT095 15/11 A3000 RMK AO2 PK WND 20026/2325 SLP165 CB DSNT SW 60004 T01500106 10161 20094 51032=
202410042253 METAR KSEA 042253Z 20017G26KT 10SM FEW015 FEW027 SCT080 15/11 A2997 RMK AO2 PK WND 20026/2253 SLP155 CB DSNT SE-S AND NW T01500111=
202410042153 METAR KSEA 042153Z 20017G27KT 10SM FEW012 SCT017 16/11 A2994 RMK AO2 PK WND 20030/2130 SLP144 T01560111=
202410042053 METAR KSEA 042053Z 21017G31KT 10SM FEW011 SCT014 14/12 A2990 RMK AO2 PK WND 21031/2051 SLP133 60004 T01440117 52016=
202410042041 SPECI KSEA 042041Z 20016G24KT 10SM FEW011 SCT014 14/12 A2990 RMK AO2 PK WND 20026/2030 T01440117=
202410042000 SPECI KSEA 042000Z 20012G19KT 10SM SCT007 BKN010 OVC018 13/12 A2990 RMK AO2 T01280117=
202410041953 METAR KSEA 041953Z 20012KT 10SM BKN007 BKN030 12/11 A2989 RMK AO2 RAE31 SLP128 P0000 T01220111=
202410041906 SPECI KSEA 041906Z 19008KT 3SM -RA BR BKN007 OVC030 11/10 A2987 RMK AO2 P0000 T01060100=
202410041853 METAR KSEA 041853Z 19006KT 3SM -RA BR SCT006 BKN010 OVC031 11/10 A2987 RMK AO2 RAE40B46 SLP121 P0004 T01060100=
202410041844 SPECI KSEA 041844Z 19006KT 5SM BR SCT006 BKN013 OVC035 10/09 A2987 RMK AO2 RAE40 P0004 T01000094=
202410041840 SPECI KSEA 041840Z 19005KT 6SM BR SCT010 BKN026 OVC060 10/09 A2986 RMK AO2 RAE40 P0004 T01000094=
202410041816 SPECI KSEA 041816Z 20007KT 5SM -RA BR FEW014 BKN055 OVC070 10/09 A2986 RMK AO2 P0002 T01000094=
202410041753 METAR KSEA 041753Z 24003KT 5SM -RA BR FEW007 BKN019 OVC065 09/09 A2986 RMK AO2 SLP117 WNDSHFT31 P0007 60038 T00940089 10122 20094 53011=
202410041718 SPECI KSEA 041718Z 17012KT 6SM -RA BR FEW004 BKN022 OVC055 10/08 A2984 RMK AO2 P0002 T01000083=
202410041653 METAR KSEA 041653Z 17012KT 7SM -RA FEW004 BKN035 OVC060 09/08 A2981 RMK AO2 SLP102 P0004 T00940083=
202410041600 SPECI KSEA 041600Z 14014G21KT 4SM -RA BR FEW008 BKN035 OVC050 09/08 A2983 RMK AO2 P0001 T00940083=
202410041553 METAR KSEA 041553Z 14010KT 5SM -RA BR FEW015 BKN035 OVC045 09/08 A2983 RMK AO2 SLP109 P0015 T00940083=
202410041453 METAR KSEA 041453Z 19008KT 6SM RA BR SCT011 BKN030 OVC060 10/09 A2983 RMK AO2 SLP106 P0012 60012 T01000089 53025=
202410041353 METAR KSEA 041353Z 22004KT 7SM -RA FEW055 BKN075 OVC100 11/07 A2978 RMK AO2 RAB47 SLP090 P0000 T01110072=
202410041253 METAR KSEA 041253Z 14006KT 10SM BKN090 11/06 A2975 RMK AO2 SLP080 T01110061 $=
202410041153 METAR KSEA 041153Z 19005KT 10SM BKN095 11/07 A2975 RMK AO2 SLP079 T01110067 10139 20089 56006 $=
202410041053 METAR KSEA 041053Z 00000KT 10SM SCT090 11/06 A2975 RMK AO2 SLP079 T01060061 $=
202410040953 METAR KSEA 040953Z 15004KT 10SM SCT090 10/08 A2977 RMK AO2 SLP085 T01000078 $=
202410040853 METAR KSEA 040853Z 16004KT 10SM SCT100 09/08 A2977 RMK AO2 SLP086 T00940078 56010 $=
202410040753 METAR KSEA 040753Z 00000KT 10SM SCT100 11/06 A2977 RMK AO2 SLP088 T01060056 401890067 $=
202410040653 METAR KSEA 040653Z VRB04KT 10SM BKN095 13/06 A2978 RMK AO2 SLP089 T01330061 $=
202410040553 METAR KSEA 040553Z 13006KT 10SM FEW120 SCT220 13/06 A2980 RMK AO2 SLP097 T01330056 10183 20122 56009 $=
202410040453 METAR KSEA 040453Z 00000KT 10SM FEW140 SCT240 13/06 A2981 RMK AO2 SLP101 T01330061 $=
202410040353 METAR KSEA 040353Z VRB04KT 10SM FEW140 SCT240 13/06 A2981 RMK AO2 SLP100 T01330056 $=
202410040253 METAR KSEA 040253Z 00000KT 10SM FEW140 SCT240 14/06 A2983 RMK AO2 SLP107 T01390056 56017 $=
202410040153 METAR KSEA 040153Z 30004KT 10SM FEW140 SCT240 14/05 A2984 RMK AO2 SLP112 T01390050 $=
202410040053 METAR KSEA 040053Z 29006KT 10SM FEW140 FEW240 17/06 A2986 RMK AO2 SLP117 T01670056 $=
202410032353 METAR KSEA 032353Z 31006KT 10SM FEW120 FEW240 18/06 A2988 RMK AO2 SLP123 T01830056 10189 20122 56035 $=
202410032253 METAR KSEA 032253Z 28007KT 10SM FEW120 FEW240 18/06 A2991 RMK AO2 SLP134 T01830061 $=
202410032153 METAR KSEA 032153Z VRB04KT 10SM FEW120 SCT250 19/07 A2994 RMK AO2 SLP145 T01890067=
202410032053 METAR KSEA 032053Z 35006KT 10SM FEW120 SCT250 17/06 A2998 RMK AO2 SLP158 T01720056 58032=
202410031953 METAR KSEA 031953Z 35005KT 10SM FEW120 BKN250 16/06 A3002 RMK AO2 SLP171 T01610056=
202410031853 METAR KSEA 031853Z 36007KT 10SM BKN220 14/05 A3004 RMK AO2 SLP179 T01440050=
202410031753 METAR KSEA 031753Z 01009KT 10SM BKN220 12/04 A3008 RMK AO2 SLP191 T01220044 10122 20067 58019=
202410031653 METAR KSEA 031653Z 01007KT 10SM BKN220 11/05 A3010 RMK AO2 SLP197 T01060050=
202410031553 METAR KSEA 031553Z 01010KT 10SM FEW010 BKN220 09/05 A3012 RMK AO2 SLP205 T00940050=
202410031453 METAR KSEA 031453Z 10SM FEW010 BKN220 07/05 A3013 RMK AO2 SLP212 T00720050 56018=
202410031353 METAR KSEA 031353Z 04008KT 10SM FEW010 FEW200 07/05 A3015 RMK AO2 SLP218 T00720050=
202410031253 METAR KSEA 031253Z 03007KT 10SM CLR 08/05 A3017 RMK AO2 SLP222 T00780050=
202410031153 METAR KSEA 031153Z 03011KT 10SM CLR 09/06 A3019 RMK AO2 SLP229 T00890061 10117 20089 56017=
202410031053 METAR KSEA 031053Z 03009KT 10SM CLR 09/07 A3021 RMK AO2 SLP236 T00940067=
202410030953 METAR KSEA 030953Z 03010KT 10SM CLR 10/07 A3021 RMK AO2 SLP238 T01000067=
202410030853 METAR KSEA 030853Z 02009KT 10SM CLR 09/06 A3024 RMK AO2 SLP246 T00940061 56013=
202410030753 METAR KSEA 030753Z 04008KT 10SM CLR 11/06 A3024 RMK AO2 SLP248 T01060061 401720106=
202410030653 METAR KSEA 030653Z 03011KT 10SM CLR 12/06 A3026 RMK AO2 SLP255 T01170056=
202410030553 METAR KSEA 030553Z 04008KT 10SM CLR 12/04 A3028 RMK AO2 SLP259 T01170044 10167 20117 58003=
202410030453 METAR KSEA 030453Z 07009KT 10SM CLR 12/05 A3028 RMK AO2 SLP261 T01220050=
202410030353 METAR KSEA 030353Z 06010KT 10SM CLR 13/05 A3028 RMK AO2 SLP261 T01280050=
202410030253 METAR KSEA 030253Z 04010KT 10SM FEW050 FEW250 13/05 A3029 RMK AO2 SLP262 T01330050 55005=
202410030153 METAR KSEA 030153Z 02009KT 10SM FEW050 SCT250 14/04 A3028 RMK AO2 SLP260 T01390039=
202410030053 METAR KSEA 030053Z 03010KT 10SM FEW045 SCT250 16/04 A3029 RMK AO2 SLP263 T01560044=
202410022353 METAR KSEA 022353Z 03007KT 10SM FEW046 SCT250 16/04 A3030 RMK AO2 SLP266 T01610039 10172 20133 56013=
202410022253 METAR KSEA 022253Z 05008KT 10SM SCT046 SCT250 17/04 A3031 RMK AO2 SLP270 T01670044=
202410022153 METAR KSEA 022153Z 00000KT 10SM SCT043 BKN250 16/04 A3032 RMK AO2 SLP275 T01610044=
202410022053 METAR KSEA 022053Z VRB03KT 10SM SCT035 BKN055 BKN250 16/07 A3034 RMK AO2 SLP280 T01560067 58002=
202410021953 METAR KSEA 021953Z VRB03KT 10SM SCT036 BKN045 BKN250 16/06 A3035 RMK AO2 SLP283 T01610061=
202410021853 METAR KSEA 021853Z 09007KT 10SM SCT030 BKN050 14/06 A3035 RMK AO2 SLP282 T01390061=
202410021753 METAR KSEA 021753Z VRB03KT 10SM SCT028 SCT050 14/06 A3035 RMK AO2 SLP282 T01390061 10139 20111 51018=
202410021653 METAR KSEA 021653Z 06007KT 10SM SCT038 BKN050 13/06 A3034 RMK AO2 SLP279 T01330056=
202410021553 METAR KSEA 021553Z 08003KT 10SM BKN035 BKN050 12/05 A3032 RMK AO2 SLP273 T01220050=
202410021453 METAR KSEA 021453Z 06007KT 10SM BKN030 12/05 A3029 RMK AO2 SLP265 T01170050 51015=
202410021356 SPECI KSEA 021356Z 07005KT 10SM SCT028 BKN033 OVC043 12/05 A3028 RMK AO2 T01170050=
202410021353 METAR KSEA 021353Z AUTO 07005KT 10SM BKN028 OVC045 12/05 A3028 RMK AO2 SLP262 T01170050=
202410021303 SPECI KSEA 021303Z 06005KT 10SM BKN028 OVC045 12/05 A3027 RMK AO2 T01220050=
202410021253 METAR KSEA 021253Z 09005KT 10SM BKN030 OVC044 12/05 A3026 RMK AO2 SLP254 T01220050=
202410021153 METAR KSEA 021153Z 06008KT 10SM BKN055 12/06 A3025 RMK AO2 SLP250 T01220056 10144 20117 51009=
202410021053 METAR KSEA 021053Z 04010KT 10SM FEW032 BKN060 12/06 A3024 RMK AO2 SLP247 T01170061=
202410020953 METAR KSEA 020953Z 05007KT 10SM BKN060 12/08 A3023 RMK AO2 SLP243 T01170078=
202410020853 METAR KSEA 020853Z 04008KT 10SM FEW020 BKN060 13/09 A3022 RMK AO2 SLP240 T01280089 51014=
202410020848 SPECI KSEA 020848Z 05009KT 10SM FEW020 BKN060 13/09 A3022 RMK AO2=
202410020753 METAR KSEA 020753Z 05008KT 10SM BKN022 BKN050 13/09 A3021 RMK AO2 SLP235 T01330089 402000078=
202410020653 METAR KSEA 020653Z 02006KT 10SM OVC024 14/08 A3020 RMK AO2 SLP232 T01440083=
202410020617 SPECI KSEA 020617Z 02005KT 10SM BKN024 BKN039 OVC047 14/08 A3020 RMK AO2 T01440083=
202410020553 METAR KSEA 020553Z 03005KT 10SM SCT023 OVC038 14/09 A3018 RMK AO2 SLP226 60000 T01440089 10161 20133 52008=
202410020453 METAR KSEA 020453Z 07003KT 10SM BKN023 OVC030 14/10 A3017 RMK AO2 SLP224 T01440100=
202410020441 SPECI KSEA 020441Z 00000KT 10SM SCT020 OVC026 14/09 A3018 RMK AO2 T01390094=
202410020353 METAR KSEA 020353Z 30004KT 10SM OVC037 14/09 A3017 RMK AO2 SLP223 T01390089=
202410020253 METAR KSEA 020253Z 20003KT 10SM BKN041 14/10 A3016 RMK AO2 SLP219 60000 T01440100 53006=
202410020153 METAR KSEA 020153Z 12008KT 10SM BKN042 15/09 A3015 RMK AO2 SLP215 T01500094=
202410020053 METAR KSEA 020053Z 05007KT 10SM BKN030 BKN060 16/08 A3014 RMK AO2 DZE39 SLP214 P0000 T01610083=
202410012353 METAR KSEA 012353Z 01008KT 9SM -DZ OVC043 16/09 A3014 RMK AO2 DZB48 SLP214 P0000 60000 T01560094 10200 20156 53001=
202410012253 METAR KSEA 012253Z 35007KT 10SM OVC042 17/07 A3014 RMK AO2 SLP211 T01670067=
202410012153 METAR KSEA 012153Z 36012KT 10SM BKN042 18/06 A3013 RMK AO2 SLP209 T01780056=
202410012053 METAR KSEA 012053Z VRB06KT 10SM FEW047 BKN060 BKN150 BKN250 19/06 A3014 RMK AO2 SLP212 ACSL DSNT SE T01940061 53004=
202410011953 METAR KSEA 011953Z 26007KT 10SM FEW040 FEW120 SCT250 19/06 A3014 RMK AO2 SLP211 T01890056=
202410011853 METAR KSEA 011853Z 21007KT 10SM FEW040 SCT150 SCT230 18/06 A3013 RMK AO2 SLP207 ACSL DSNT SE T01830061=
202410011753 METAR KSEA 011753Z 19007KT 10SM FEW040 FEW150 BKN230 16/07 A3013 RMK AO2 SLP208 ACSL DSNT SE T01560072 10161 20078 58007=
202410011653 METAR KSEA 011653Z 14006KT 10SM FEW080 SCT200 BKN250 13/08 A3014 RMK AO2 SLP214 T01330078=
202410011553 METAR KSEA 011553Z 18004KT 10SM SCT150 SCT250 12/09 A3015 RMK AO2 SLP216 T01170089=
202410011453 METAR KSEA 011453Z 15006KT 10SM FEW015 SCT150 BKN250 09/07 A3015 RMK AO2 SLP216 T00940072 56008=
202410011353 METAR KSEA 011353Z VRB03KT 10SM FEW150 SCT200 09/07 A3015 RMK AO2 SLP217 ACSL DSNT SE T00940072=
202410011253 METAR KSEA 011253Z 17004KT 10SM CLR 08/07 A3017 RMK AO2 SLP221 T00830067=
202410011153 METAR KSEA 011153Z 00000KT 10SM CLR 09/07 A3017 RMK AO2 SLP223 T00890067 10117 20083 56019=
202410011053 METAR KSEA 011053Z 35005KT 10SM CLR 08/07 A3019 RMK AO2 SLP229 T00830067=
202410010953 METAR KSEA 010953Z 00000KT 10SM CLR 09/07 A3020 RMK AO2 SLP234 T00940072=
202410010853 METAR KSEA 010853Z 00000KT 10SM CLR 11/07 A3023 RMK AO2 SLP242 T01060072 58012=
202410010753 METAR KSEA 010753Z 35003KT 10SM SCT250 11/07 A3025 RMK AO2 SLP251 T01060072 401940089=
202410010653 METAR KSEA 010653Z 33004KT 10SM CLR 11/08 A3026 RMK AO2 SLP253 T01060078=
202410010553 METAR KSEA 010553Z 01006KT 10SM CLR 12/07 A3026 RMK AO2 SLP255 T01170072 10194 20111 56012=
202410010453 METAR KSEA 010453Z 34004KT 10SM CLR 12/07 A3027 RMK AO2 SLP258 T01170072=
202410010353 METAR KSEA 010353Z 36008KT 10SM CLR 12/07 A3028 RMK AO2 SLP260 T01220067=
202410010253 METAR KSEA 010253Z 36007KT 10SM FEW150 SCT250 13/06 A3030 RMK AO2 SLP267 T01330061 56008=
202410010153 METAR KSEA 010153Z 35005KT 10SM FEW150 BKN250 14/03 A3030 RMK AO2 SLP267 T01440033=
202410010053 METAR KSEA 010053Z 35007KT 10SM SCT250 17/02 A3030 RMK AO2 SLP267 T01720017=

# No short TAF reports from KSEA in databse.

###################################
#  large TAF from KSEA
###################################
202410312337 TAF KSEA 312337Z 0100/0206 17006KT P6SM -SHRA OVC050 FM010200 12008KT
                       P6SM -RA OVC040 FM011000 12008KT P6SM -RA
                       OVC025 FM011500 09010KT 6SM -RA OVC020 FM011900
                       10007KT P6SM OVC019 FM012300 16008KT 5SM
                       BR OVC015=
202410312055 KSEA 312055Z 3121/0124 17006KT P6SM BKN040 OVC060 FM010300 12008KT
                       P6SM -RA OVC045 FM011100 12008KT P6SM -RA
                       OVC025 FM011500 09010KT 6SM -RA OVC020 FM011900
                       10007KT P6SM OVC019=
202410311729 TAF KSEA 311729Z 3118/0124 VRB04KT P6SM SCT030 BKN050 FM312100
                       15005KT P6SM BKN050 FM010300 12008KT P6SM
                       -RA OVC045 FM011100 12008KT P6SM -RA OVC025
                       FM011500 09010KT 6SM -RA OVC020 FM011900
                       10007KT P6SM OVC019=
202410311503 KSEA 311503Z 3115/0118 16005KT P6SM BKN060 FM311600 16006KT P6SM
                       SCT030 BKN050 FM010300 12008KT P6SM -RA
                       OVC045 FM011100 12008KT P6SM -RA OVC025=
202410311133 TAF KSEA 311133Z 3112/0118 16005KT P6SM BKN045 FM311600 16006KT
                       P6SM SCT030 BKN050 FM010300 12008KT P6SM
                       -RA OVC045 FM011100 12008KT P6SM -RA OVC025=
202410310906 KSEA 310906Z 3109/0112 16005KT P6SM BKN045 FM311600 16006KT P6SM
                       SCT030 BKN050 FM010600 12008KT 6SM -RA BR
                       OVC035=
202410310539 TAF KSEA 310539Z 3106/0112 16010KT P6SM SCT035 BKN060 FM310900
                       16010KT P6SM -SHRA BKN025 BKN040 FM311600
                       16006KT P6SM SCT030 BKN050 FM010700 12008KT
                       6SM -RA BR OVC035=
202410310336 KSEA 310336Z 3104/0106 17010KT P6SM -SHRA BKN035 OVC050 FM310700
                       15006KT P6SM VCSH BKN025 FM311600 16006KT
                       P6SM BKN040 FM312200 16007KT P6SM VCSH BKN035
                       FM010500 12009KT 6SM -RA BR OVC030=
202410302346 TAF KSEA 302346Z 3100/0106 17006KT P6SM -RA SCT022 OVC030 FM310300
                       16005KT 6SM -SHRA BR OVC030 FM310700 15006KT
                       P6SM VCSH BKN025 FM311600 16006KT P6SM BKN040
                       FM312200 16007KT P6SM VCSH BKN035 FM010500
                       12009KT 6SM -RA BR OVC030=
202410302109 KSEA 302109Z 3021/3124 17007KT 6SM -RA SCT022 OVC035 FM302300 17011KT
                       P6SM -RA OVC030 FM310200 15007KT 6SM -SHRA
                       BR OVC025 FM310700 15006KT P6SM VCSH OVC025
                       FM311600 17006KT P6SM BKN040=
202410301744 TAF KSEA 301744Z 3018/3124 15010KT P6SM OVC050 WS020/18035KT FM301900
                       15011KT 5SM -RA OVC050 FM302200 17011KT
                       P6SM -RA OVC030 FM310000 15007KT 6SM -RA
                       BR OVC025 FM310400 15006KT P6SM VCSH OVC027=
202410301527 KSEA 301527Z 3015/3118 12007KT P6SM BKN100 OVC200 FM301600 15010KT
                       P6SM OVC050 WS020/18035KT FM301900 15011KT
                       5SM -RA OVC050 FM302200 17011KT P6SM -RA
                       OVC030 FM310000 15007KT 6SM -RA BR OVC025
                       FM310300 15006KT P6SM OVC050=
202410301120 TAF KSEA 301120Z 3012/3118 12007KT P6SM BKN100 OVC200 FM301600
                       15010KT P6SM OVC050 WS020/18035KT FM301900
                       15011KT P6SM -RA OVC050 FM302200 17011KT
                       P6SM -RA OVC030 FM310000 15007KT P6SM VCSH
                       OVC025=
202410300911 KSEA 300911Z 3009/3112 14009KT P6SM SCT060 OVC200 FM301100 12007KT
                       P6SM BKN060 BKN100 OVC200 FM301600 15010KT
                       P6SM OVC050 WS020/18035KT FM301900 15011KT
                       P6SM -RA OVC050 FM302200 17011KT P6SM -RA
                       OVC030 FM310000 15007KT P6SM VCSH OVC025=
202410300525 TAF KSEA 300525Z 3006/3112 14009KT P6SM SCT060 OVC200 FM301100
                       12007KT P6SM BKN060 BKN100 OVC200 FM301600
                       15010KT P6SM OVC050 WS020/18035KT FM301900
                       15011KT P6SM -RA OVC022 FM302200 17011KT
                       6SM -RA BR OVC015 FM310000 15007KT P6SM
                       VCSH OVC025=
202410300303 KSEA 300303Z 3003/3106 22007KT P6SM SCT060 BKN200 FM300400 14006KT
                       P6SM FEW035 SCT120 OVC200 FM301100 12007KT
                       P6SM BKN100 OVC200 FM301600 15010KT P6SM
                       OVC050 WS020/18035KT FM301900 15011KT P6SM
                       -RA OVC022 FM302200 17011KT 6SM -RA BR OVC015=
202410292331 TAF KSEA 292331Z 3000/3106 22007KT P6SM SCT035 SCT200 FM300400
                       14006KT P6SM FEW035 SCT120 OVC200 FM301100
                       12007KT P6SM BKN100 OVC200 FM301600 15010KT
                       P6SM OVC050 WS020/18035KT FM301900 15011KT
                       P6SM -RA OVC022 FM302200 17011KT 6SM -RA
                       BR OVC015=
202410292006 KSEA 292006Z 2920/3024 20007KT P6SM BKN015 BKN035 FM292100 20006KT
                       P6SM SCT020 BKN040 FM300300 14006KT P6SM
                       BKN050 OVC200 FM301100 12007KT P6SM BKN100
                       OVC200 FM301600 15010KT P6SM OVC050 WS020/18035KT
                       FM301900 17010G16KT P6SM -RA OVC022=
202410291817 KSEA 291817Z 2918/3024 18006KT P6SM BKN009 BKN030 FM292000 20007KT
                       P6SM SCT012 BKN035 FM300300 14006KT P6SM
                       BKN050 OVC200 FM301100 12007KT P6SM BKN100
                       OVC200 FM301600 15010KT P6SM OVC050 WS020/18035KT
                       FM301900 17010G16KT P6SM -RA OVC022=
202410291816 KSEA 291816Z 2918/3024 18006KT P6SM BKN010 BKN030 FM292000 20007KT
                       P6SM SCT012 BKN035 FM300300 14006KT P6SM
                       BKN050 OVC200 FM301100 12007KT P6SM BKN100
                       OVC200 FM301600 15010KT P6SM OVC050 WS020/18035KT
                       FM301900 17010G16KT P6SM -RA OVC022=
202410291734 TAF KSEA 291734Z 2918/3024 18006KT P6SM BKN012 BKN030 FM292100
                       20007KT P6SM SCT015 BKN035 FM300300 14006KT
                       P6SM BKN050 OVC200 FM301100 12007KT P6SM
                       BKN100 OVC200 FM301600 15010KT P6SM OVC050
                       WS020/18035KT FM301900 17010G16KT P6SM -RA
                       OVC022=
202410291410 KSEA 291410Z 2914/3018 16005KT P6SM BKN006 OVC022 FM291700 18006KT
                       P6SM BKN012 BKN030 FM292200 20007KT P6SM
                       BKN035 FM300600 14006KT P6SM BKN050 OVC200
                       FM301100 12005KT P6SM BKN100 OVC200=
202410291206 KSEA 291206Z 2912/3018 20003KT P6SM BKN025
                      TEMPO 2912/2914 OVC007 FM291830 18006KT P6SM
                       BKN035 FM292200 20007KT P6SM BKN050 FM300600
                       14006KT P6SM BKN250 FM301100 12005KT P6SM
                       BKN060=
202410291202 KSEA 291202Z 2912/3018 20003KT P6SM BKN025
                      TEMPO 2912/2914 OVC007 FM291830 18006KT P6SM
                       BKN035 FM292200 20007KT P6SM BKN050 FM300600
                       14006KT P6SM BKN250 FM301100 12005KT P6SM
                       BKN060=
202410291120 TAF KSEA 291120Z 2912/3018 20003KT P6SM FEW015 BKN025 OVC045 FM291830
                       18006KT P6SM BKN035 FM292200 20007KT P6SM
                       BKN050 FM300600 14006KT P6SM BKN250 FM301100
                       12005KT P6SM BKN060=
202410290905 KSEA 290905Z 2909/3012 17005KT P6SM BKN024 BKN030 OVC080 FM291830
                       18006KT P6SM BKN035 FM292200 20007KT P6SM
                       BKN050 FM300000 20005KT P6SM BKN250 FM300600
                       14006KT P6SM BKN250=
202410290520 TAF KSEA 290520Z 2906/3012 18009KT P6SM VCSH OVC013 FM290700 18004KT
                       P6SM OVC015 FM291900 18006KT P6SM BKN035
                       FM292200 20007KT P6SM BKN050 FM300000 20005KT
                       P6SM BKN250 FM300600 14006KT P6SM BKN250=
202410290303 KSEA 290303Z 2903/3006 21011KT P6SM VCSH SCT019 BKN040 BKN100 FM290700
                       18004KT P6SM OVC022 FM291900 18006KT P6SM
                       BKN035 FM292200 20007KT P6SM BKN050=
202410282320 TAF KSEA 282320Z 2900/3006 21010KT P6SM VCSH BKN025 OVC040 FM290400
                       VRB05KT P6SM VCSH BKN030 BKN050 FM290700
                       18004KT P6SM OVC022 FM291900 18006KT P6SM
                       BKN035 FM292200 20007KT P6SM BKN050=
202410282114 KSEA 282114Z 2821/2924 21011KT P6SM VCSH BKN022 BKN040 FM282300
                       21008KT P6SM VCSH SCT027 OVC040 FM290200
                       VRB05KT P6SM -SHRA OVC030 FM290700 18004KT
                       P6SM OVC022 FM291900 18006KT P6SM BKN035=
202410281858 KSEA 281858Z 2819/2924 21012G18KT P6SM VCSH SCT022 BKN035 FM282200
                       21010KT P6SM VCSH OVC040 FM290200 VRB05KT
                       P6SM -SHRA OVC027 FM290700 18004KT P6SM
                       OVC022 FM291900 18006KT P6SM BKN035=
202410281720 TAF KSEA 281720Z 2818/2924 19011KT P6SM VCSH SCT022 BKN035 FM282200
                       21008KT P6SM VCSH OVC040 FM290200 VRB05KT
                       P6SM -SHRA OVC027 FM290700 18004KT P6SM
                       OVC022 FM291900 18006KT P6SM BKN035=
202410281353 KSEA 281353Z 2814/2918 19012KT P6SM VCSH FEW035 OVC050 FM282200
                       21008KT P6SM VCSH OVC040 FM290600 VRB05KT
                       P6SM -SHRA OVC025 FM291100 17003KT P6SM
                       OVC020=
202410281134 TAF KSEA 281134Z 2812/2918 20010KT P6SM VCSH BKN035 OVC150 FM281300
                       18010KT P6SM VCSH SCT020 OVC030 FM282200
                       21008KT P6SM VCSH OVC040 FM290600 VRB05KT
                       P6SM -SHRA OVC025 FM291100 17003KT P6SM
                       OVC020=
202410280858 KSEA 280858Z 2809/2912 20010KT P6SM -SHRA SCT030 OVC045 FM281300
                       18010KT P6SM VCSH SCT020 OVC030 FM282200
                       18007KT P6SM VCSH OVC040=
202410280520 TAF KSEA 280520Z 2806/2912 19012G23KT P6SM VCSH FEW030 SCT040 SCT150
                       FM280900 18012KT P6SM -SHRA OVC030 FM281300
                       18010KT P6SM VCSH SCT020 OVC030 FM282200
                       18007KT P6SM VCSH OVC040=
202410280302 KSEA 280302Z 2803/2906 19010KT P6SM -SHRA FEW025 BKN035 OVC045
                       FM280900 18010KT P6SM -SHRA OVC030 FM281300
                       18012KT P6SM -SHRA SCT020 OVC030 FM282200
                       18007KT P6SM VCSH OVC040=
202410272344 TAF KSEA 272344Z 2800/2906 20014G25KT 6SM -SHRA BR SCT030 OVC050
                       FM280300 18010G20KT P6SM -SHRA OVC035 FM280900
                       18010G20KT P6SM -SHRA OVC030 FM281300 18012KT
                       P6SM -SHRA SCT020 OVC030 FM282200 18007KT
                       P6SM VCSH OVC040=
202410272134 KSEA 272134Z 2722/2824 20014G25KT 6SM -SHRA BR SCT030 OVC050 FM280300
                       18010G20KT P6SM -SHRA OVC035 FM280900 18010G20KT
                       P6SM -SHRA OVC030 FM281300 18012KT P6SM
                       -SHRA SCT020 OVC030 FM282200 18007KT P6SM
                       VCSH OVC040=
202410271736 TAF KSEA 271736Z 2718/2824 19012G25KT P6SM -SHRA SCT030 BKN060
                       FM272200 18010G22KT P6SM -SHRA OVC050 FM280300
                       18010G20KT P6SM -SHRA OVC035 FM280900 18010G20KT
                       P6SM -SHRA OVC030 FM281300 18012KT P6SM
                       -SHRA SCT020 OVC030 FM282200 18007KT P6SM
                       VCSH OVC040=
202410271507 KSEA 271507Z 2715/2818 19012G25KT P6SM -SHRA SCT030 BKN060 FM272200
                       18010G22KT P6SM -SHRA OVC050 FM280300 18010KT
                       P6SM -SHRA OVC035 FM280900 18007KT P6SM
                       -SHRA OVC030=
202410271352 KSEA 271352Z 2714/2818 19012G25KT P6SM -RA BKN020 OVC035 FM271500
                       19010G22KT P6SM -SHRA BKN025 OVC030 FM272200
                       18010G22KT P6SM -SHRA OVC050 FM280300 18010KT
                       P6SM -SHRA OVC035 FM280900 18007KT P6SM
                       -SHRA OVC030=
202410271138 TAF KSEA 271138Z 2712/2818 19012G25KT P6SM -RA BKN030 OVC060 FM271500
                       19010G20KT P6SM -SHRA BKN020 OVC030 FM272200
                       18010G18KT P6SM -SHRA OVC050 FM280300 18010KT
                       P6SM -SHRA OVC030 FM280900 18007KT P6SM
                       -SHRA OVC035=
202410270858 KSEA 270858Z 2709/2812 20010KT 4SM RA BKN020 OVC025 FM271200 19012G20KT
                       P6SM -SHRA BKN020 OVC030 FM272000 18010G18KT
                       P6SM -SHRA OVC050 FM280300 18010KT P6SM
                       -SHRA OVC030=
202410270533 TAF KSEA 270533Z 2706/2812 14009KT P6SM -SHRA FEW009 SCT025 BKN070
                       FM270900 18010KT P6SM -SHRA SCT009 BKN025
                       OVC050 FM271200 19012G20KT P6SM -SHRA BKN020
                       OVC030 FM272000 18010G18KT P6SM -SHRA OVC050
                       FM280300 18010KT P6SM -SHRA OVC030=
202410270137 KSEA 270137Z 2702/2806 16009KT P6SM -SHRA SCT010 BKN050 BKN140
                       FM270600 20010G24KT 5SM -RA OVC020 FM271200
                       19012G20KT 6SM -RA BKN020 OVC030 FM272000
                       18010KT P6SM -SHRA OVC050=
202410270027 KSEA 270027Z 2700/2806 16006KT 6SM -SHRA SCT005 OVC009
                      TEMPO 2700/2704 BKN004 FM270600 20010G24KT
                       5SM -RA OVC020 FM271200 19012G20KT 6SM -RA
                       BKN020 OVC030 FM272000 18010KT P6SM -SHRA
                       OVC050=
202410262320 TAF KSEA 262320Z 2700/2806 16006KT 6SM -SHRA BKN025 FM270600 20010G24KT
                       5SM -RA OVC020 FM271200 19012G20KT 6SM -RA
                       BKN020 OVC030 FM272000 18010KT P6SM -SHRA
                       OVC050=
202410262107 KSEA 262107Z 2621/2724 12005KT P6SM VCSH SCT006 BKN035 FM270600
                       20010G24KT 5SM -RA OVC020 FM271200 19012G20KT
                       6SM -RA BKN020 OVC030 FM272000 18010KT P6SM
                       -SHRA OVC050=
202410261739 TAF KSEA 261739Z 2618/2724 14010KT 6SM -SHRA BKN025 OVC040 FM262100
                       14008KT P6SM VCSH SCT020 BKN030 FM270600
                       20010G24KT 5SM -RA OVC020 FM271200 19012G20KT
                       6SM -RA BKN020 OVC030 FM272000 18010KT P6SM
                       -SHRA OVC050=
202410261609 KSEA 261609Z 2616/2718 17008KT P6SM -SHRA BKN025 OVC040 FM262000
                       14008KT P6SM VCSH BKN030 FM270800 20010G24KT
                       P6SM -RA OVC020 FM271200 19012G20KT 6SM
                       -RA BR OVC030=
202410261509 KSEA 261509Z 2615/2718 16005KT P6SM VCSH BKN018 OVC025 FM261700
                       15008KT P6SM VCSH BKN030 FM270800 20010G22KT
                       P6SM -RA OVC020 FM271200 19012G20KT P6SM
                       -RA OVC030=
202410261257 KSEA 261257Z 2613/2718 16005KT P6SM VCSH BKN018 OVC025 FM261700
                       15008KT P6SM VCSH BKN030 FM270800 20010G22KT
                       P6SM -RA OVC020 FM271200 19012G20KT P6SM
                       -RA OVC030=
202410261216 KSEA 261216Z 2612/2718 21007KT P6SM -RA BKN015 BKN025 OVC030 FM261300
                       16012G20KT P6SM VCSH SCT030 OVC040 FM261700
                       15008KT P6SM VCSH BKN030 FM270800 20007KT
                       P6SM -RA OVC020=
202410261140 TAF KSEA 261140Z 2612/2718 18012G25KT 6SM -RA BR FEW015 BKN027
                       OVC030 FM261300 16012G20KT P6SM VCSH SCT030
                       OVC040 FM261700 15008KT P6SM VCSH BKN030
                       FM270800 20007KT P6SM -RA OVC020=
202410260907 KSEA 260907Z 2609/2712 18014G26KT P6SM -RA SCT020 OVC035 FM261300
                       16007KT P6SM VCSH SCT030 OVC040 FM262200
                       18010G17KT P6SM VCSH SCT030 OVC050=
202410260538 TAF KSEA 260538Z 2606/2712 14006KT P6SM VCSH FEW050 OVC080 FM260800
                       14010KT P6SM VCSH SCT030 OVC040 FM260900
                       16010G17KT P6SM -RA SCT020 OVC030 FM261300
                       16007KT P6SM VCSH SCT030 OVC040 FM262200
                       18010G17KT P6SM VCSH SCT030 OVC050=
202410260259 KSEA 260259Z 2603/2706 12013KT P6SM SCT040 OVC080 FM260600 14006KT
                       P6SM VCSH SCT030 OVC040 FM260900 16010G17KT
                       P6SM -RA SCT020 OVC030 FM261300 16007KT
                       P6SM VCSH SCT030 OVC040 FM262200 18010G17KT
                       P6SM -RA SCT030 OVC050=
202410252321 TAF KSEA 252321Z 2600/2706 VRB03KT P6SM SCT160 BKN250 FM260300
                       10006KT P6SM SCT040 OVC080 FM260700 16010G17KT
                       P6SM -RA SCT020 OVC030 FM261300 16007KT
                       P6SM VCSH SCT030 OVC040 FM262200 18010G17KT
                       P6SM -RA SCT030 OVC050=
202410252109 KSEA 252109Z 2521/2624 29007KT P6SM SCT150 BKN200 FM252200 19006KT
                       P6SM BKN200 FM260300 10006KT P6SM SCT040
                       OVC080 FM260700 16010G17KT P6SM -SHRA SCT020
                       OVC030 FM261300 16007KT P6SM VCSH SCT030
                       OVC040 FM262200 18010G17KT P6SM -SHRA SCT030
                       OVC050=
202410251720 TAF KSEA 251720Z 2518/2624 01008KT P6SM SCT150 BKN200 FM252200
                       19006KT P6SM BKN200 FM260300 10006KT P6SM
                       SCT040 OVC080 FM260700 16010G17KT P6SM -SHRA
                       SCT020 OVC030 FM261300 16007KT P6SM VCSH
                       SCT030 OVC040 FM262200 18010G17KT P6SM -SHRA
                       SCT030 OVC050=
202410251503 KSEA 251503Z 2515/2618 02011KT P6SM BKN150 BKN230 FM251700 04008KT
                       P6SM SCT200 FM252200 02007KT P6SM BKN200
                       FM260000 10006KT P6SM OVC080 FM260600 13008KT
                       P6SM OVC060=
202410251353 KSEA 251353Z 2514/2618 02011KT P6SM BKN190 BKN230 FM251700 04008KT
                       P6SM SCT200 FM252200 02007KT P6SM BKN200
                       FM260000 10006KT P6SM OVC080 FM260600 13008KT
                       P6SM OVC060=
202410251120 TAF KSEA 251120Z 2512/2618 02011KT P6SM BKN160 BKN230 FM251700
                       04008KT P6SM SCT200 FM252200 02007KT P6SM
                       BKN200 FM260000 10006KT P6SM OVC080 FM260600
                       13008KT P6SM OVC060=
202410250858 KSEA 250858Z 2509/2612 02010KT P6SM FEW150 SCT250 FM251000 03008KT
                       P6SM BKN200 FM251700 04005KT P6SM SCT200
                       FM252200 02007KT P6SM BKN100 FM260000 10006KT
                       P6SM OVC080=
202410250520 TAF KSEA 250520Z 2506/2612 02010KT P6SM BKN200 FM251000 03008KT
                       P6SM BKN200 FM251700 04005KT P6SM SCT200
                       FM252200 02007KT P6SM BKN100 FM260000 10006KT
                       P6SM OVC080=
202410250301 KSEA 250301Z 2503/2606 35010KT P6SM SCT030 SCT200 FM250500 02007KT
                       P6SM BKN250 FM251000 03008KT P6SM BKN250
                       FM251700 04005KT P6SM SCT200 FM252200 02007KT
                       P6SM BKN100 FM260000 10006KT P6SM OVC080=
202410242320 TAF KSEA 242320Z 2500/2606 33010KT P6SM SCT030 SCT250 FM250300
                       02007KT P6SM BKN250 FM251000 03008KT P6SM
                       BKN250 FM251700 04005KT P6SM SCT200 FM252200
                       02007KT P6SM BKN100=
202410242050 KSEA 242050Z 2421/2524 33005KT P6SM SCT030 SCT250 FM250300 02007KT
                       P6SM BKN250 FM251000 03008KT P6SM BKN250
                       FM251700 04005KT P6SM SCT200=
202410241720 TAF KSEA 241720Z 2418/2524 22005KT P6SM BKN020 FM241900 33005KT
                       P6SM SCT030 SCT250 FM250300 02007KT P6SM
                       BKN250 FM251000 03008KT P6SM BKN250 FM251700
                       04005KT P6SM SCT200=
202410241503 KSEA 241503Z 2415/2518 15003KT P6SM OVC012
                      TEMPO 2415/2416 BKN007 FM241700 19005KT P6SM
                       BKN025 FM242000 33005KT P6SM SCT030 SCT250
                       FM250300 02007KT P6SM BKN250=
202410241353 KSEA 241353Z 2414/2518 15003KT P6SM OVC012
                      TEMPO 2414/2415 -DZ BKN008 FM241700 19005KT
                       P6SM BKN025 FM242000 33005KT P6SM SCT030
                       SCT250 FM250300 02007KT P6SM BKN250=
202410241120 TAF KSEA 241120Z 2412/2518 15003KT P6SM OVC012 FM241700 19005KT
                       P6SM BKN025 FM242000 33005KT P6SM SCT030
                       SCT250 FM250300 02007KT P6SM BKN250=
202410240856 KSEA 240856Z 2409/2512 17004KT P6SM OVC015 FM241200 15003KT P6SM
                       BKN015 FM241700 19005KT P6SM BKN025 FM241900
                       33005KT P6SM SCT030 SCT250 FM250300 02007KT
                       P6SM BKN250=
202410240520 TAF KSEA 240520Z 2406/2512 16005KT P6SM BKN060 FM240800 17004KT
                       P6SM OVC050 FM241200 15003KT P6SM BKN015
                       FM241700 19005KT P6SM BKN025 FM241900 33005KT
                       P6SM SCT030 SCT250 FM250300 02007KT P6SM
                       BKN250=
202410240301 KSEA 240301Z 2403/2506 16005KT P6SM SCT030 BKN060 FM240700 17004KT
                       P6SM OVC050 FM241200 15003KT P6SM BKN015
                       FM241700 19005KT P6SM BKN025 FM241900 33005KT
                       P6SM SCT030 BKN250=
202410232329 TAF KSEA 232329Z 2400/2506 20005KT P6SM SCT020 SCT070 FM240700
                       17004KT P6SM OVC050 FM241200 15003KT P6SM
                       BKN015 FM241700 19005KT P6SM BKN020 FM241900
                       33005KT P6SM SCT020 BKN250=
202410232111 KSEA 232111Z 2321/2424 23005KT P6SM BKN040 FM240700 17003KT P6SM
                       OVC050 FM241200 VRB02KT P6SM BKN015 FM241700
                       19005KT P6SM BKN020=
202410231937 KSEA 231937Z 2320/2424 19005KT P6SM BKN007 BKN025 FM232100 23005KT
                       P6SM BKN045 FM240700 17003KT P6SM OVC050
                       FM241200 VRB02KT P6SM BKN015 FM241700 19005KT
                       P6SM BKN020=
202410231722 TAF KSEA 231722Z 2318/2424 15004KT P6SM OVC007 FM231900 19005KT
                       P6SM BKN020 FM232100 23005KT P6SM BKN045
                       FM240700 17003KT P6SM OVC050 FM241200 VRB02KT
                       P6SM BKN015 FM241700 19005KT P6SM BKN020=
202410231433 KSEA 231433Z 2315/2418 15004KT P6SM OVC007 FM231900 19005KT P6SM
                       BKN020 FM232100 23005KT P6SM BKN045 FM240700
                       17003KT P6SM BKN015 FM241700 19005KT P6SM
                       BKN020=
202410231132 TAF KSEA 231132Z 2312/2418 08003KT P6SM BKN007 FM231500 18004KT
                       P6SM OVC007 FM231900 19005KT P6SM BKN020
                       FM232100 23005KT P6SM BKN045 FM240700 17003KT
                       P6SM BKN015 FM241700 19005KT P6SM BKN020=
202410230951 KSEA 230951Z 2310/2412 08003KT P6SM BKN007 FM231500 18004KT 1SM
                       BR OVC007 FM231900 19005KT P6SM BKN020 FM232100
                       23005KT P6SM BKN045 FM240700 17005KT P6SM
                       BKN027=
202410230911 KSEA 230911Z 2309/2412 06005KT P6SM FEW035 FM231015 16003KT P6SM
                       OVC007 FM231500 18004KT 1SM BR OVC007 FM231900
                       19005KT P6SM BKN020 FM232100 23005KT P6SM
                       BKN045 FM240700 17005KT P6SM BKN027=
202410230904 KSEA 230904Z 2309/2412 06005KT P6SM FEW035 FM231200 16003KT P6SM
                       OVC015 FM231500 18004KT 1SM BR OVC007 FM231900
                       19005KT P6SM BKN020 FM232100 23005KT P6SM
                       BKN045 FM240700 17005KT P6SM BKN027=
202410230520 TAF KSEA 230520Z 2306/2412 36008KT P6SM FEW035 FM231200 16003KT
                       P6SM OVC015 FM231500 18004KT 1SM BR OVC007
                       FM231900 19005KT P6SM BKN020 FM232100 23005KT
                       P6SM BKN045 FM240700 17005KT P6SM BKN027=
202410230249 KSEA 230249Z 2303/2406 36008KT P6SM FEW035 FM231200 16003KT P6SM
                       OVC015 FM231500 18004KT P6SM OVC007 FM231900
                       19005KT P6SM BKN020 FM232100 23005KT P6SM
                       BKN035=
202410222330 TAF KSEA 222330Z 2300/2406 32006KT P6SM SCT035 FM231200 16003KT
                       P6SM OVC015 FM231500 18004KT P6SM OVC007
                       FM231900 19005KT P6SM BKN020 FM232100 23005KT
                       P6SM BKN035=
202410222102 KSEA 222102Z 2221/2324 30006KT P6SM SCT035 FM231200 16003KT P6SM
                       OVC015 FM231500 18004KT P6SM OVC007 FM231800
                       19005KT P6SM BKN020=
202410221735 TAF KSEA 221735Z 2218/2324 14007KT P6SM FEW025 BKN045 FM221900
                       34005KT P6SM FEW050 SCT250 FM231200 16003KT
                       P6SM OVC015 FM231500 18004KT P6SM OVC007
                       FM231800 19005KT P6SM BKN020=
202410221505 KSEA 221505Z 2215/2318 18007KT P6SM FEW025 BKN040 FM221900 27004KT
                       P6SM BKN045 FM222100 34005KT P6SM SCT250
                       FM231100 16003KT P6SM OVC015 FM231500 18004KT
                       P6SM OVC007=
202410221125 TAF KSEA 221125Z 2212/2318 18005KT P6SM BKN040 FM221900 27004KT
                       P6SM BKN045 FM222100 34005KT P6SM SCT250
                       FM231100 16003KT P6SM OVC015 FM231500 18004KT
                       P6SM OVC007=
202410220930 KSEA 220930Z 2210/2312 18005KT P6SM FEW025 FM221900 27004KT P6SM
                       BKN035 FM222100 34005KT P6SM SCT250=
202410220532 KSEA 220532Z 2206/2312 20010KT P6SM VCSH BKN029 FM220900 18005KT
                       P6SM OVC025 FM221900 27004KT P6SM BKN035
                       FM222100 34005KT P6SM SCT250=
202410220520 TAF KSEA 220520Z 2206/2312 20012KT P6SM VCSH SCT030 BKN040 FM220900
                       18005KT P6SM OVC025 FM221900 27004KT P6SM
                       BKN035 FM222100 34005KT P6SM SCT250=
202410220359 KSEA 220359Z 2204/2306 22012KT P6SM -SHRA SCT030 BKN035 FM220900
                       18005KT P6SM VCSH OVC020 FM221300 17004KT
                       P6SM VCSH OVC010 FM221900 27004KT P6SM BKN035
                       FM222100 31005KT P6SM SCT250=
202410220250 KSEA 220250Z 2203/2306 22007KT P6SM -SHRA BKN025 BKN035 FM220900
                       18005KT P6SM VCSH OVC020 FM221300 17004KT
                       P6SM VCSH OVC010 FM221900 27004KT P6SM BKN035
                       FM222100 31005KT P6SM SCT250=
202410220139 KSEA 220139Z 2202/2306 22007KT P6SM -SHRA BKN025 BKN035
                      TEMPO 2202/2203 2SM +RA FM220900 18005KT
                       P6SM VCSH OVC020 FM221300 17004KT P6SM VCSH
                       OVC010 FM221900 27004KT P6SM BKN035 FM222100
                       31005KT P6SM SCT250=
202410212320 TAF KSEA 212320Z 2200/2306 20003KT P6SM -SHRA FEW015 BKN040 BKN100
                       FM220200 22007KT P6SM -SHRA BKN025 BKN035
                       FM220900 18005KT P6SM VCSH OVC020 FM221300
                       17004KT P6SM VCSH OVC010 FM221900 27004KT
                       P6SM BKN035 FM222100 31005KT P6SM SCT250=
202410212142 KSEA 212142Z 2122/2224 24003KT P6SM -SHRA SCT015 BKN035 OVC050
                       TEMPO 2122/2123 3SM -RA BR FM220200 22007KT
                       P6SM -SHRA OVC025 FM220900 18005KT P6SM
                       VCSH OVC014 FM221300 17004KT P6SM VCSH OVC010
                       FM221900 27004KT P6SM BKN035=
202410212129 KSEA 212129Z 2121/2224 24003KT P6SM -SHRA SCT015 BKN035 OVC050
                       FM220200 22007KT P6SM -SHRA OVC025 FM220900
                       18005KT P6SM VCSH OVC014 FM221300 17004KT
                       P6SM VCSH OVC010 FM221900 27004KT P6SM BKN035=
202410212059 KSEA 212059Z 2121/2224 24003KT P6SM -SHRA SCT015 BKN035 OVC050
                       FM220200 22007KT P6SM -SHRA OVC025 FM220900
                       18005KT P6SM VCSH OVC014 FM221300 17004KT
                       P6SM VCSH OVC010=
202410211721 TAF KSEA 211721Z 2118/2224 19004KT P6SM SCT015 BKN025 OVC100 FM212000
                       19007KT P6SM -SHRA OVC035 FM220200 22007KT
                       P6SM -SHRA OVC025 FM220900 18005KT P6SM
                       VCSH OVC014 FM221300 17004KT P6SM VCSH OVC010=
202410211502 KSEA 211502Z 2115/2218 17004KT P6SM SCT015 BKN025 OVC100 FM212000
                       19007KT P6SM -SHRA OVC035 FM220200 22007KT
                       P6SM -SHRA OVC025 FM220900 18005KT P6SM
                       VCSH OVC014=
202410211125 TAF KSEA 211125Z 2112/2218 VRB04KT P6SM BKN015 OVC025 FM212000
                       19007KT P6SM -SHRA OVC035 FM220200 22007KT
                       P6SM -SHRA OVC025 FM220900 18005KT P6SM
                       VCSH OVC014=
202410210940 KSEA 210940Z 2110/2212 VRB03KT P6SM BKN015 BKN025 FM211200 18006KT
                       P6SM VCSH SCT020 BKN040 FM212100 19009KT
                       P6SM -SHRA OVC035 FM220200 22006KT P6SM
                       VCSH OVC025 FM220900 20005KT P6SM OVC014=
202410210520 TAF KSEA 210520Z 2106/2212 24010KT P6SM BKN013 OVC024 FM210800
                       22005KT P6SM SCT012 BKN025 FM211200 18006KT
                       P6SM VCSH SCT020 BKN040 FM212100 19009KT
                       P6SM -SHRA OVC035 FM220200 22006KT P6SM
                       VCSH OVC025 FM220900 20005KT P6SM OVC014=
202410210257 KSEA 210257Z 2103/2206 24010KT P6SM SCT012 BKN050 FM210700 22010KT
                       P6SM SCT025 OVC035 FM211200 18006KT P6SM
                       VCSH SCT020 BKN040 FM212100 19009KT P6SM
                       -SHRA OVC035=
202410210120 KSEA 210120Z 2101/2206 21010G20KT P6SM FEW008 BKN012 OVC050 FM210300
                       22010KT P6SM BKN035 FM210700 22010KT P6SM
                       SCT025 OVC035 FM211200 18006KT P6SM VCSH
                       SCT020 BKN040 FM212100 19009KT P6SM -SHRA
                       OVC035=
202410210023 KSEA 210023Z 2100/2206 21015G25KT P6SM -RA BKN035 OVC050
                      TEMPO 2100/2102 5SM BR BKN007 FM210300 22010G20KT
                       P6SM BKN035 FM210700 22010KT P6SM SCT025
                       OVC035 FM211200 18006KT P6SM VCSH SCT020
                       BKN040 FM212100 19009KT P6SM -SHRA OVC035=
202410202322 TAF KSEA 202322Z 2100/2206 21015G30KT P6SM -RA BKN035 OVC050 FM210300
                       22010G20KT P6SM BKN035 FM210700 22010KT
                       P6SM SCT025 OVC035 FM211200 18006KT P6SM
                       VCSH SCT020 BKN040 FM212100 19009KT P6SM
                       -SHRA OVC035=
202410202059 KSEA 202059Z 2021/2124 19018G33KT P6SM SCT035 BKN050 BKN150 FM202200
                       19020G30KT P6SM -RA OVC030 FM210300 22010G20KT
                       P6SM BKN035 FM210700 22010KT P6SM OVC025
                       FM211200 18006KT P6SM OVC020=
202410201723 TAF KSEA 201723Z 2018/2124 21010G20KT P6SM FEW060 BKN200 FM202100
                       19020G30KT P6SM -RA OVC025 FM210300 22010G20KT
                       P6SM BKN035 FM210700 22010KT P6SM OVC025
                       FM211200 18006KT P6SM OVC020=
202410201414 KSEA 201414Z 2014/2118 19006KT P6SM OVC040 FM201600 17009KT P6SM
                       OVC035 FM201800 17010G20KT P6SM BKN050 FM202100
                       19020G30KT P6SM -RA OVC025 FM210300 22010G20KT
                       P6SM OVC035 FM210500 22010KT P6SM OVC025=
202410201125 TAF KSEA 201125Z 2012/2118 19008KT P6SM OVC035 FM201600 17009KT
                       P6SM OVC035 FM201800 17010G20KT P6SM BKN050
                       FM202100 19020G30KT P6SM -RA OVC040 FM210300
                       22010G20KT P6SM OVC035 FM210500 22010KT
                       P6SM OVC025=
202410200851 KSEA 200851Z 2009/2112 19010KT P6SM OVC035 FM201600 17009KT P6SM
                       OVC035 FM201800 17010G20KT P6SM BKN050 FM202100
                       19020G30KT P6SM -RA OVC040 FM210300 22010G20KT
                       P6SM OVC035 FM210500 20010KT P6SM OVC028=
202410200535 TAF KSEA 200535Z 2006/2112 18012KT P6SM VCSH SCT015 SCT025 OVC030
                       FM200900 20007KT P6SM BKN018 OVC022 FM201600
                       17009KT P6SM OVC035 FM201800 17010G20KT
                       P6SM BKN050 FM202100 19020G30KT P6SM -RA
                       OVC040 FM210300 22010G20KT P6SM OVC035 FM210500
                       20010KT P6SM OVC028=
202410200300 KSEA 200300Z 2003/2106 20015KT 4SM -RA BR SCT015 OVC027 FM200900
                       20007KT P6SM BKN018 OVC022 FM201600 17009KT
                       P6SM OVC035 FM202100 19015G25KT P6SM OVC040=
202410192358 KSEA 192358Z 2000/2106 21010G25KT 4SM -RA BR BKN030 OVC040 FM200300
                       20015KT P6SM -RA BKN022 OVC027 FM200900
                       20007KT P6SM BKN018 OVC022 FM201600 17009KT
                       P6SM OVC035 FM202100 19015G25KT P6SM OVC040=
202410192322 TAF KSEA 192322Z 2000/2106 21010G25KT P6SM BKN030 OVC050 FM200300
                       20015KT P6SM -RA BKN022 OVC027 FM200900
                       20007KT P6SM BKN018 OVC022 FM201600 17009KT
                       P6SM OVC035 FM202100 19015G25KT P6SM OVC040=
202410192057 KSEA 192057Z 1921/2024 19010G25KT P6SM BKN035 BKN060 OVC120 FM200300
                       20010G20KT P6SM -RA BKN022 OVC027 FM200900
                       20007KT P6SM BKN018 OVC022 FM201600 17009KT
                       P6SM OVC035 FM202100 19015G25KT P6SM OVC040=
202410191720 TAF KSEA 191720Z 1918/2024 18020G25KT P6SM SCT025 SCT060 BKN160
                       FM192100 19010G20KT P6SM VCSH BKN035 FM200300
                       20010G20KT P6SM -RA BKN022 OVC027 FM200900
                       20007KT P6SM BKN018 OVC022 FM201600 17009KT
                       P6SM OVC035=
202410191503 KSEA 191503Z 1915/2018 18020G25KT P6SM SCT025 SCT060 BKN170 FM192100
                       19010G20KT P6SM VCSH BKN035 FM200300 20010G20KT
                       P6SM -RA BKN022 OVC027 FM200900 20007KT
                       P6SM BKN018 OVC022=
202410191126 TAF KSEA 191126Z 1912/2018 18010KT P6SM FEW015 OVC020 FM191500
                       18010G20KT P6SM BKN015 OVC030 FM192100 19010G20KT
                       P6SM VCSH OVC035 FM200300 20010G20KT P6SM
                       -RA BKN022 OVC027 FM200900 20007KT P6SM
                       BKN018 OVC022=
202410190854 KSEA 190854Z 1909/2012 18015G25KT P6SM -RA SCT008 BKN019 OVC027
                       FM191500 18010G20KT P6SM BKN015 OVC030 FM192100
                       19010G20KT P6SM VCSH OVC035 FM200300 20010G20KT
                       P6SM -RA BKN022 OVC027 FM200900 20007G15KT
                       P6SM BKN018 OVC022=
202410190757 KSEA 190757Z 1908/2012 18015G25KT P6SM -RA BKN008 BKN014 OVC022
                       FM191500 18010G20KT P6SM BKN015 OVC030 FM192100
                       19010G20KT P6SM VCSH OVC035 FM200300 20010G20KT
                       P6SM -RA BKN022 OVC027 FM200900 20007G15KT
                       P6SM BKN018 OVC022=
202410190633 KSEA 190633Z 1907/2012 18015G25KT P6SM -RA SCT009 SCT014 OVC022
                       FM191500 18010G20KT P6SM BKN015 OVC030 FM192100
                       19010G20KT P6SM VCSH OVC035 FM200300 20010G20KT
                       P6SM -RA BKN022 OVC027 FM200900 20007G15KT
                       P6SM BKN018 OVC022=
202410190533 TAF KSEA 190533Z 1906/2012 18015G25KT P6SM -RA BKN006 BKN012 OVC020
                       FM191500 18010G20KT P6SM BKN015 OVC030 FM192100
                       19010G20KT P6SM VCSH OVC035 FM200300 20010G20KT
                       P6SM -RA BKN022 OVC027 FM200900 20007G15KT
                       P6SM BKN018 OVC022=
202410190258 KSEA 190258Z 1903/2006 17009KT P6SM -RA FEW020 OVC030 WS020/20040KT
                       FM190500 18015G25KT P6SM SCT011 BKN020 OVC030
                       FM191500 18010KT P6SM BKN020 OVC030 FM192100
                       19010KT P6SM OVC035=
202410190208 KSEA 190208Z 1902/2006 17009KT P6SM VCSH FEW020 OVC030 WS020/20040KT
                       FM190500 18015G25KT P6SM SCT011 BKN020 OVC030
                       FM191500 18010KT P6SM BKN020 OVC030 FM192100
                       19010KT P6SM OVC035=
202410182320 TAF KSEA 182320Z 1900/2006 17009KT P6SM FEW020 BKN050 OVC100 WS020/20040KT
                       FM190500 18015G25KT P6SM SCT011 BKN020 OVC030
                       FM191500 18010KT P6SM BKN020 OVC030 FM192100
                       19010KT P6SM OVC035=
202410182113 KSEA 182113Z 1821/1924 18011KT P6SM -SHRA FEW015 SCT035 OVC050
                       FM190500 18015G25KT P6SM SCT011 BKN020 OVC030
                       FM191500 18010KT P6SM BKN020 OVC030=
202410181720 TAF KSEA 181720Z 1818/1924 16009KT P6SM BKN040 OVC090 FM182000
                       18012G18KT P6SM -RA OVC050 FM190500 18015G25KT
                       P6SM SCT011 BKN020 OVC030 FM191500 18010KT
                       P6SM BKN020 OVC030=
202410181459 KSEA 181459Z 1815/1918 14008KT P6SM FEW015 FEW060 BKN200 FM181700
                       16008KT P6SM OVC060 FM182000 18012G18KT
                       P6SM -RA OVC050 FM190500 18012KT P6SM SCT011
                       BKN020 OVC030=
202410181137 TAF KSEA 181137Z 1812/1918 16006KT P6SM SCT060 BKN200 FM181700
                       16008KT P6SM OVC060 FM182000 18012G18KT
                       P6SM -RA OVC050 FM190500 18012KT P6SM SCT011
                       BKN020 OVC030=
202410180906 KSEA 180906Z 1809/1912 16006KT P6SM BKN060 OVC200 FM181200 16006KT
                       P6SM SCT060 BKN200 FM181700 18008KT P6SM
                       OVC060 FM181900 18010G18KT P6SM -RA OVC050
                       TEMPO 1823/1902 5SM -SHRA BR FM190500 20008KT
                       P6SM -SHRA BKN025 OVC050=
202410180520 TAF KSEA 180520Z 1806/1912 00000KT P6SM BKN060 BKN100 FM181000
                       16005KT P6SM BKN100 FM181700 18007KT P6SM
                       OVC060 FM181900 18010G18KT P6SM -RA OVC050
                       TEMPO 1823/1902 5SM -SHRA BR FM190500 20008KT
                       P6SM -SHRA BKN025 OVC050=
202410172334 TAF KSEA 172334Z 1800/1906 30005KT P6SM FEW025 BKN050 FM180500
                       14006KT P6SM BKN050 BKN100 FM181000 16005KT
                       P6SM BKN100 FM181700 18007KT P6SM OVC060
                       FM181900 18010G18KT P6SM -RA OVC050=
202410172103 KSEA 172103Z 1721/1824 33006KT P6SM VCSH SCT030 BKN040 FM172200
                       32006KT P6SM BKN050 FM180500 16006KT P6SM
                       BKN050 BKN100 FM181000 16005KT P6SM BKN100=
202410171904 KSEA 171904Z 1719/1824 20006KT P6SM SCT015 OVC025 FM171930 30007KT
                       P6SM -SHRA SCT020 BKN025 FM172200 32006KT
                       P6SM BKN050 FM180500 16006KT P6SM BKN050
                       BKN100 FM181000 16005KT P6SM BKN100=
202410171729 TAF KSEA 171729Z 1718/1824 20006KT P6SM SCT015 OVC025 FM172000
                       23006KT P6SM SCT030 BKN050 FM172200 32006KT
                       P6SM BKN050 FM180500 16006KT P6SM BKN050
                       BKN100 FM181000 16005KT P6SM BKN100=
202410171605 KSEA 171605Z 1716/1818 19006KT P6SM BKN020 OVC025 FM171900 23006KT
                       P6SM SCT030 BKN050 FM172200 32006KT P6SM
                       BKN050 FM180500 16006KT P6SM BKN050 BKN100=
202410171504 KSEA 171504Z 1715/1818 17006KT P6SM BKN015 OVC025 FM171800 23006KT
                       P6SM SCT030 BKN050 FM180100 32006KT P6SM
                       BKN050 FM180500 16006KT P6SM SCT050 BKN100=
202410171130 TAF KSEA 171130Z 1712/1818 18008KT P6SM BKN015 OVC025 FM171800
                       23006KT P6SM SCT030 BKN050 FM180100 32006KT
                       P6SM BKN050 FM180500 16006KT P6SM SCT050
                       BKN100=
202410170945 KSEA 170945Z 1710/1812 18008KT P6SM BKN015 OVC025 FM171800 24007KT
                       P6SM OVC030 FM172100 24005KT P6SM BKN040
                       FM180100 VRB03KT P6SM SCT040 BKN070=
202410170520 TAF KSEA 170520Z 1706/1812 22010KT P6SM SCT040 BKN080 FM170700
                       19008KT P6SM SCT030 OVC050 FM171200 16006KT
                       P6SM SCT015 OVC025 FM171800 24007KT P6SM
                       OVC030 FM172100 24005KT P6SM BKN040 FM180100
                       VRB03KT P6SM SCT040 BKN070=
202410170257 KSEA 170257Z 1703/1806 22010KT P6SM SCT040 SCT090 FM170600 19008KT
                       P6SM -SHRA SCT030 OVC050 FM171200 16006KT
                       P6SM SCT012 OVC020 FM171800 24007KT P6SM
                       OVC025 FM172100 24005KT P6SM BKN035 FM180100
                       VRB03KT P6SM SCT040 BKN070=
202410162339 TAF KSEA 162339Z 1700/1806 20012G20KT P6SM SCT060 SCT090 FM170300
                       19008KT P6SM -SHRA SCT030 OVC050 FM171200
                       16006KT P6SM SCT012 OVC020 FM171800 24007KT
                       P6SM OVC025 FM172100 24005KT P6SM BKN035=
202410162051 KSEA 162051Z 1621/1724 20012G20KT P6SM SCT030 BKN060 FM170200 19008KT
                       P6SM -SHRA SCT030 OVC050 FM171200 16006KT
                       P6SM SCT012 OVC020 FM171800 24007KT P6SM
                       OVC025 FM172100 24005KT P6SM BKN035=
202410161739 TAF KSEA 161739Z 1618/1724 20012G20KT P6SM -SHRA SCT015 OVC040
                       FM162000 20012G20KT P6SM SCT025 BKN040 OVC060
                       FM170200 19008KT P6SM -SHRA SCT030 OVC050
                       FM171200 16006KT P6SM SCT012 OVC020 FM171800
                       24007KT P6SM OVC025 FM172100 24005KT P6SM
                       BKN035=
202410161610 KSEA 161610Z 1616/1718 20012KT P6SM -SHRA SCT006 OVC045 FM162000
                       20012G20KT P6SM SCT025 BKN040 OVC060 FM170200
                       19008KT P6SM SCT030 OVC050 FM171200 16006KT
                       P6SM SCT012 OVC020=
202410161506 KSEA 161506Z 1615/1718 20012KT P6SM SCT009 BKN060 OVC080 FM161600
                       20012KT P6SM -SHRA SCT006 BKN022 OVC045
                       FM162000 20012G20KT P6SM SCT025 BKN040 OVC060
                       FM170200 19008KT P6SM SCT030 OVC050 FM171200
                       16006KT P6SM SCT012 OVC020=
202410161403 KSEA 161403Z 1614/1718 20012KT P6SM SCT006 BKN050 OVC080 FM161600
                       20012KT P6SM -SHRA SCT006 BKN022 OVC045
                       FM162000 20012KT P6SM SCT025 BKN040 OVC060
                       FM170200 19008KT P6SM SCT030 OVC050 FM171200
                       16008KT P6SM SCT012 OVC020=
202410161139 TAF KSEA 161139Z 1612/1718 18008KT P6SM BKN004 OVC015 FM161500
                       20008KT P6SM -SHRA SCT006 OVC015 FM161900
                       20012KT P6SM -SHRA SCT015 BKN025 OVC040
                       FM162100 20012KT P6SM SCT025 BKN040 OVC060
                       FM170200 19008KT P6SM SCT030 OVC050 FM171200
                       16008KT P6SM SCT012 OVC020=
202410160925 KSEA 160925Z 1609/1712 18008KT P6SM -RA BKN040 OVC060 FM161000
                       18008KT P6SM -RA OVC020 FM161500 20009KT
                       P6SM -SHRA OVC020 FM161900 20012KT P6SM
                       -SHRA OVC040 FM170200 19008KT P6SM -RA OVC030=
202410160522 TAF KSEA 160522Z 1606/1712 23005KT P6SM SCT010 OVC040 FM161000
                       18006KT P6SM -RA OVC020 FM161500 20009KT
                       P6SM -SHRA OVC020 FM161900 20012KT P6SM
                       -SHRA OVC040 FM170200 19008KT P6SM -RA OVC030=
202410160305 KSEA 160305Z 1603/1706 23005KT P6SM SCT010 OVC040 FM161000 18006KT
                       P6SM -RA OVC020 FM161500 20009KT P6SM -SHRA
                       OVC020 FM161900 20012KT P6SM -SHRA OVC040=
202410152340 TAF KSEA 152340Z 1600/1706 23005KT P6SM FEW015 OVC035 FM161000
                       18006KT P6SM -RA OVC020 FM161500 20010KT
                       P6SM -SHRA OVC020 FM161900 20012KT P6SM
                       -SHRA OVC040=
202410152057 KSEA 152057Z 1521/1624 25005KT P6SM BKN020 OVC040 FM152300 23005KT
                       P6SM SCT035 OVC060 FM161300 18006KT P6SM
                       -RA OVC020 FM161900 20008KT P6SM -SHRA OVC040=
202410151724 TAF KSEA 151724Z 1518/1624 02008KT P6SM SCT009 BKN025 OVC035 FM151900
                       VRB04KT P6SM BKN020 OVC040 FM152300 23005KT
                       P6SM SCT035 OVC060 FM161300 18006KT P6SM
                       -RA OVC020 FM161800 20008KT P6SM -SHRA OVC040=
202410151608 KSEA 151608Z 1516/1618 02008KT P6SM SCT009 BKN025 OVC035 FM151900
                       VRB04KT P6SM BKN020 OVC040 FM152300 23005KT
                       P6SM SCT035 OVC060 FM161300 18006KT P6SM
                       -RA OVC020=
202410151501 KSEA 151501Z 1515/1618 36006KT P6SM SCT009 BKN020 OVC050 FM151700
                       VRB03KT P6SM SCT020 BKN040 OVC060 FM152300
                       21004KT P6SM SCT035 OVC060 FM161300 18006KT
                       P6SM OVC022=
202410151401 KSEA 151401Z 1514/1618 33004KT P6SM SCT008 BKN020 OVC035 FM151700
                       VRB03KT P6SM SCT020 BKN040 OVC060 FM152100
                       21004KT P6SM SCT035 OVC060 FM161300 18006KT
                       P6SM OVC022=
202410151139 TAF KSEA 151139Z 1512/1618 03004KT P6SM OVC003
                      TEMPO 1514/1517 3SM BR FM151800 VRB03KT P6SM
                       OVC008 FM152100 23004KT P6SM SCT008 BKN015
                       OVC025 FM152300 21004KT P6SM SCT015 OVC025
                       FM160200 18004KT P6SM SCT030 OVC045 FM161300
                       18006KT P6SM OVC022=
202410150701 KSEA 150701Z 1507/1612 VRB03KT P6SM OVC004 FM151200 06004KT 4SM
                       BR VCSH OVC004 FM151800 28004KT 4SM BR OVC010
                       FM152100 25003KT P6SM SCT015 OVC030 FM160000
                       18005KT P6SM VCSH OVC030=
202410150521 TAF KSEA 150521Z 1506/1612 VRB04KT P6SM VCSH SCT015 OVC035 FM150800
                       35006KT 5SM BR BKN007 OVC015 FM151200 06004KT
                       4SM BR VCSH OVC007 FM151800 28004KT 4SM
                       BR OVC010 FM152100 25003KT P6SM SCT015 OVC030
                       FM160000 18005KT P6SM VCSH OVC030=
202410150259 KSEA 150259Z 1503/1606 VRB04KT P6SM VCSH FEW015 OVC040 FM150800
                       35006KT 5SM BR BKN007 OVC015 FM151200 06004KT
                       4SM BR VCSH OVC007 FM151800 28004KT 4SM
                       BR OVC010 FM152100 25003KT P6SM SCT015 OVC030
                       FM160000 18005KT P6SM OVC030=
202410142320 TAF KSEA 142320Z 1500/1606 25006KT P6SM BKN030 OVC035 FM150200
                       23005KT P6SM VCSH FEW010 OVC035 FM150800
                       35006KT 5SM BR BKN007 OVC015 FM151200 06004KT
                       4SM BR VCSH OVC007 FM151800 28004KT 4SM
                       BR OVC010=
202410142058 KSEA 142058Z 1421/1524 25006KT P6SM FEW025 OVC035 FM150200 23005KT
                       P6SM VCSH FEW010 OVC035 FM150800 35006KT
                       5SM BR BKN007 OVC015 FM151200 06004KT 4SM
                       BR VCSH OVC007 FM151800 28004KT 4SM BR VCSH
                       OVC010=
202410141720 TAF KSEA 141720Z 1418/1524 14006KT P6SM FEW040 FEW080 SCT140 FM142100
                       21008KT P6SM -RA BKN025 OVC035 FM150200
                       23005KT P6SM VCSH FEW010 OVC015 FM150800
                       35006KT 5SM BR BKN007 OVC015 FM151200 06004KT
                       4SM BR VCSH OVC007=
202410141501 KSEA 141501Z 1415/1518 14006KT P6SM FEW010 FEW050 BKN250 FM141700
                       19008KT P6SM OVC040 FM142100 21008KT P6SM
                       -RA BKN025 OVC035 FM150200 23005KT P6SM
                       VCSH FEW010 OVC015 FM150800 02005KT 5SM
                       BR BKN007 OVC015 FM151200 35004KT 4SM BR
                       VCSH OVC007=
202410141346 KSEA 141346Z 1414/1518 18006KT P6SM FEW010 BKN050 BKN250 FM141700
                       19008KT P6SM BKN050 OVC070 FM142100 21008KT
                       P6SM -RA BKN025 OVC035 FM150200 23005KT
                       P6SM VCSH FEW010 OVC015 FM150800 02005KT
                       5SM BR BKN007 OVC015 FM151200 35004KT 4SM
                       BR VCSH OVC007=
202410141136 TAF KSEA 141136Z 1412/1518 16007KT P6SM BKN250 FM141400 18006KT
                       P6SM SCT010 BKN120 FM141700 19008KT P6SM
                       BKN050 OVC070 FM142100 21008KT P6SM -RA
                       BKN025 OVC035 FM150200 23005KT P6SM VCSH
                       FEW010 OVC015 FM150800 02005KT 5SM BR BKN007
                       OVC015 FM151200 35004KT 4SM BR VCSH OVC007=
202410140909 KSEA 140909Z 1409/1512 17005KT P6SM BKN250 FM141300 18006KT P6SM
                       SCT015 BKN020 OVC050 FM141600 19006KT P6SM
                       BKN035 OVC050 FM142000 20009KT P6SM -RA
                       BKN025 OVC035 FM150200 23005KT P6SM VCSH
                       FEW010 OVC020 FM150900 VRB04KT 5SM BR BKN007
                       OVC015=
202410140526 TAF KSEA 140526Z 1406/1512 17005KT P6SM BKN250 FM141200 18006KT
                       P6SM SCT015 BKN025 OVC050 FM141700 19006KT
                       P6SM BKN035 OVC050 FM142000 20009KT P6SM
                       -RA BKN025 OVC035 FM150200 23005KT P6SM
                       VCSH FEW010 OVC020 FM150900 VRB04KT 5SM
                       BR BKN007 OVC015=
202410140306 KSEA 140306Z 1403/1506 17005KT P6SM BKN250 FM141200 18006KT P6SM
                       OVC015 FM141800 19006KT 6SM -RA OVC020 FM142000
                       20006KT P6SM OVC025
                      PROB30 1420/1422 -RA OVC015 FM150100 24005KT
                       P6SM VCSH OVC015=
202410132320 TAF KSEA 132320Z 1400/1506 28004KT P6SM FEW080 BKN250 FM140300
                       23005KT P6SM BKN250 FM141200 18006KT P6SM
                       OVC015 FM141800 19006KT 6SM -RA OVC010 FM142000
                       20006KT P6SM OVC010
                      PROB30 1420/1422 -RA=
202410132056 KSEA 132056Z 1321/1424 22004KT P6SM FEW140 BKN250 FM140300 17005KT
                       P6SM BKN250 FM141200 18006KT P6SM OVC015
                       FM141800 19006KT 6SM -RA OVC010=
202410131720 TAF KSEA 131720Z 1318/1424 VRB05KT P6SM BKN210 FM132000 22004KT
                       P6SM BKN250 FM140300 17005KT P6SM BKN250
                       FM141200 18006KT P6SM OVC015 FM141800 19006KT
                       6SM -RA OVC010=
202410131501 KSEA 131501Z 1315/1418 16004KT P6SM SCT250 FM132000 22004KT P6SM
                       BKN250 FM140300 17005KT P6SM BKN250 FM141200
                       18006KT P6SM OVC035=
202410131319 KSEA 131319Z 1313/1418 23004KT P6SM SCT250
                      TEMPO 1315/1317 2SM BR BKN007 FM132000 22004KT
                       P6SM BKN250 FM140300 17005KT P6SM BKN250
                       FM141200 18006KT P6SM BKN007 OVC015=
202410131132 TAF KSEA 131132Z 1312/1418 15005KT P6SM SCT250
                      TEMPO 1313/1317 2SM BR BKN002 FM132000 23004KT
                       P6SM BKN250 FM140300 17005KT P6SM BKN250
                       FM141200 18006KT P6SM BKN007 OVC015=
202410130907 KSEA 130907Z 1309/1412 16007KT P6SM FEW250 FM131100 16004KT P6SM
                       SCT005 SCT250
                      TEMPO 1312/1316 1/4SM FG OVC002 FM131600
                       18003KT 6SM BR SCT005 SCT250
                      TEMPO 1316/1319 2SM BR OVC004 FM131900 20003KT
                       P6SM SCT005 BKN250 FM132200 23004KT P6SM
                       BKN250 FM140200 16003KT P6SM BKN250=
202410130523 TAF KSEA 130523Z 1306/1412 19004KT P6SM FEW250 FM131100 16004KT
                       P6SM SCT005 SCT250
                      TEMPO 1312/1316 1/4SM FG OVC002 FM131600
                       18003KT 6SM BR SCT005 SCT250
                      TEMPO 1316/1319 2SM BR OVC004 FM131900 20003KT
                       P6SM SCT005 BKN250 FM132200 23004KT P6SM
                       BKN250 FM140200 16003KT P6SM BKN250=
202410130257 KSEA 130257Z 1303/1406 19004KT P6SM FEW250 FM131100 16004KT 1/4SM
                       FG OVC002 FM131400 17003KT 1/4SM FG OVC001
                       FM131800 20003KT 2SM BR OVC004 FM131900
                       22004KT P6SM SCT005 BKN250 FM132200 19004KT
                       P6SM BKN250 FM140200 VRB03KT P6SM BKN250=
202410122320 TAF KSEA 122320Z 1300/1406 30003KT P6SM FEW200 FM130600 19005KT
                       P6SM FEW250 FM131100 16004KT 1/4SM FG OVC002
                       FM131400 17003KT 1/4SM FG OVC001 FM131800
                       00000KT 1/4SM FG OVC002 FM131900 VRB04KT
                       2SM BR OVC005=
202410122057 KSEA 122057Z 1221/1324 29003KT P6SM FEW140 FEW200 FM130600 19005KT
                       P6SM SCT040 FM131100 16004KT 1/4SM FG OVC002
                       FM131400 17003KT 1/4SM FG OVC001 FM131800
                       00000KT 1/4SM FG OVC002=
202410121759 KSEA 121759Z 1218/1324 00000KT 4SM BR BKN002 FM121900 20004KT P6SM
                       BKN005 FM122000 22004KT P6SM SKC FM130600
                       19005KT P6SM SCT040 FM131100 16004KT 1/4SM
                       FG OVC002 FM131400 17003KT 1/4SM FG OVC001=
202410121720 TAF KSEA 121720Z 1218/1324 00000KT 1/2SM FG VV001 FM121900 20004KT
                       1/2SM FG BKN005 FM122000 22004KT P6SM SKC
                       FM130600 19005KT P6SM SCT040 FM131100 16004KT
                       1/4SM FG OVC002 FM131400 17003KT 1/4SM FG
                       OVC001=
202410121457 KSEA 121457Z 1215/1318 15003KT 1/2SM FG OVC002 FM121700 VRB03KT
                       2SM BR BKN005 FM121800 22005KT P6SM SCT250
                       FM131100 16004KT 5SM BR BKN003 FM131400
                       17003KT 3SM BR OVC003=
202410121316 KSEA 121316Z 1213/1318 13004KT 1/4SM FG OVC002 FM121700 VRB03KT
                       2SM BR BKN002 FM121800 22005KT P6SM SCT250
                       FM131100 16004KT 5SM BR BKN003 FM131400
                       17003KT 3SM BR OVC003=
202410121122 TAF KSEA 121122Z 1212/1318 VRB03KT 4SM BR FEW004 FM121300 VRB03KT
                       1/2SM FG OVC002 FM121700 VRB03KT 2SM BR
                       BKN002 FM121800 22005KT P6SM SCT250 FM131100
                       16004KT 5SM BR BKN003 FM131400 17003KT 3SM
                       BR OVC003=
202410121016 KSEA 121016Z 1210/1312 VRB03KT P6SM FEW002 FM121100 VRB03KT 5SM
                       BR BKN002 FM121300 VRB03KT 1/2SM FG VV001
                       FM121700 VRB03KT 2SM BR BKN002 FM121800
                       24005KT P6SM SCT250 FM131100 18004KT 4SM
                       BR OVC003=
202410121014 KSEA 121014Z 1210/1312 VRB03KT 5SM BR BKN002 FM121300 VRB03KT 1/2SM
                       FG VV001 FM121700 VRB03KT 2SM BR BKN002
                       FM121800 24005KT P6SM SCT250 FM131100 18004KT
                       4SM BR OVC003=
202410120907 KSEA 120907Z 1209/1312 VRB03KT P6SM SCT250 FM121100 VRB04KT 5SM
                       BR SCT002 FM121300 VRB03KT 1/2SM FG VV001
                       FM121700 VRB03KT 2SM BR BKN002 FM121800
                       24005KT P6SM SCT250 FM131100 18004KT 4SM
                       BR OVC003=
202410120535 TAF KSEA 120535Z 1206/1312 36005KT P6SM SCT250 FM121100 VRB03KT
                       5SM BR SCT002 FM121300 VRB03KT 1/2SM FG
                       VV001 FM121700 VRB03KT 2SM BR BKN002 FM121800
                       24005KT P6SM SCT250 FM131100 18004KT 4SM
                       BR OVC003=
202410120309 KSEA 120309Z 1203/1306 36005KT P6SM SCT200 FM120900 VRB03KT 6SM
                       BR FEW003 FM121200 VRB03KT 1SM BR BKN003
                       FM121700 25004KT 6SM BR SCT005 FM121900
                       24005KT P6SM SCT250=
202410112320 TAF KSEA 112320Z 1200/1306 31003KT P6SM BKN100 OVC200 FM120300
                       02005KT P6SM SCT200 FM120700 VRB03KT 6SM
                       BR FEW003 FM121200 VRB03KT 1SM BR BKN003
                       FM121700 25004KT 6SM BR SCT005 FM121900
                       24005KT P6SM SCT250=
202410112117 KSEA 112117Z 1121/1224 VRB03KT P6SM BKN100 OVC200 FM120300 02005KT
                       P6SM SCT200 FM120700 VRB03KT 6SM BR FEW003
                       FM121200 VRB03KT 1SM BR BKN003 FM121700
                       25004KT 6SM BR SCT005=
202410111722 TAF KSEA 111722Z 1118/1224 36003KT 5SM BR SCT002 BKN006 FM111900
                       34005KT P6SM BKN200 FM120300 02005KT P6SM
                       SCT200 FM120700 VRB03KT 6SM BR FEW003 FM121200
                       VRB03KT 1SM BR BKN003 FM121700 25004KT 6SM
                       BR SCT005=
202410111500 KSEA 111500Z 1115/1218 35004KT 1/4SM FG OVC001 FM111700 01003KT
                       4SM BR OVC004 FM111900 35005KT P6SM BKN200
                       FM120300 02005KT P6SM SCT200 FM121200 VRB03KT
                       6SM BR FEW005=
202410111314 KSEA 111314Z 1113/1218 35004KT 1/4SM FG OVC001 FM111700 01003KT
                       4SM BR OVC004 FM111900 35005KT P6SM BKN200
                       FM120300 02005KT P6SM SCT200 FM121200 VRB03KT
                       6SM BR FEW005=
202410111204 KSEA 111204Z 1112/1218 02005KT 1/2SM FG OVC001 FM111700 01003KT
                       4SM BR OVC004 FM111900 35005KT P6SM BKN200
                       FM120300 02005KT P6SM SCT200 FM121200 VRB03KT
                       6SM BR FEW005=
202410111123 TAF KSEA 111123Z 1112/1218 03005KT 2SM BR OVC002 FM111300 02004KT
                       1/2SM FG OVC001 FM111700 01003KT 4SM BR
                       OVC004 FM111900 35005KT P6SM BKN200 FM120300
                       02005KT P6SM SCT200 FM121200 VRB03KT 6SM
                       BR FEW005=
202410110852 KSEA 110852Z 1109/1212 02006KT P6SM BKN006 FM111200 03004KT 6SM
                       BR OVC004
                      TEMPO 1114/1117 1SM BR OVC002 FM111900 36006KT
                       P6SM BKN200=
202410110538 TAF KSEA 110538Z 1106/1212 36006KT P6SM SCT020 BKN200 FM110900
                       36006KT P6SM BKN012 FM111300 03004KT P6SM
                       OVC006 FM111900 36006KT P6SM BKN200=
202410110245 KSEA 110245Z 1103/1206 36006KT P6SM BKN015 FM110600 36006KT P6SM
                       SCT020 BKN150 FM111000 VRB02KT P6SM BKN150
                       FM111400 05003KT 6SM BCFG SCT004 BKN180
                       FM111900 36003KT P6SM FEW120=
202410102320 TAF KSEA 102320Z 1100/1206 02010KT P6SM FEW020 SCT250 FM110300
                       04005KT P6SM BKN250 FM111000 VRB02KT P6SM
                       BKN150 FM111400 05003KT 6SM BCFG SCT004
                       BKN180 FM111900 36003KT P6SM FEW120=
202410102052 KSEA 102052Z 1021/1124 01010KT P6SM SCT015 BKN250 FM102200 35008KT
                       P6SM SKC FM110300 04005KT P6SM BKN250 FM111000
                       VRB02KT P6SM BKN150 FM111400 05003KT 6SM
                       BCFG SCT004 BKN180 FM111900 36003KT P6SM
                       FEW120=
202410101918 KSEA 101918Z 1019/1124 01010KT P6SM BKN010 BKN040 FM102100 35008KT
                       P6SM SKC FM110300 04005KT P6SM BKN250 FM111000
                       VRB02KT P6SM BKN150 FM111400 05003KT 6SM
                       BCFG SCT004 BKN180 FM111900 36003KT P6SM
                       FEW120=
202410101746 KSEA 101746Z 1018/1124 01010KT P6SM BKN010 BKN040 FM102000 35008KT
                       P6SM SKC FM110300 04005KT P6SM BKN250 FM111000
                       VRB02KT P6SM BKN150 FM111400 05003KT 6SM
                       BCFG SCT004 BKN180 FM111900 36003KT P6SM
                       FEW120=
202410101720 TAF KSEA 101720Z 1018/1124 01010KT P6SM BKN008 BKN040 FM102000
                       35008KT P6SM SKC FM110300 04005KT P6SM BKN250
                       FM111000 VRB02KT P6SM BKN150 FM111400 05003KT
                       6SM BCFG SCT004 BKN180 FM111900 36003KT
                       P6SM FEW120=
202410101630 KSEA 101630Z 1017/1118 01010KT P6SM BKN008 BKN040 FM102000 35008KT
                       P6SM SKC FM110300 04005KT P6SM BKN250 FM111500
                       05003KT P6SM SCT004=
202410101608 KSEA 101608Z 1016/1118 01010KT P6SM BKN010 BKN040 FM102000 35008KT
                       P6SM SKC FM110300 04005KT P6SM BKN250 FM111500
                       05003KT P6SM SCT004=
202410101607 KSEA 101607Z 1016/1118 01010KT P6SM BKN010 BKN040 FM101800 35008KT
                       P6SM SKC FM110300 04005KT P6SM BKN250 FM111500
                       05003KT P6SM SCT004=
202410101456 KSEA 101456Z 1015/1118 02008KT P6SM FEW010 SCT040 FM101600 03004KT
                       P6SM SCT040 FM101800 35008KT P6SM SKC FM110300
                       04005KT P6SM BKN250 FM111500 05003KT P6SM
                       SCT004=
202410101120 TAF KSEA 101120Z 1012/1118 05006KT P6SM BKN030 FM101600 03004KT
                       P6SM SCT030 FM101800 35008KT P6SM SKC FM110300
                       04005KT P6SM BKN250 FM111500 05003KT P6SM
                       SCT004=
202410100724 KSEA 100724Z 1007/1112 03003KT P6SM OVC021 FM101500 03004KT P6SM
                       SCT025 FM101800 36008KT P6SM SKC=
202410100520 TAF KSEA 100520Z 1006/1112 21005KT P6SM SCT070 FM101200 03004KT
                       P6SM SCT060 FM101400 03004KT P6SM SCT004
                       FM101800 36008KT P6SM SKC=
202410100250 KSEA 100250Z 1003/1106 21007KT P6SM FEW030 BKN070 FM100700 19006KT
                       P6SM BKN060 FM101200 03004KT P6SM SCT060
                       FM101400 03004KT P6SM SCT004 FM101800 36008KT
                       P6SM SKC=
202410092338 TAF KSEA 092338Z 1000/1106 21008KT P6SM SCT250 FM100700 19006KT
                       P6SM BKN060 FM101200 03004KT P6SM SCT060
                       FM101400 03004KT P6SM SCT004 FM101800 36008KT
                       P6SM SKC=
202410092050 KSEA 092050Z 0921/1024 23006KT P6SM SCT030 BKN220 FM092200 23007KT
                       P6SM FEW220 FM100500 19005KT P6SM BKN250
                       FM100900 VRB04KT P6SM BKN250 FM101200 04005KT
                       P6SM BKN007 FM101600 03003KT P6SM SCT010
                       FM101800 03008KT P6SM SKC=
202410091751 TAF KSEA 091751Z 0918/1024 17005KT P6SM SCT060 BKN090 FM092000
                       22008KT P6SM SCT050 BKN100 FM092200 23007KT
                       P6SM FEW100 FM100500 19005KT P6SM BKN250
                       FM100900 VRB04KT P6SM BKN250 FM101200 04005KT
                       P6SM BKN007 FM101600 03003KT P6SM SCT010
                       FM101800 03008KT P6SM SKC=
202410091507 KSEA 091507Z 0915/1018 08006KT P6SM FEW025 BKN050 FM091600 14006KT
                       P6SM SCT025 BKN040
                      TEMPO 0917/0919 P6SM OVC025 FM092000 22008KT
                       P6SM SCT050 BKN250 FM100500 19005KT P6SM
                       BKN250 FM100900 VRB04KT P6SM BKN250 FM101200
                       03005KT P6SM BKN007=
202410091216 KSEA 091216Z 0912/1018 04006KT P6SM VCSH SCT011 OVC028
                      TEMPO 0912/0914 -SHRA BKN011 FM091600 14007KT
                       P6SM OVC025 FM092000 22008KT P6SM SCT050
                       BKN250 FM100500 19005KT P6SM BKN250 FM100900
                       VRB04KT P6SM BKN250 FM101200 03005KT P6SM
                       BKN007=
202410091129 TAF KSEA 091129Z 0912/1018 30003KT P6SM VCSH SCT011 OVC028
                      TEMPO 0912/0914 -SHRA BKN011 FM091600 20007KT
                       P6SM OVC025 FM092000 22008KT P6SM SCT050
                       BKN250 FM100500 19005KT P6SM BKN250 FM100900
                       VRB04KT P6SM BKN250 FM101200 03005KT P6SM
                       BKN007=
202410090935 KSEA 090935Z 0910/1012 21004KT P6SM VCSH BKN007 OVC030 FM091600
                       20007KT P6SM OVC025 FM092000 22008KT P6SM
                       BKN250 FM100500 19005KT P6SM BKN250=
202410090802 KSEA 090802Z 0908/1012 20007KT P6SM VCSH FEW021 BKN027 OVC035
                      TEMPO 0912/0915 BKN007 FM091600 20007KT P6SM
                       OVC025 FM092000 22008KT P6SM BKN250 FM100500
                       19005KT P6SM BKN250=
202410090543 TAF KSEA 090543Z 0906/1012 21008KT P6SM BKN015
                      TEMPO 0912/0915 BKN007 FM091600 20007KT P6SM
                       OVC025 FM092000 22008KT P6SM BKN250 FM100500
                       19005KT P6SM BKN250=
202410090301 KSEA 090301Z 0903/1006 20008KT P6SM BKN020 BKN050 FM090900 20005KT
                       P6SM OVC015 FM091200 18006KT P6SM OVC007
                       FM091700 20007KT P6SM OVC025 FM092000 22008KT
                       P6SM BKN250=
202410082322 TAF KSEA 082322Z 0900/1006 19008KT P6SM BKN020 BKN050 FM090300
                       21005KT P6SM SCT020 OVC050 FM090900 20005KT
                       P6SM OVC015 FM091200 18006KT P6SM OVC007
                       FM091700 20007KT P6SM OVC025 FM092000 22008KT
                       P6SM BKN250=
202410082057 KSEA 082057Z 0821/0924 17008KT P6SM BKN020 BKN050 FM082300 19008KT
                       P6SM OVC050 FM090600 21005KT P6SM SCT020
                       OVC050 FM090900 20005KT P6SM OVC015 FM091300
                       18006KT P6SM OVC007 FM091700 20007KT P6SM
                       OVC015=
202410081724 TAF KSEA 081724Z 0818/0924 16011KT P6SM OVC015 FM082100 19008KT
                       P6SM OVC050 FM090600 21005KT P6SM SCT020
                       OVC050 FM090900 20005KT P6SM OVC015 FM091300
                       18006KT P6SM OVC007 FM091700 20007KT P6SM
                       OVC015=
202410081503 KSEA 081503Z 0815/0918 27007KT P6SM -SHRA BKN035 OVC040
                      TEMPO 0815/0816 2SM SHRA BKN003 BKN020 FM081600
                       18006KT P6SM BKN020 FM082100 19008KT P6SM
                       OVC050 FM090600 21005KT P6SM SCT020 OVC050
                       FM090900 20005KT P6SM OVC015=
202410081458 KSEA 081458Z 0815/0918 27007KT P6SM -SHRA BKN035 OVC040
                      TEMPO 0815/0816 2SM SHRA SCT005 BKN020 FM081600
                       18006KT P6SM BKN020 FM082100 19008KT P6SM
                       OVC050 FM090600 21005KT P6SM SCT020 OVC050
                       FM090900 20005KT P6SM OVC015=
202410081329 KSEA 081329Z 0813/0918 27007KT P6SM -SHRA BKN035 OVC040
                      TEMPO 0813/0815 2SM SHRA FM081600 18006KT
                       P6SM BKN020 FM082100 19008KT P6SM OVC050
                       FM090600 21005KT P6SM SCT020 OVC050 FM090900
                       20005KT P6SM OVC015=
202410081125 TAF KSEA 081125Z 0812/0918 18006KT P6SM VCSH SCT050 BKN100 BKN150
                       FM081300 20008G20KT P6SM -SHRA SCT020 OVC040
                       FM081600 18006KT P6SM BKN020 FM082100 19008KT
                       P6SM OVC050 FM090600 21005KT P6SM SCT020
                       OVC050 FM090900 20005KT P6SM OVC015=
202410080905 KSEA 080905Z 0809/0912 18010KT P6SM SCT170 BKN220 FM081300 20008G20KT
                       P6SM -RA SCT020 OVC040 FM081600 18006KT
                       P6SM BKN020 FM082200 19008KT P6SM VCSH OVC050
                       FM090400 18005KT P6SM VCSH OVC030=
202410080520 TAF KSEA 080520Z 0806/0912 20006KT P6SM BKN200 FM080900 17006KT
                       P6SM BKN100 OVC200 FM081300 20008G20KT P6SM
                       -RA SCT020 OVC040 FM081600 18006KT P6SM
                       BKN020 FM082200 19008KT P6SM VCSH OVC050
                       FM090400 18005KT P6SM VCSH OVC030=
202410080304 KSEA 080304Z 0803/0906 18005KT P6SM SCT200 FM080600 20006KT P6SM
                       BKN200 FM080900 17006KT P6SM BKN100 OVC200
                       FM081300 20008G20KT P6SM -RA SCT020 OVC040
                       TEMPO 0814/0818 BKN015 OVC030 FM082200 19008KT
                       P6SM VCSH OVC050=
202410072335 TAF KSEA 072335Z 0800/0906 23003KT P6SM FEW200 FM080300 18005KT
                       P6SM SCT200 FM080600 20006KT P6SM BKN200
                       FM080900 17006KT P6SM BKN100 OVC200 FM081300
                       20008G20KT P6SM -RA SCT020 OVC040
                      TEMPO 0814/0818 BKN015 OVC030 FM081800 19008KT
                       P6SM VCSH OVC050=
202410072051 KSEA 072051Z 0721/0824 19003KT P6SM FEW200 FM080300 15005KT P6SM
                       SCT200 FM080600 20006KT P6SM BKN200 FM080900
                       17006KT P6SM BKN100 OVC200 FM081300 20008G20KT
                       P6SM -RA SCT020 OVC040
                      TEMPO 0814/0818 BKN015 OVC030 FM081800 19008KT
                       P6SM VCSH OVC050=
202410071748 TAF KSEA 071748Z 0718/0824 19005KT P6SM FEW200 FM080300 15005KT
                       P6SM BKN200 FM080600 20006KT P6SM BKN200
                       FM080900 17006KT P6SM BKN100 OVC200 FM081300
                       20008G20KT P6SM -RA SCT020 OVC040
                      TEMPO 0814/0818 BKN015 OVC030 FM081800 19008KT
                       P6SM VCSH OVC050=
202410071502 KSEA 071502Z 0715/0818 17003KT P6SM FEW005 FEW200
                      TEMPO 0715/0717 1/2SM FG BKN004 FM071800
                       19005KT P6SM SCT200 FM080100 21005KT P6SM
                       BKN200 FM081000 18005KT P6SM BKN100 OVC200=
202410071304 KSEA 071304Z 0713/0818 13004KT P6SM SCT005 SCT200
                      TEMPO 0713/0717 1/2SM FG OVC004 FM071800
                       19005KT P6SM SCT200 FM080100 21005KT P6SM
                       BKN200 FM081000 18005KT P6SM BKN100 OVC200=
202410071120 TAF KSEA 071120Z 0712/0818 13004KT P6SM SCT200 FM071300 VRB03KT
                       4SM BR SCT005
                      TEMPO 0713/0717 1/2SM FG OVC004 FM071800
                       19005KT P6SM SCT200 FM080100 21005KT P6SM
                       BKN200 FM081000 18005KT P6SM BKN100 OVC200=
202410070900 KSEA 070900Z 0709/0812 13004KT P6SM SCT200 FM071300 VRB03KT 4SM
                       BR SCT002
                      TEMPO 0714/0717 1/2SM FG VV001 FM071800 19005KT
                       P6SM SCT200 FM080100 21005KT P6SM BKN200
                       FM081000 18005KT P6SM BKN120 OVC200=
202410070524 TAF KSEA 070524Z 0706/0812 VRB03KT P6SM SCT200 FM071300 VRB03KT
                       4SM BR SCT002
                      TEMPO 0714/0717 1/2SM FG VV001 FM071800 19005KT
                       P6SM SCT200 FM080100 21005KT P6SM BKN200
                       FM081000 18005KT P6SM BKN120 OVC200=
202410062320 TAF KSEA 062320Z 0700/0806 21006KT P6SM FEW150 SCT200 FM070400
                       15005KT P6SM FEW200 FM071300 VRB03KT 2SM
                       BCFG BKN002
                      TEMPO 0715/0717 1/2SM FG VV002 FM071800 19005KT
                       P6SM SCT250=
202410062053 KSEA 062053Z 0621/0724 22006KT P6SM SCT200 FM071300 VRB03KT 2SM
                       BCFG BKN002
                      TEMPO 0715/0717 1/2SM FG VV002 FM071800 18005KT
                       P6SM SCT250=
202410061801 KSEA 061801Z 0618/0724 23005KT P6SM FEW005 SCT200 FM062000 23005KT
                       P6SM SCT200 FM071300 VRB03KT 6SM BR SCT003=
202410061720 TAF KSEA 061720Z 0618/0724 21004KT 1SM BR BKN003 FM061900 20005KT
                       P6SM SCT005 SCT200 FM062200 23005KT P6SM
                       SCT200 FM071300 VRB03KT 6SM BR SCT003=
202410061459 KSEA 061459Z 0615/0718 16006KT P6SM SCT007 SCT200
                      TEMPO 0615/0617 2SM BR BKN002 FM061800 23005KT
                       P6SM SCT200 FM062100 26005KT P6SM SCT200
                       FM071000 VRB03KT 6SM BR SCT003=
202410061220 KSEA 061220Z 0612/0718 06005KT P6SM SCT007 SCT200
                      TEMPO 0613/0616 3SM BR BKN007 FM061700 23005KT
                       P6SM SCT200 FM062100 26005KT P6SM SCT200
                       FM071000 VRB03KT 6SM BR SCT003=
202410061120 TAF KSEA 061120Z 0612/0718 06005KT P6SM SCT005 SCT200
                      TEMPO 0613/0616 3SM BR BKN007 FM061700 23005KT
                       P6SM SCT200 FM062100 26005KT P6SM SCT200
                       FM071000 VRB03KT 6SM BR SCT003=
202410060901 KSEA 060901Z 0609/0712 36005KT P6SM SCT200 FM061300 VRB03KT 6SM
                       BR BCFG SCT005 SCT200
                      TEMPO 0613/0616 3SM BR BKN005 FM061700 23005KT
                       P6SM SCT200 FM062100 26005KT P6SM SCT200
                       FM071000 VRB03KT 6SM BR SCT003=
202410060527 TAF KSEA 060527Z 0606/0712 36007KT P6SM SCT200 FM061300 VRB03KT
                       6SM BR BCFG SCT005 SCT200
                      TEMPO 0613/0616 3SM BR BKN005 FM061700 23005KT
                       P6SM SCT200 FM062100 26005KT P6SM SCT200
                       FM071000 VRB03KT 6SM BR SCT003=
202410060257 KSEA 060257Z 0603/0706 36007KT P6SM SCT200 FM061300 15004KT 6SM
                       BR BCFG SCT005 FM061700 23005KT P6SM SCT250=
202410052320 TAF KSEA 052320Z 0600/0706 36008KT P6SM FEW030 BKN200 FM060300
                       03006KT P6SM SCT200 FM061300 15004KT 6SM
                       BR BCFG SCT005 FM061700 23005KT P6SM SCT250=
202410052059 KSEA 052059Z 0521/0624 36008KT P6SM FEW025 BKN200 FM060300 03006KT
                       P6SM SCT200 FM061300 13004KT 6SM BR BCFG
                       SCT005 FM061700 22005KT P6SM SCT200=
202410051724 TAF KSEA 051724Z 0518/0624 VRB05KT P6SM FEW015 BKN200 FM051900
                       35007KT P6SM BKN200 FM060300 03006KT P6SM
                       SCT200 FM061300 13004KT 6SM BR BCFG SCT005
                       FM061700 22005KT P6SM SCT200=
202410051428 KSEA 051428Z 0514/0618 12007KT P6SM FEW010 SCT200 FM051800 35006KT
                       P6SM SCT015 SCT200 FM052000 32008KT P6SM
                       SCT120 SCT200 FM060300 02006KT P6SM SCT200
                       FM061000 VRB03KT 6SM BR BCFG SCT005=
202410051305 KSEA 051305Z 0513/0618 14003KT P6SM OVC009
                      TEMPO 0513/0516 5SM BR BKN006 FM051800 35004KT
                       P6SM SCT015 BKN200 FM052000 32006KT P6SM
                       SCT120 BKN200 FM060300 02006KT P6SM SCT200
                       FM061000 VRB03KT 6SM BR BCFG SCT005=
202410051120 TAF KSEA 051120Z 0512/0618 14003KT P6SM SCT006 BKN015
                      TEMPO 0512/0516 5SM BR BKN006 FM051700 35004KT
                       P6SM SCT015 BKN200 FM052000 32006KT P6SM
                       SCT120 BKN200 FM060300 02006KT P6SM SCT200
                       FM061000 VRB03KT 6SM BR BCFG SCT005=
202410050858 KSEA 050858Z 0509/0612 21003KT P6SM SCT015 FM051000 14003KT 6SM
                       BR SCT006 BKN020
                      TEMPO 0512/0516 BKN006 FM051700 35004KT P6SM
                       SCT015 BKN200 FM052000 32006KT P6SM SCT120
                       BKN200 FM060300 02006KT P6SM SCT200 FM061000
                       VRB03KT 6SM BR BCFG SCT003=
202410050529 TAF KSEA 050529Z 0506/0612 21003KT P6SM SCT020 FM051000 14003KT
                       6SM BR SCT006 BKN022
                      TEMPO 0512/0516 BKN006 FM051700 01004KT P6SM
                       SCT015 BKN200 FM052000 32006KT P6SM SCT120
                       BKN200 FM060300 02006KT P6SM SCT200 FM061000
                       VRB03KT 6SM BR BCFG SCT003=
202410050345 KSEA 050345Z 0504/0606 22008KT P6SM FEW020 SCT050 FM050600 17006KT
                       P6SM SCT025 FM051300 18003KT 6SM BR BKN025
                       OVC030 FM051700 03004KT P6SM BKN070 FM051900
                       32005KT P6SM BKN250=
202410042320 TAF KSEA 042320Z 0500/0606 21015G25KT P6SM VCSH FEW015 FEW030 SCT080
                       FM050300 22010KT P6SM BKN060 BKN100 FM050600
                       17006KT P6SM BKN100 FM051300 18003KT 6SM
                       BR BKN025 OVC030 FM051700 03004KT P6SM BKN070
                       FM051900 32005KT P6SM BKN250=
202410042105 KSEA 042105Z 0421/0524 21015G30KT P6SM VCSH FEW011 SCT014 FM050300
                       22010KT P6SM BKN060 BKN100 FM050600 17006KT
                       P6SM BKN100 FM051300 18003KT 6SM BR BKN025
                       OVC030 FM051700 03004KT P6SM BKN070 FM051900
                       32005KT P6SM BKN250=
202410041728 TAF KSEA 041728Z 0418/0524 17012G18KT 6SM -RA BR FEW004 BKN025
                       OVC060 FM042100 21010G22KT P6SM VCSH BKN035
                       FM050300 18007KT P6SM BKN060 BKN100 FM051300
                       18004KT 6SM BR BKN022 OVC030 FM051700 03004KT
                       P6SM BKN070=
202410041459 KSEA 041459Z 0415/0518 19008KT 6SM RA BR SCT010 BKN030 OVC060 FM041700
                       17010G18KT P6SM -RA OVC020 FM042100 21010G25KT
                       P6SM VCSH BKN035 FM050300 18007KT P6SM BKN060
                       BKN100 FM051200 18004KT P6SM BKN022 OVC030=
202410041120 TAF KSEA 041120Z 0412/0518 17005KT P6SM SCT120 OVC200 FM041400
                       18007KT P6SM -RA OVC030 FM041700 17010G18KT
                       P6SM -RA OVC020 FM042100 21010G25KT P6SM
                       VCSH BKN035 FM050300 18007KT P6SM BKN060
                       BKN100 FM051200 18004KT P6SM BKN022 OVC030=
202410040855 KSEA 040855Z 0409/0512 17005KT P6SM SCT120 OVC200 FM041500 18007KT
                       P6SM -RA OVC030 FM041700 17012KT P6SM -RA
                       OVC020 FM042100 21012G18KT P6SM -SHRA BKN035
                       FM050300 18007KT P6SM VCSH BKN060 BKN100=
202410040807 KSEA 040807Z 0408/0512 16005KT P6SM SCT120 OVC200 FM041500 18007KT
                       P6SM -RA OVC030 FM041700 17012KT P6SM -RA
                       OVC020 FM042100 21012G18KT P6SM -SHRA BKN035
                       FM050300 18007KT P6SM VCSH BKN060 BKN100=
202410040525 TAF KSEA 040525Z 0406/0512 VRB04KT P6SM BKN200 FM040800 16005KT
                       P6SM SCT120 OVC200 FM041500 18007KT P6SM
                       -RA OVC030 FM041700 17012KT P6SM -RA OVC020
                       FM042100 21012G18KT P6SM -SHRA BKN035 FM050300
                       18007KT P6SM VCSH BKN060 BKN100=
202410040313 KSEA 040313Z 0403/0506 VRB04KT P6SM BKN200 FM040800 19005KT P6SM
                       SCT120 OVC200 FM041400 18007KT P6SM -RA
                       OVC060 FM041700 17012KT P6SM -RA OVC025
                       FM042100 21012G18KT P6SM -SHRA BKN035=
202410032328 TAF KSEA 032328Z 0400/0506 28007KT P6SM FEW120 FEW240 FM040200
                       07006KT P6SM BKN200 FM040800 19005KT P6SM
                       SCT120 OVC200 FM041400 18007KT P6SM -RA
                       OVC060 FM041700 17012KT P6SM -RA OVC025
                       FM042100 21012G18KT P6SM -SHRA BKN035=
202410032051 KSEA 032051Z 0321/0424 35006KT P6SM FEW120 BKN250 FM040200 07006KT
                       P6SM BKN200 FM041100 19005KT P6SM SCT120
                       OVC200 FM041400 18007KT P6SM -RA OVC060
                       FM041700 17012KT P6SM -RA OVC025=
202410031723 TAF KSEA 031723Z 0318/0424 01009KT P6SM SCT200 FM040200 07006KT
                       P6SM BKN200 FM041100 19005KT P6SM SCT120
                       OVC200 FM041400 18007KT P6SM -RA OVC060
                       FM041700 17012KT P6SM -RA OVC025=
202410031501 KSEA 031501Z 0315/0418 01007KT P6SM FEW010 BKN200 FM031600 02007KT
                       P6SM SCT200 FM040200 07006KT P6SM BKN200
                       FM041100 19005KT P6SM SCT120 OVC200=
202410031352 KSEA 031352Z 0314/0418 04010KT P6SM FEW002 SCT200 FM031600 02007KT
                       P6SM SCT200 FM040200 07006KT P6SM BKN200
                       FM041100 19005KT P6SM SCT120 OVC200=
202410031120 TAF KSEA 031120Z 0312/0418 04010KT P6SM FEW002 SCT200 FM031600
                       02007KT P6SM SCT200 FM040200 07006KT P6SM
                       BKN200 FM041100 19005KT P6SM SCT120 OVC200=
202410030851 KSEA 030851Z 0309/0412 06007KT P6SM SCT200 FM031300 04006KT P6SM
                       FEW002 SCT200 FM031600 02007KT P6SM SCT200
                       FM040200 07006KT P6SM BKN200 FM041100 15005KT
                       P6SM SCT120 OVC200=
202410030521 TAF KSEA 030521Z 0306/0412 06007KT P6SM SCT200 FM031300 04006KT
                       P6SM FEW002 SCT200 FM031600 02007KT P6SM
                       SCT200 FM040200 07006KT P6SM BKN200 FM041100
                       15005KT P6SM SCT120 OVC200=
202410030316 KSEA 030316Z 0303/0406 04008KT P6SM FEW050 SCT200 FM030500 04005KT
                       P6SM SCT200 FM031200 03006KT P6SM SKC FM031600
                       02011KT P6SM SKC FM032100 35008KT P6SM SKC=
202410022320 TAF KSEA 022320Z 0300/0406 VRB04KT P6SM SKC FM030500 04005KT P6SM
                       SKC FM031200 03006KT P6SM SKC FM031600 02011KT
                       P6SM SKC FM032100 35008KT P6SM SKC=
202410022100 KSEA 022100Z 0221/0324 VRB04KT P6SM SKC FM030500 04005KT P6SM SKC
                       FM031200 03006KT P6SM SKC FM031600 02011KT
                       P6SM SKC=
202410021720 TAF KSEA 021720Z 0218/0324 06007KT P6SM SCT060 FM022100 31007KT
                       P6SM SKC FM030500 04005KT P6SM SKC FM031200
                       03006KT P6SM SKC FM031600 02011KT P6SM SKC=
202410021350 KSEA 021350Z 0214/0318 06008KT P6SM BKN028 OVC045 FM021800 23005KT
                       P6SM SCT060 FM022100 31007KT P6SM SKC FM030500
                       04005KT P6SM SKC=
202410021120 TAF KSEA 021120Z 0212/0318 06008KT P6SM SCT020 OVC035 FM021800
                       23005KT P6SM SCT060 FM022100 31007KT P6SM
                       SKC FM030500 04005KT P6SM SKC=
202410020856 KSEA 020856Z 0209/0312 06008KT P6SM SCT020 OVC035 FM021800 23005KT
                       P6SM SCT060 FM022100 31007KT P6SM SKC FM030500
                       04005KT P6SM SKC=
202410020657 KSEA 020657Z 0207/0312 VRB05KT P6SM OVC025 FM021000 09008KT P6SM
                       SCT027 OVC035 FM021800 23005KT P6SM SCT060
                       FM022100 31007KT P6SM SKC FM030500 04005KT
                       P6SM SKC=
202410020520 TAF KSEA 020520Z 0206/0312 VRB05KT P6SM SCT025 BKN035 FM021000
                       09008KT P6SM SCT027 OVC035 FM021800 23005KT
                       P6SM SCT060 FM022100 31007KT P6SM SKC FM030500
                       04005KT P6SM SKC=
202410020313 KSEA 020313Z 0203/0306 VRB05KT P6SM BKN040 FM021000 09008KT P6SM
                       SCT027 OVC035 FM021800 23005KT P6SM SCT060
                       FM022100 31007KT P6SM SKC=
202410012320 TAF KSEA 012320Z 0200/0306 36007KT P6SM OVC040 FM020200 30006KT
                       P6SM BKN050 FM021000 VRB03KT P6SM SCT027
                       OVC035 FM021800 23005KT P6SM SCT060 FM022100
                       03007KT P6SM SKC=
202410012052 KSEA 012052Z 0121/0224 33007KT P6SM FEW040 BKN120 FM012300 35007KT
                       P6SM SCT040 BKN100 FM020000 36008KT P6SM
                       VCSH BKN040 OVC100 FM020200 04006KT P6SM
                       BKN050 FM021000 VRB03KT P6SM SCT027 OVC035
                       FM021800 23005KT P6SM SCT060 FM022100 03007KT
                       P6SM SKC=
202410011754 TAF KSEA 011754Z 0118/0224 15005KT P6SM FEW080 BKN250 FM011900
                       20005KT P6SM OVC180 FM012200 23007KT P6SM
                       VCSH SCT060 BKN150 FM020000 35006KT P6SM
                       VCSH BKN060 BKN150 FM020200 04004KT P6SM
                       BKN050 FM021000 VRB03KT P6SM SCT027 OVC035
                       FM021800 23005KT P6SM SCT060 FM022100 03007KT
                       P6SM SKC=
202410011502 KSEA 011502Z 0115/0218 15005KT P6SM SCT150 BKN250 FM011800 20005KT
                       P6SM OVC180 FM012200 23007KT P6SM VCSH SCT060
                       BKN150 FM020200 04004KT P6SM BKN050 FM021000
                       14003KT P6SM SCT027 OVC035 FM021600 18005KT
                       P6SM SCT060=
202410011120 TAF KSEA 011120Z 0112/0218 VRB04KT P6SM SCT180 FM011800 20005KT
                       P6SM OVC180 FM012200 23007KT P6SM VCSH SCT060
                       BKN150 FM020200 04004KT P6SM BKN050 FM021000
                       14003KT P6SM SCT027 OVC035 FM021600 18005KT
                       P6SM SCT060=
202410010852 KSEA 010852Z 0109/0212 03005KT P6SM FEW250 FM011200 VRB04KT P6SM
                       SCT180 FM011800 20005KT P6SM OVC180 FM012100
                       23007KT P6SM VCSH SCT060 BKN150 FM020200
                       26006KT P6SM VCSH BKN060=
202410010520 TAF KSEA 010520Z 0106/0212 34004KT P6SM SKC FM010900 03005KT P6SM
                       FEW250 FM011200 VRB04KT P6SM SCT180 FM011800
                       20005KT P6SM OVC180 FM012100 23007KT P6SM
                       VCSH SCT060 BKN150 FM020200 26006KT P6SM
                       VCSH BKN060=
202410010259 KSEA 010259Z 0103/0206 36006KT P6SM FEW150 SCT250 FM010900 03005KT
                       P6SM FEW250 FM011200 VRB04KT P6SM SCT180
                       FM011800 20005KT P6SM OVC180 FM012100 23007KT
                       P6SM VCSH SCT060 BKN150=