##########################################################
# Query made at 02/17/2025 22:22:43 UTC
# Time interval: from 03/01/2024 00:00  to 03/31/2024 23:59  UTC
##########################################################

##########################################################
# KSEA, Seattle, Seattle-Tacoma International Airport (United States)
# WMO index: 72793. WIGOS ID: 0-20000-0-72793
# Latitude 47-27-00N. Longitude 122-17-59W. Altitude 130 m.
##########################################################

###################################
#  METAR/SPECI from KSEA
###################################
202403312353 METAR KSEA 312353Z 36011KT 10SM FEW030 FEW140 SCT220 16/M01 A2999 RMK AO2 SLP162 ACSL DSNT SE T01611011 10161 20100 56004=
202403312253 METAR KSEA 312253Z 32007KT 10SM FEW030 FEW140 SCT220 15/02 A2999 RMK AO2 SLP164 T01500022=
202403312153 METAR KSEA 312153Z 29010KT 10SM FEW030 FEW140 SCT220 14/03 A2999 RMK AO2 SLP162 T01440028=
202403312053 METAR KSEA 312053Z 36009KT 10SM FEW030 FEW090 14/03 A3000 RMK AO2 SLP165 T01440033 56003=
202403311959 SPECI KSEA 311959Z 36006KT 10SM FEW020 FEW040 13/04 A3000 RMK AO2 T01330044=
202403311953 METAR KSEA 311953Z 10SM FEW020 FEW050 13/04 A3000 RMK AO2 SLP167 T01280039=
202403311853 METAR KSEA 311853Z 36006KT 10SM SCT024 SCT050 12/04 A3000 RMK AO2 SLP167 T01170044=
202403311753 METAR KSEA 311753Z 05008KT 10SM SCT011 BKN019 BKN050 10/04 A3001 RMK AO2 SLP169 T01000044 10106 20044 51018=
202403311653 METAR KSEA 311653Z 03005KT 10SM BKN011 BKN060 08/04 A2999 RMK AO2 SLP163 T00830044=
202403311553 METAR KSEA 311553Z 04008KT 10SM BKN010 OVC030 07/04 A2998 RMK AO2 SLP160 T00720044=
202403311453 METAR KSEA 311453Z 04008KT 10SM FEW006 BKN010 BKN030 06/04 A2996 RMK AO2 SLP151 T00610039 53015=
202403311442 SPECI KSEA 311442Z 03007KT 10SM FEW006 BKN010 BKN030 06/04 A2995 RMK AO2 T00610039=
202403311434 SPECI KSEA 311434Z 04007KT 10SM FEW006 FEW010 SCT030 06/03 A2995 RMK AO2 T00560033=
202403311353 METAR KSEA 311353Z 02006KT 10SM FEW010 FEW050 SCT120 05/03 A2994 RMK AO2 SLP144 T00500028=
202403311253 METAR KSEA 311253Z 04008KT 10SM FEW012 06/02 A2992 RMK AO2 SLP140 T00560022=
202403311153 METAR KSEA 311153Z 00000KT 10SM CLR 05/01 A2991 RMK AO2 SLP135 T00500011 10089 20050 53002=
202403311053 METAR KSEA 311053Z 02005KT 10SM CLR 06/02 A2990 RMK AO2 SLP132 T00560017=
202403310953 METAR KSEA 310953Z 03007KT 10SM CLR 06/02 A2990 RMK A02 SLP132 T00610017=
202403310853 METAR KSEA 310853Z 02007KT 10SM FEW070 07/02 A2990 RMK A02 SLP133 T00720017 53008=
202403310753 METAR KSEA 310753Z 04007KT 10SM SCT070 08/02 A2989 RMK A02 SLP129 T00780022 401440044=
202403310653 METAR KSEA 310653Z 01007KT 10SM FEW065 08/02 A2988 RMK AO2 SLP126 T00780022=
202403310553 METAR KSEA 310553Z 03007KT 10SM FEW065 09/03 A2988 RMK AO2 SLP125 T00890028 10128 20089 51004=
202403310453 METAR KSEA 310453Z 02010KT 10SM SCT065 10/03 A2988 RMK AO2 SLP125 T01000028=
202403310353 METAR KSEA 310353Z 01007KT 10SM BKN060 10/04 A2988 RMK AO2 SLP124 T01000039=
202403310253 METAR KSEA 310253Z 34003KT 10SM FEW030 SCT140 BKN240 10/03 A2987 RMK AO2 SLP122 T01000028 56012=
202403310153 METAR KSEA 310153Z 35008KT 10SM FEW035 FEW140 BKN240 11/02 A2987 RMK AO2 SLP122 T01110022=
202403310053 METAR KSEA 310053Z 34010KT 10SM FEW035 FEW140 BKN240 12/02 A2989 RMK AO2 SLP129 T01170022=
202403302353 METAR KSEA 302353Z 33008KT 10SM FEW035 FEW150 BKN240 12/02 A2990 RMK AO2 SLP133 T01220017 10144 20106 56008=
202403302253 METAR KSEA 302253Z 34011KT 10SM FEW035 BKN240 13/01 A2991 RMK AO2 SLP134 T01330006=
202403302153 METAR KSEA 302153Z 36009KT 10SM FEW035 BKN240 14/02 A2991 RMK AO2 SLP137 T01390022=
202403302053 METAR KSEA 302053Z 01009KT 10SM FEW030 BKN250 13/02 A2993 RMK AO2 SLP141 T01330022 58016=
202403301953 METAR KSEA 301953Z 02005KT 10SM FEW025 BKN220 13/03 A2995 RMK AO2 SLP148 T01280033=
202403301853 METAR KSEA 301853Z 01009KT 10SM FEW010 SCT220 12/03 A2996 RMK AO2 SLP154 T01220033=
202403301753 METAR KSEA 301753Z 01005KT 10SM FEW010 SCT220 10/04 A2997 RMK AO2 SLP157 T01000039 10100 20044 58003=
202403301653 METAR KSEA 301653Z 04007KT 10SM SCT010 09/04 A2998 RMK AO2 SLP159 T00890039=
202403301645 SPECI KSEA 301645Z 06006KT 10SM SCT010 08/04 A2998 RMK AO2 T00830039=
202403301553 METAR KSEA 301553Z 04010KT 10SM BKN010 07/04 A2999 RMK AO2 SLP161 T00720039=
202403301524 SPECI KSEA 301524Z 06008KT 10SM BKN010 06/03 A2998 RMK AO2 T00610033=
202403301503 SPECI KSEA 301503Z 05007KT 10SM BKN009 06/03 A2998 RMK AO2 T00610033=
202403301453 METAR KSEA 301453Z 05007KT 10SM SCT010 06/03 A2998 RMK AO2 SLP161 T00560033 53011=
202403301353 METAR KSEA 301353Z 05007KT 10SM FEW010 05/03 A2997 RMK AO2 SLP154 T00500028=
202403301253 METAR KSEA 301253Z 02006KT 10SM CLR 05/03 A2996 RMK AO2 SLP152 T00500028=
202403301153 METAR KSEA 301153Z 04005KT 10SM CLR 06/03 A2995 RMK AO2 SLP148 T00560028 10083 20056 51002=
202403301053 METAR KSEA 301053Z 02008KT 10SM CLR 06/03 A2995 RMK AO2 SLP148 T00610028=
202403300953 METAR KSEA 300953Z 03007KT 10SM CLR 07/03 A2995 RMK AO2 SLP148 T00670033=
202403300853 METAR KSEA 300853Z 04008KT 10SM CLR 07/03 A2994 RMK AO2 SLP146 T00670028 50004=
202403300753 METAR KSEA 300753Z 35003KT 10SM CLR 07/03 A2994 RMK AO2 SLP146 T00670028 401500050=
202403300653 METAR KSEA 300653Z 03010KT 10SM CLR 08/03 A2993 RMK AO2 SLP144 T00830033=
202403300553 METAR KSEA 300553Z 03010KT 10SM CLR 08/03 A2993 RMK AO2 SLP142 T00830033 10144 20083 50006=
202403300453 METAR KSEA 300453Z 01008KT 10SM CLR 09/03 A2993 RMK AO2 SLP144 T00890033=
202403300353 METAR KSEA 300353Z 36012KT 10SM FEW040 09/03 A2992 RMK AO2 SLP139 T00890033=
202403300253 METAR KSEA 300253Z 36012KT 10SM FEW040 FEW250 09/02 A2991 RMK AO2 SLP136 T00940022 53009=
202403300153 METAR KSEA 300153Z 35013G22KT 10SM FEW040 FEW250 12/01 A2990 RMK AO2 SLP131 T01170011=
202403300053 METAR KSEA 300053Z 34011KT 10SM FEW040 FEW250 13/M02 A2989 RMK AO2 SLP127 T01331022=
202403292353 METAR KSEA 292353Z 36010KT 10SM FEW040 SCT250 14/M01 A2988 RMK AO2 SLP127 T01391006 10150 20100 56009=
202403292253 METAR KSEA 292253Z 36010KT 10SM FEW040 BKN250 14/M01 A2989 RMK AO2 SLP127 T01441011=
202403292153 METAR KSEA 292153Z 31008KT 10SM FEW040 BKN250 13/02 A2989 RMK AO2 SLP130 T01330022=
202403292053 METAR KSEA 292053Z 31006KT 10SM SCT040 BKN250 13/02 A2991 RMK AO2 SLP136 T01280022 58003=
202403291953 METAR KSEA 291953Z 27007KT 250V310 10SM SCT038 BKN250 12/03 A2992 RMK AO2 SLP140 T01220028=
202403291853 METAR KSEA 291853Z VRB04KT 10SM SCT031 BKN150 BKN250 12/03 A2992 RMK AO2 SLP140 T01170028=
202403291753 METAR KSEA 291753Z 00000KT 10SM FEW030 SCT060 BKN150 BKN220 10/02 A2992 RMK AO2 SLP139 T01000022 10106 20050 51010=
202403291653 METAR KSEA 291653Z 00000KT 10SM FEW020 SCT060 BKN150 BKN220 09/02 A2991 RMK AO2 SLP136 T00940022=
202403291553 METAR KSEA 291553Z 00000KT 10SM FEW020 SCT060 BKN220 08/04 A2990 RMK AO2 SLP133 T00830039=
202403291453 METAR KSEA 291453Z 13005KT 10SM SCT060 BKN150 BKN220 07/03 A2989 RMK AO2 SLP129 T00720033 53006=
202403291353 METAR KSEA 291353Z 00000KT 10SM SCT050 SCT085 BKN250 06/04 A2988 RMK AO2 SLP124 T00560039=
202403291253 METAR KSEA 291253Z VRB03KT 10SM SCT046 OVC065 07/03 A2987 RMK AO2 SLP123 T00670028=
202403291153 METAR KSEA 291153Z 13004KT 10SM SCT036 OVC045 06/04 A2987 RMK AO2 RAE41 SLP123 P0001 60003 7//// T00610039 10078 20061 51010=
202403291053 METAR KSEA 291053Z 18005KT 10SM -RA FEW030 OVC036 07/03 A2987 RMK AO2 SLP122 P0002 T00670033=
202403290953 METAR KSEA 290953Z 00000KT 10SM -RA SCT038 SCT050 OVC060 07/03 A2986 RMK AO2 SLP118 P0000 T00720033=
202403290853 METAR KSEA 290853Z 17006KT 10SM -RA FEW039 BKN060 OVC075 07/03 A2984 RMK AO2 RAB01E21B52 SLP113 P0000 60000 T00720028 51015=
202403290753 METAR KSEA 290753Z 18005KT 10SM FEW032 BKN049 OVC065 07/02 A2983 RMK AO2 SLP109 T00720022 401220072=
202403290653 METAR KSEA 290653Z 18007KT 10SM SCT034 BKN048 BKN060 07/02 A2982 RMK AO2 SLP104 T00720022=
202403290553 METAR KSEA 290553Z 20008KT 10SM SCT050 08/02 A2980 RMK AO2 SLP098 60001 T00780022 10111 20078 53018=
202403290453 METAR KSEA 290453Z 21012KT 10SM SCT049 08/02 A2978 RMK AO2 SLP091 T00830022=
202403290353 METAR KSEA 290353Z 20011KT 10SM BKN044 BKN100 09/03 A2976 RMK AO2 SLPNO T00890028=
202403290253 METAR KSEA 290253Z 20006KT 10SM FEW035 BKN048 BKN070 09/03 A2975 RMK AO2 PK WND 23031/0212 RAB11E44 SLPNO P0001 60001 T00890033 53016=
202403290153 METAR KSEA 290153Z 21011G22KT 10SM FEW050 SCT060 BKN090 11/02 A2972 RMK AO2 SLPNO T01060017=
202403290053 METAR KSEA 290053Z 18011KT 10SM BKN055 BKN110 11/01 A2971 RMK AO2 SLPNO T01110011=
202403282353 METAR KSEA 282353Z 18010KT 10SM FEW048 BKN070 BKN100 11/02 A2970 RMK AO2 SLPNO 60005 T01110022 10122 20078 56005=
202403282253 METAR KSEA 282253Z 17012KT 10SM FEW042 BKN050 BKN150 11/02 A2970 RMK AO2 SLPNO T01110022=
202403282153 METAR KSEA 282153Z 20012KT 10SM FEW030 BKN044 BKN150 11/03 A2971 RMK AO2 RAE28 SLPNO P0002 T01060028=
202403282053 METAR KSEA 282053Z 21008KT 9SM -RA SCT039 BKN046 OVC055 09/04 A2971 RMK AO2 PK WND 21027/2009 LTG DSNT N RAB09 SLPNO P0001 60003 T00890044 53004=
202403281953 METAR KSEA 281953Z VRB06KT 10SM BKN049 OVC060 10/04 A2970 RMK AO2 SLPNO VCSH RAE35 P0002 T01000039=
202403281853 METAR KSEA 281853Z 17006KT 10SM -RA SCT038 BKN050 OVC055 09/04 A2971 RMK AO2 RAB50 SLPNO P0000 T00890039=
202403281753 METAR KSEA 281753Z 16008KT 10SM FEW015 BKN045 OVC075 08/03 A2970 RMK AO2 SLPNO VCSH 6//// T00830033=
202403281653 METAR KSEA 281653Z 13007KT 10SM FEW015 BKN055 OVC070 08/03 RMK AO2 SLPNO SHRA W-NW T00780028 $=
202403281553 METAR KSEA 281553Z 18006 KT 10SM FEW010 BKN055 OVC150 07/04 A2970 RMK A02 SLPNO SHRA W-NW T00720044 $=
202403281453 METAR KSEA 281453Z 14005KT 10SM FEW005 SCT050 BKN060 BKN150 06/03 A2971 RMK A02 SLP068 60000 T00610028 55010 $=
202403281353 SPECI KSEA 281353Z 12006KT 10SM FEW005 FEW060 BKN085 OVC150 06/03 A2971 RMK A02 SLP067 VCSH T00610028 $=
202403281253 SPECI KSEA 281253Z 10009KT 10SM FEW004 SCT050 SCT085 06/04 A2972 RMK A02 RAE13 SLP071 P0000 T00560039 $=
202403281238 SPECI KSEA 281238Z 11008KT 10SM FEW004 SCT050 BKN085 06/04 A2972 RMK A02 RAE13 P0000 T00610039 $=
202403281227 SPECI KSEA 281227Z 12008KT 10SM FEW033 SCT050 BKN080 06/04 A2972 RMK A02 RAE13 P0000 T00610039 $=
202403281153 METAR KSEA 281153Z 19003KT 7SM -RA FEW016 BKN026 OVC034 06/04 A2974 RMK AO2 SLP077 P0002 60015 70062 T00610044 10072 20056 53003 $=
202403281053 METAR KSEA 281053Z 13004KT 9SM -RA FEW004 BKN022 OVC030 06/04 A2973 RMK AO2 SLP074 P0004 T00610044 $=
202403281041 SPECI KSEA 281041Z 12004KT 9SM -RA FEW004 SCT020 OVC026 06/04 A2973 RMK AO2 P0003 T00610044 $=
202403280953 METAR KSEA 280953Z 00000KT 5SM -RA BR FEW016 BKN025 OVC033 06/04 A2973 RMK AO2 SLP074 P0004 T00560044 $=
202403280928 SPECI KSEA 280928Z 31003KT 10SM -RA FEW004 OVC044 06/04 A2973 RMK AO2 P0000 T00560044 $=
202403280853 METAR KSEA 280853Z 31005KT 5SM -RA BR FEW004 BKN028 OVC037 06/04 A2973 RMK AO2 SLP073 P0004 60005 T00610044 58006 $=
202403280843 SPECI KSEA 280843Z 29005KT 7SM -RA FEW004 BKN028 OVC037 06/04 A2973 RMK AO2 P0003 T00610044 $=
202403280753 METAR KSEA 280753Z 29003KT 10SM -RA FEW038 BKN045 OVC075 06/04 A2974 RMK AO2 SLP077 P0001 T00610044 401170061 $=
202403280653 METAR KSEA 280653Z 28003KT 10SM -RA OVC048 06/04 A2975 RMK AO2 RAB51 SLP082 P0000 T00610039=
202403280553 METAR KSEA 280553Z 15004KT 10SM FEW060 SCT075 07/03 A2974 RMK AO2 SLP080 60016 T00670033 10106 20067 50003 $=
202403280453 METAR KSEA 280453Z 15009KT 10SM FEW050 SCT075 07/04 A2975 RMK AO2 SLP083 T00720039=
202403280353 METAR KSEA 280353Z 17008KT 10SM BKN050 BKN085 08/05 A2975 RMK AO2 RAB27E36 SLP081 P0000 T00780050=
202403280153 METAR KSEA 280153Z 19005KT 10SM BKN036 BKN060 09/06 A2972 RMK AO2 RAE42 SLP072 VCSH P0004 T00890056 $=
202403280145 SPECI KSEA 280145Z 30004KT 10SM BKN036 BKN060 09/06 A2971 RMK AO2 RAE42 VCSH P0004 T00890056 $=
202403280130 SPECI KSEA 280130Z 17008KT 10SM VCTS -RA FEW040CB BKN048 BKN060 09/05 A2970 RMK AO2 TS S MOV NE P0004 T00940050 $=
202403280053 METAR KSEA 280053Z 16009KT 4SM RA BKN039 BKN046 BKN075 09/05 A2970 RMK AO2 RAB13 SLP065 P0009 T00890050 $=
202403272353 METAR KSEA 272353Z 18008KT 10SM SCT028 BKN037 BKN050 11/06 A2970 RMK AO2 RAE02 SLP063 SHRA S 60002 T01060056 10117 20083 50001 PNO $=
202403272307 SPECI KSEA 272307Z VRB06KT 10SM SCT027 BKN034 BKN065 12/06 A2970 RMK AO2 RAE02 SHRA E-S T01170061 PNO $=
202403272253 METAR KSEA 272253Z 22005KT 4SM -RA FEW012 BKN027 BKN049 10/06 A2971 RMK AO2 RAB13PLB45E49 SLP066 T01000056 PNO $=
202403272245 SPECI KSEA 272245Z 25005KT 6SM -RAPL FEW012 BKN029 OVC045 09/05 A2971 RMK AO2 RAB13PLB45 P0000 T00940050=
202403272244 SPECI KSEA 272244Z 26006KT 7SM -RA FEW014 BKN031 OVC050 09/05 A2971 RMK AO2 RAB13 P0000 T00940050=
202403272232 SPECI KSEA 272232Z 28009KT 10SM VCTS -RA FEW012 BKN025CB OVC050 10/06 A2971 RMK AO2 RAB13 TS S MOV NE P0000 T01000061=
202403272153 METAR KSEA 272153Z 21009KT 10SM SCT025 BKN029 OVC060 12/06 A2970 RMK AO2 SLP064 T01170061=
202403272053 METAR KSEA 272053Z 19012KT 10SM SCT031 BKN044 OVC055 11/06 A2970 RMK AO2 RAE10 SLP063 P0002 60002 T01110061 51011=
202403272025 SPECI KSEA 272025Z 18012KT 10SM SCT025 BKN031 BKN060 11/06 A2970 RMK AO2 RAE10 P0002 T01060061=
202403271953 METAR KSEA 271953Z 19010G16KT 7SM -RA BKN025 OVC035 10/06 A2970 RMK AO2 RAE39B45 SLP063 P0000 T01000061=
202403271940 SPECI KSEA 271940Z 18009KT 10SM BKN027 OVC035 10/06 A2969 RMK AO2 RAE39 P0000 T01000061=
202403271853 METAR KSEA 271853Z 15008KT 10SM -RA BKN042 OVC050 09/06 A2968 RMK AO2 RAB38 SLP056 P0000 T00890061=
202403271753 METAR KSEA 271753Z 14009KT 10SM BKN040 OVC055 08/06 A2966 RMK AO2 RAE04 SLP051 P0000 60029 T00830056 10083 20067 56003=
202403271653 METAR KSEA 271653Z 10010KT 7SM -RA BKN047 OVC055 08/05 A2966 RMK AO2 SLP052 P0005 T00780050=
202403271553 METAR KSEA 271553Z 12010KT 6SM -RA BR OVC042 07/04 A2967 RMK AO2 SLP054 P0006 T00670044=
202403271453 METAR KSEA 271453Z 12008KT 6SM -RA BR OVC044 07/04 A2967 RMK AO2 SLP055 P0005 60018 T00670044 56030=
202403271353 METAR KSEA 271353Z 10009KT 7SM -RA OVC040 07/04 A2970 RMK AO2 SLP063 P0005 T00670039=
202403271253 METAR KSEA 271253Z 10010KT 7SM -RA OVC032 07/04 A2973 RMK AO2 SLP074 P0008 T00670039=
202403271153 METAR KSEA 271153Z 11008KT 6SM -RA OVC034 07/04 A2976 RMK AO2 SLP085 P0005 60006 70006 T00670039 10083 20067 56032=
202403271053 METAR KSEA 271053Z 11006KT 9SM -RA OVC040 07/03 A2979 RMK AO2 RAE01B30 SLP095 P0001 T00720033=
202403270953 METAR KSEA 270953Z 12008KT 10SM -RA BKN037 OVC045 07/04 A2982 RMK AO2 RAB30 SLP106 P0000 T00720039=
202403270853 METAR KSEA 270853Z 15005KT 10SM OVC042 08/03 A2986 RMK AO2 SLP118 T00780033 58027=
202403270753 METAR KSEA 270753Z 13006KT 10SM BKN050 08/03 A2989 RMK AO2 SLP130 T00830028 401280067=
202403270653 METAR KSEA 270653Z 14007KT 10SM FEW050 BKN140 08/03 A2991 RMK AO2 SLP137 T00830028=
202403270553 METAR KSEA 270553Z 18004KT 10SM BKN180 08/02 A2994 RMK AO2 SLP145 T00830022 10128 20083 58008=
202403270453 METAR KSEA 270453Z 21006KT 10SM FEW050 BKN065 BKN200 09/03 A2996 RMK AO2 SLP152 T00890028=
202403270353 METAR KSEA 270353Z 22006KT 10SM BKN050 09/02 A2997 RMK AO2 SLP155 T00940017=
202403270253 METAR KSEA 270253Z 21006KT 10SM FEW050 SCT250 10/01 A2996 RMK AO2 SLP153 T01000006 56011=
202403270153 METAR KSEA 270153Z 20008KT 10SM FEW035 SCT250 11/01 A2997 RMK AO2 SLP156 T01060011=
202403270053 METAR KSEA 270053Z 22010KT 10SM SCT035 SCT250 12/02 A2998 RMK AO2 SLP159 T01170017=
202403262353 METAR KSEA 262353Z 21011KT 10SM SCT035 SCT080 12/02 A2999 RMK AO2 SLP164 T01220022 10128 20089 56008=
202403262253 METAR KSEA 262253Z 20011G20KT 10SM FEW035 SCT080 12/03 A3000 RMK AO2 SLP165 T01220028=
202403262153 METAR KSEA 262153Z 20014KT 10SM SCT035 SCT070 12/02 A3001 RMK AO2 SLP170 T01220017=
202403262053 METAR KSEA 262053Z 20015KT 10SM SCT035 SCT070 12/03 A3002 RMK AO2 SLP172 SHRA S T01220028 50000=
202403261953 METAR KSEA 261953Z 20016G21KT 10SM SCT032 SCT070 12/03 A3002 RMK AO2 SLP173 T01170028=
202403261853 METAR KSEA 261853Z 21013G20KT 10SM SCT025 BKN033 BKN070 11/04 A3002 RMK AO2 SLP172 T01060039=
202403261842 SPECI KSEA 261842Z 21017KT 10SM SCT025 BKN033 BKN070 11/04 A3002 RMK AO2 T01110044=
202403261753 METAR KSEA 261753Z 21012KT 10SM BKN021 09/04 A3002 RMK AO2 SLP172 T00890039 10089 20067 53014=
202403261653 METAR KSEA 261653Z 22011G16KT 10SM OVC020 08/04 A3000 RMK AO2 SLP167 T00780039=
202403261553 METAR KSEA 261553Z 22011G17KT 10SM OVC015 07/04 A2998 RMK AO2 SLP160 T00720044=
202403261523 SPECI KSEA 261523Z 20009KT 10SM OVC015 07/04 A2998 RMK AO2 T00720044=
202403261453 METAR KSEA 261453Z 20009KT 10SM BKN012 BKN018 07/04 A2998 RMK AO2 SLP159 T00670044 53011=
202403261353 METAR KSEA 261353Z 21009G17KT 10SM OVC013 07/04 A2996 RMK AO2 SLP153 T00720044=
202403261253 METAR KSEA 261253Z 22007KT 10SM BKN013 OVC017 07/05 A2995 RMK AO2 SLP149 T00720050=
202403261153 METAR KSEA 261153Z 23006KT 10SM OVC013 07/05 A2994 RMK AO2 SLP146 60000 70002 T00720050 10083 20072 52008=
202403261053 METAR KSEA 261053Z 23005KT 10SM BKN010 OVC013 07/06 A2993 RMK AO2 SLP143 T00720056=
202403261034 SPECI KSEA 261034Z 23005KT 10SM FEW007 BKN011 OVC050 07/06 A2993 RMK AO2 T00720056=
202403260953 METAR KSEA 260953Z 23005KT 10SM OVC011 07/06 A2993 RMK AO2 RAE17 SLP141 P0000 T00720056=
202403260853 METAR KSEA 260853Z 23004KT 10SM -RA BKN013 BKN017 OVC042 08/06 A2992 RMK AO2 SLP138 P0000 60000 T00780056 51008=
202403260753 METAR KSEA 260753Z 22005KT 10SM -RA BKN009 BKN016 OVC037 08/06 A2991 RMK AO2 SLP134 P0000 T00780061 401110078=
202403260653 METAR KSEA 260653Z 22008KT 10SM -RA BKN007 BKN014 OVC032 08/06 A2989 RMK AO2 RAE09B44 SLP130 P0000 T00780061=
202403260630 SPECI KSEA 260630Z 21008KT 10SM BKN007 BKN013 OVC032 08/06 A2989 RMK AO2 RAE09 P0000 T00780061=
202403260553 METAR KSEA 260553Z 21009KT 8SM -RA OVC013 08/06 A2988 RMK AO2 RAB47 SLP126 P0000 60000 T00830056 10100 20083 51007=
202403260547 SPECI KSEA 260547Z 21009KT 9SM -RA OVC013 08/06 A2988 RMK AO2 RAB47 P0000=
202403260453 METAR KSEA 260453Z 17006KT 10SM BKN018 BKN023 OVC028 09/05 A2987 RMK AO2 SLP123 T00890050=
202403260444 SPECI KSEA 260444Z 17004KT 10SM SCT018 BKN025 OVC036 09/06 A2987 RMK AO2 T00890056=
202403260353 METAR KSEA 260353Z 20006KT 10SM FEW013 SCT021 OVC038 09/06 A2986 RMK AO2 RAE0259 SLP120 P0000 T00890061=
202403260253 METAR KSEA 260253Z 15005KT 6SM RA FEW013 BKN019 BKN032 09/06 A2986 RMK AO2 RAB46 SLP117 P0000 60000 T00890056 55005=
202403260153 METAR KSEA 260153Z 14006KT 10SM BKN017 BKN037 09/06 A2985 RMK AO2 SLP117 T00940056=
202403260053 METAR KSEA 260053Z 20007KT 10SM FEW014 BKN035 BKN060 09/05 A2986 RMK AO2 SLP118 T00940050=
202403252353 METAR KSEA 252353Z 19007KT 10SM SCT029 BKN039 BKN065 09/06 A2987 RMK AO2 RAE51 SLP122 P0000 60002 T00940056 10111 20083 58004=
202403252253 METAR KSEA 252253Z 21006KT 10SM -RA BKN047 OVC055 09/05 A2987 RMK AO2 SLP123 P0001 T00890050=
202403252153 METAR KSEA 252153Z 21011G18KT 10SM -RA SCT030 BKN039 OVC048 09/05 A2988 RMK AO2 SLP124 P0001 T00890050=
202403252053 METAR KSEA 252053Z 22011KT 10SM -RA SCT028 OVC050 09/04 A2988 RMK AO2 RAB27 SLP126 P0000 60000 T00940039 55002=
202403251953 METAR KSEA 251953Z 21011KT 10SM FEW023 BKN036 BKN070 BKN180 11/04 A2988 RMK AO2 SLP125 T01110039=
202403251853 METAR KSEA 251853Z 19011KT 10SM SCT020 SCT026 BKN085 BKN220 10/04 A2988 RMK AO2 SLP127 SCT026 V BKN T01000039=
202403251753 METAR KSEA 251753Z 19010KT 10SM FEW020 SCT035 SCT085 BKN220 09/04 A2989 RMK AO2 DZE1658 SLP128 P0000 60000 T00940039 10094 20078 53003=
202403251653 METAR KSEA 251653Z 20014KT 10SM -DZ FEW020 BKN030 BKN065 08/04 A2988 RMK AO2 DZB48 SLP127 P0000 T00830044=
202403251553 METAR KSEA 251553Z 20010KT 10SM SCT032 OVC055 08/04 A2988 RMK AO2 SLP125 T00830039=
202403251453 METAR KSEA 251453Z 19009KT 10SM FEW025 SCT040 OVC050 08/03 A2988 RMK AO2 SLP124 T00780033 53007=
202403251353 METAR KSEA 251353Z 19008KT 10SM FEW027 BKN047 BKN080 08/03 A2986 RMK AO2 SLP120 T00780033=
202403251253 METAR KSEA 251253Z 19009KT 10SM BKN046 BKN080 08/03 A2986 RMK AO2 SLP118 T00780033=
202403251153 METAR KSEA 251153Z 21007KT 10SM OVC039 08/03 A2986 RMK AO2 SLP116 T00830033 10094 20078 58005=
202403251053 METAR KSEA 251053Z 21008KT 10SM BKN043 BKN055 08/04 A2987 RMK AO2 SLP121 T00780039=
202403250953 METAR KSEA 250953Z 22009KT 10SM FEW015 BKN055 BKN200 08/04 A2987 RMK AO2 SLP122 T00830039=
202403250853 METAR KSEA 250853Z 21014KT 10SM SCT015 BKN050 BKN090 OVC200 08/04 A2987 RMK AO2 SLP123 T00830044 53006=
202403250753 METAR KSEA 250753Z 22015KT 10SM FEW014 SCT040 BKN090 08/05 A2987 RMK AO2 SLP121 T00830050 401440078=
202403250653 METAR KSEA 250653Z 21009KT 10SM FEW040 BKN080 OVC210 09/04 A2986 RMK AO2 SLP118 T00890039=
202403250553 METAR KSEA 250553Z 22013KT 10SM FEW040 BKN070 BKN220 09/03 A2985 RMK AO2 SLP117 T00940033 10144 20094 53011=
202403250453 METAR KSEA 250453Z 23011G18KT 10SM SCT042 BKN065 BKN220 10/05 A2984 RMK AO2 SLP113 T01000050=
202403250353 METAR KSEA 250353Z 22006KT 10SM FEW050 SCT220 11/04 A2983 RMK AO2 SLP108 T01110044=
202403250253 METAR KSEA 250253Z 18006KT 10SM BKN050 BKN065 12/02 A2982 RMK AO2 SLP105 T01220017 55000=
202403250153 METAR KSEA 250153Z 21004KT 10SM SCT045 BKN070 13/02 A2982 RMK AO2 SLP105 T01330017=
202403250053 METAR KSEA 250053Z 20007KT 10SM FEW035 FEW070 14/01 A2982 RMK AO2 SLP103 T01390011=
202403242353 METAR KSEA 242353Z 22007KT 10SM FEW035 14/02 A2982 RMK AO2 SLP104 T01390022 10139 20094 58003=
202403242253 METAR KSEA 242253Z 21006KT 10SM FEW035 13/03 A2983 RMK AO2 SLP107 T01330028=
202403242153 METAR KSEA 242153Z 24006KT 10SM FEW034 SCT042 13/03 A2983 RMK AO2 SLP108 T01330028=
202403242053 METAR KSEA 242053Z 00000KT 10SM BKN033 13/04 A2983 RMK AO2 SLP109 T01280044 50008=
202403242007 SPECI KSEA 242007Z 30003KT 10SM SCT024 BKN032 12/04 A2983 RMK AO2 T01170044=
202403241953 METAR KSEA 241953Z 10SM SCT015 BKN033 12/05 A2984 RMK AO2 SLP110 T01170050=
202403241853 METAR KSEA 241853Z 00000KT 10SM FEW014 SCT029 BKN033 10/06 A2982 RMK AO2 SLP106 T01000056=
202403241811 SPECI KSEA 241811Z 31006KT 10SM FEW013 SCT028 BKN034 09/06 A2981 RMK AO2 T00940056=
202403241753 METAR KSEA 241753Z 29006KT 10SM FEW013 BKN029 BKN034 09/06 A2981 RMK AO2 SLP100 T00940061 10106 20078 53020=
202403241726 SPECI KSEA 241726Z 29006KT 10SM SCT013 BKN018 BKN031 09/06 A2980 RMK AO2 T00890056=
202403241653 METAR KSEA 241653Z 03005KT 10SM SCT016 BKN040 BKN060 11/05 A2979 RMK AO2 SLP093 T01060050=
202403241600 SPECI KSEA 241600Z 01004KT 10SM SCT011 BKN037 BKN060 08/06 A2977 RMK AO2 T00830056=
202403241553 METAR KSEA 241553Z 00000KT 10SM SCT011 BKN022 BKN060 08/06 A2977 RMK AO2 SLP087 T00830056=
202403241453 METAR KSEA 241453Z 30003KT 10SM SCT009 SCT014 BKN021 08/06 A2975 RMK AO2 SLP080 T00780056 53021=
202403241405 SPECI KSEA 241405Z 33003KT 10SM SCT009 OVC012 08/06 A2973 RMK AO2 T00780056=
202403241353 METAR KSEA 241353Z 35005KT 10SM BKN009 OVC015 08/06 A2972 RMK AO2 SLP072 T00780056=
202403241253 METAR KSEA 241253Z 00000KT 10SM BKN009 OVC048 08/06 A2970 RMK AO2 SLP065 T00780056=
202403241243 SPECI KSEA 241243Z 31003KT 10SM SCT009 OVC045 08/05 A2970 RMK AO2 T00780050=
202403241210 SPECI KSEA 241210Z 00000KT 10SM SCT022 OVC040 08/06 A2969 RMK AO2 T00780056=
202403241201 SPECI KSEA 241201Z 00000KT 10SM BKN022 OVC038 08/06 A2969 RMK AO2 T00780056=
202403241153 METAR KSEA 241153Z 32003KT 10SM SCT024 OVC036 08/06 A2968 RMK AO2 SLP059 70007 T00780056 10083 20078 51013=
202403241053 METAR KSEA 241053Z 02006KT 10SM OVC035 08/05 A2967 RMK AO2 SLP054 T00780050=
202403241016 SPECI KSEA 241016Z 02005KT 10SM FEW011 OVC034 08/06 A2966 RMK AO2 T00780056=
202403240953 METAR KSEA 240953Z 36006KT 10SM BKN011 OVC034 08/06 A2966 RMK AO2 SLP051 T00780056=
202403240945 SPECI KSEA 240945Z 36006KT 10SM OVC011 08/06 A2966 RMK AO2 T00780056=
202403240932 SPECI KSEA 240932Z 35004KT 10SM BKN009 OVC036 08/06 A2966 RMK AO2 T00780056=
202403240908 SPECI KSEA 240908Z 36004KT 10SM SCT007 OVC037 08/06 A2965 RMK AO2 T00780056=
202403240853 METAR KSEA 240853Z 35003KT 10SM BKN007 OVC033 08/06 A2965 RMK AO2 SLP046 T00780056 51012=
202403240843 SPECI KSEA 240843Z 34003KT 10SM BKN007 OVC032 08/06 A2964 RMK AO2 T00780056=
202403240822 SPECI KSEA 240822Z 36004KT 10SM SCT007 OVC030 08/06 A2964 RMK AO2 T00780056=
202403240807 SPECI KSEA 240807Z 35005KT 10SM FEW006 OVC029 08/06 A2964 RMK AO2 T00780056=
202403240753 METAR KSEA 240753Z 01005KT 10SM BKN029 OVC036 08/06 A2963 RMK AO2 SLP042 T00780056 401170078=
202403240724 SPECI KSEA 240724Z 36005KT 10SM FEW008 BKN026 OVC037 08/06 A2963 RMK AO2 T00780056=
202403240653 METAR KSEA 240653Z 36005KT 10SM OVC024 08/06 A2962 RMK AO2 SLP038 T00780056=
202403240608 SPECI KSEA 240608Z 02006KT 10SM BKN025 BKN050 08/06 A2961 RMK AO2 T00780056=
202403240553 METAR KSEA 240553Z 02006KT 10SM SCT042 BKN050 BKN060 08/06 A2961 RMK AO2 RAB26E33 SLP034 P0000 60000 T00780056 10111 20078 51010=
202403240453 METAR KSEA 240453Z 01006KT 10SM SCT011 BKN043 BKN055 08/06 A2960 RMK AO2 SLP031 T00830056=
202403240353 METAR KSEA 240353Z 35006KT 10SM FEW011 SCT046 BKN060 08/05 A2959 RMK AO2 SLP028 T00830050=
202403240253 METAR KSEA 240253Z 34005KT 10SM FEW013 SCT046 BKN060 BKN150 08/06 A2958 RMK AO2 SLP024 T00830056 53008=
202403240153 METAR KSEA 240153Z 35008KT 10SM FEW015 BKN040 BKN150 09/06 A2957 RMK AO2 SLP021 T00890056=
202403240053 METAR KSEA 240053Z 35009KT 10SM SCT015 BKN030 BKN150 10/07 A2956 RMK AO2 SLP016 T01000067=
202403232353 METAR KSEA 232353Z 01007KT 10SM FEW015 BKN030 BKN070 BKN140 11/07 A2956 RMK AO2 SLP015 60000 T01110072 10117 20089 55003=
202403232337 SPECI KSEA 232337Z 01008KT 10SM FEW015 BKN030 BKN070 BKN140 11/07 A2956 RMK AO2 T01110067=
202403232253 METAR KSEA 232253Z 36006KT 10SM SCT015 BKN028 BKN130 11/07 A2955 RMK AO2 SLP014 T01110072=
202403232227 SPECI KSEA 232227Z 02006KT 10SM SCT010 BKN015 BKN030 BKN130 11/07 A2956 RMK AO2 T01110072=
202403232153 METAR KSEA 232153Z 36007KT 10SM SCT010 BKN032 BKN120 11/07 A2956 RMK AO2 SLP016 T01060072=
202403232113 SPECI KSEA 232113Z 36005KT 10SM SCT009 BKN016 BKN026 11/07 A2956 RMK AO2 T01110072=
202403232053 METAR KSEA 232053Z 34004KT 10SM FEW009 SCT028 BKN070 11/07 A2956 RMK AO2 SLP018 60000 T01110072 58001=
202403231953 METAR KSEA 231953Z 05005KT 10SM SCT008 BKN030 BKN070 11/07 A2957 RMK AO2 SLP019 T01060072=
202403231916 SPECI KSEA 231916Z 03005KT 9SM FEW005 SCT020 BKN050 11/07 A2957 RMK AO2 T01060072=
202403231853 METAR KSEA 231853Z 07004KT 7SM SCT005 BKN010 OVC020 10/07 A2957 RMK AO2 RAE1757 SLP020 P0000 T01000072=
202403231833 SPECI KSEA 231833Z 14003KT 5SM BR BKN005 BKN010 OVC040 09/08 A2957 RMK AO2 RAE1757 P0000 T00940078=
202403231753 METAR KSEA 231753Z VRB06KT 3SM -RA BR SCT005 SCT010 BKN045 09/08 A2957 RMK AO2 SLP019 P0004 60007 T00940078 10094 20083 58002=
202403231733 SPECI KSEA 231733Z 04009KT 4SM -RA BR SCT005 SCT015 BKN035 09/07 A2958 RMK AO2 P0003 T00940072=
202403231723 SPECI KSEA 231723Z 00000KT 3SM -RA BR SCT004 BKN010 OVC035 09/08 A2958 RMK AO2 P0002 T00940078=
202403231721 SPECI KSEA 231721Z 00000KT 2 1/2SM -RA BR SCT004 BKN015 OVC035 09/08 A2958 RMK AO2 P0002 T00940078=
202403231702 SPECI KSEA 231702Z 35004KT 1 3/4SM -RA BR BKN004 OVC010 09/07 A2958 RMK AO2 P0001 T00890072=
202403231653 METAR KSEA 231653Z 30004KT 3SM -RA BR BKN004 BKN010 OVC020 09/07 A2958 RMK AO2 RAB41 SLP023 P0001 T00890072=
202403231641 SPECI KSEA 231641Z 34004KT 3SM -RA BR BKN004 BKN015 OVC035 09/07 A2958 RMK AO2 RAB41 P0000 T00890072=
202403231618 SPECI KSEA 231618Z 00000KT 2 1/2SM BR BKN002 BKN015 OVC035 09/08 A2958 RMK AO2 T00940078=
202403231614 SPECI KSEA 231614Z 00000KT 2 1/2SM BR SCT002 BKN027 OVC037 09/07 A2958 RMK AO2 T00940072=
202403231553 METAR KSEA 231553Z 05004KT 5SM BR FEW005 SCT015 BKN025 09/07 A2958 RMK AO2 RAE48 SLP022 P0000 T00940072=
202403231526 SPECI KSEA 231526Z 00000KT 5SM -RA BR FEW005 SCT015 BKN025 09/07 A2958 RMK AO2 P0000 T00890072=
202403231453 METAR KSEA 231453Z 33003KT 4SM -RA BR SCT003 SCT015 BKN050 09/08 A2958 RMK AO2 RAB06E21B28 SLP022 P0001 60002 T00890078 58000=
202403231428 SPECI KSEA 231428Z 01008KT 3SM -RA BR SCT005 BKN015 OVC065 09/07 A2957 RMK AO2 RAB06E21B28 P0000 T00890072=
202403231426 SPECI KSEA 231426Z 01007KT 1 1/2SM BR SCT005 BKN015 OVC065 09/07 A2957 RMK AO2 RAB06E21 P0000 T00890072=
202403231353 METAR KSEA 231353Z 00000KT 9SM SCT005 BKN010 OVC020 09/07 A2958 RMK AO2 RAE16 SLP023 P0000 T00890072=
202403231318 SPECI KSEA 231318Z 00000KT 7SM BKN005 BKN015 OVC055 09/07 A2957 RMK AO2 RAE16 P0000 T00890067=
202403231253 METAR KSEA 231253Z 00000KT 6SM -RA BR SCT003 BKN055 OVC090 09/08 A2957 RMK AO2 RAB36 SLP021 P0001 T00940078=
202403231239 SPECI KSEA 231239Z 00000KT 7SM -RA SCT005 BKN055 OVC095 09/07 A2957 RMK AO2 RAB36 P0000 T00890072=
202403231153 METAR KSEA 231153Z 01004KT 5SM BR SCT048 SCT060 OVC110 08/07 A2958 RMK AO2 SLP022 60004 70022 T00830072 10106 20083 56017=
202403231053 METAR KSEA 231053Z 25005KT 10SM SCT045 BKN060 OVC160 08/07 A2960 RMK AO2 SLP029 T00830067=
202403230953 METAR KSEA 230953Z 10005KT 10SM BKN075 BKN140 OVC200 09/07 A2960 RMK AO2 SLP031 T00940072=
202403230853 METAR KSEA 230853Z 10009KT 10SM SCT075 BKN130 OVC210 10/07 A2963 RMK AO2 RAE28 SLP039 P0000 60004 T01000072 58021=
202403230753 METAR KSEA 230753Z 10009KT 10SM -RA FEW002 BKN050 OVC070 11/08 A2965 RMK AO2 SLP047 P0003 T01060083 401170083=
202403230653 METAR KSEA 230653Z 03004KT 5SM -RA BR SCT002 BKN046 OVC100 11/09 A2967 RMK AO2 RAE19B50 SLP053 P0001 T01060089=
202403230619 SPECI KSEA 230619Z 03006KT 5SM BR SCT002 BKN055 OVC100 11/09 A2967 RMK AO2 RAE19 P0000 T01060089=
202403230553 METAR KSEA 230553Z 00000KT 6SM -RA BR BKN003 BKN015 OVC055 11/09 A2969 RMK AO2 SLP060 PCPN VRY LGT P0000 60006 T01060089 10117 20094 56011=
202403230510 SPECI KSEA 230510Z 12006KT 6SM -RA BR BKN003 BKN016 OVC055 11/09 A2970 RMK AO2 BKN003 V SCT VIS S 2 P0000 T01060089=
202403230453 METAR KSEA 230453Z 08004KT 8SM -RA BKN005 BKN043 OVC060 11/09 A2969 RMK AO2 RAB36 SLP061 P0000 T01060089=
202403230440 SPECI KSEA 230440Z 13004KT 8SM -RA BKN006 BKN043 OVC060 10/09 A2970 RMK AO2 RAB36 P0000 T01000089=
202403230353 METAR KSEA 230353Z 08003KT 7SM FEW002 BKN050 OVC110 11/09 A2971 RMK AO2 RAE35 SLP067 P0001 T01060089=
202403230340 SPECI KSEA 230340Z 06007KT 8SM FEW002 BKN055 OVC110 10/08 A2971 RMK AO2 RAE35 P0001 T01000083=
202403230253 METAR KSEA 230253Z 01003KT 8SM -RA OVC060 10/09 A2972 RMK AO2 RAB18 SLP071 P0001 60005 T01000089 58001=
202403230153 METAR KSEA 230153Z 30006KT 8SM SCT002 OVC050 09/08 A2974 RMK AO2 RAB14E37 SLP077 P0003 T00940083=
202403230131 SPECI KSEA 230131Z 29005KT 4SM -RA BR FEW007 SCT048 OVC055 10/09 A2974 RMK AO2 RAB14 P0003 T01000089=
202403230123 SPECI KSEA 230123Z 29003KT 2 1/2SM -RA BR FEW007 SCT048 OVC055 10/09 A2974 RMK AO2 VIS 1 3/4V4 RAB14 P0002 T01000089=
202403230053 METAR KSEA 230053Z 31006KT 8SM FEW049 OVC070 10/08 A2973 RMK AO2 RAB29E49 SLP075 P0001 T01000083=
202403222353 METAR KSEA 222353Z 36009KT 10SM SCT070 BKN080 OVC150 12/09 A2972 RMK AO2 SLP071 60011 T01170094 10117 20094 56036=
202403222253 METAR KSEA 222253Z 01007KT 10SM SCT003 BKN080 OVC100 12/09 A2976 RMK AO2 SLP085 P0001 T01170094=
202403222153 METAR KSEA 222153Z 03007KT 7SM FEW005 OVC055 11/09 A2979 RMK AO2 RAE50 PRESFR SLP094 P0001 T01060089=
202403222119 SPECI KSEA 222119Z 03007KT 5SM -RA BR FEW004 OVC065 11/08 A2982 RMK AO2 P0001 T01060083=
202403222053 METAR KSEA 222053Z 04004KT 4SM -RA BR FEW010 BKN050 OVC060 11/09 A2983 RMK AO2 SLP109 P0006 60009 T01060089 58021=
202403221953 METAR KSEA 221953Z 00000KT 4SM -RA BR FEW008 BKN040 OVC060 11/08 A2986 RMK AO2 RAB17 SLP119 P0003 T01060083=
202403221853 METAR KSEA 221853Z 00000KT 10SM FEW005 BKN045 OVC060 10/08 A2988 RMK AO2 SLP125 T01000078=
202403221753 METAR KSEA 221753Z 04005KT 10SM FEW004 SCT050 OVC075 09/08 A2989 RMK AO2 RAE53 SLP130 P0001 60001 T00940078 10100 20083 53006=
202403221653 METAR KSEA 221653Z 27008KT 10SM -RA FEW002 BKN075 OVC110 09/08 A2990 RMK AO2 RAB36 SLP131 P0000 T00940078=
202403221553 METAR KSEA 221553Z 36004KT 10SM FEW000 FEW060 BKN120 09/07 A2988 RMK AO2 SLP124 T00890072=
202403221453 METAR KSEA 221453Z 35005KT 10SM FEW000 FEW003 SCT130 BKN160 08/07 A2988 RMK AO2 SLP125 T00830072 56025=
202403221418 SPECI KSEA 221418Z 00000KT 10SM FEW000 SCT002 SCT005 BKN160 08/07 A2989 RMK AO2 T00830072=
202403221407 SPECI KSEA 221407Z 02003KT 3SM BR FEW000 BKN005 08/07 A2989 RMK AO2 T00830072=
202403221357 SPECI KSEA 221357Z 03003KT 3/4SM R16L/3000VP6000FT BR SCT002 SCT006 BKN180 09/07 A2990 RMK AO2 TWR VIS 7 T00890072=
202403221353 METAR KSEA 221353Z 04004KT 7SM R16L/3000VP6000FT FEW002 SCT005 BKN180 09/08 A2990 RMK AO2 SLP131 VIS 1 NE-SE T00940078=
202403221253 METAR KSEA 221253Z 06007KT 10SM FEW002 FEW110 BKN180 09/07 A2992 RMK AO2 SLP140 T00890072=
202403221153 METAR KSEA 221153Z 07004KT 8SM SCT110 BKN170 10/08 A2995 RMK AO2 SLP149 70011 T01000078 10111 20094 58024=
202403221053 METAR KSEA 221053Z 05003KT 8SM FEW100 BKN140 10/08 A2998 RMK AO2 SLP159 T01000078=
202403220953 METAR KSEA 220953Z 08003KT 10SM OVC043 11/08 A3000 RMK AO2 SLP166 T01060078=
202403220853 METAR KSEA 220853Z 00000KT 10SM SCT042 SCT100 BKN150 10/08 A3003 RMK AO2 SLP174 T01000083 58014=
202403220753 METAR KSEA 220753Z 12006KT 10SM FEW038 BKN050 OVC110 11/08 A3004 RMK AO2 SLP180 T01060083 401330078=
202403220653 METAR KSEA 220653Z 10007KT 9SM FEW046 BKN055 OVC075 11/08 A3005 RMK AO2 SLP183 T01060083=
202403220553 METAR KSEA 220553Z 12003KT 10SM OVC046 11/08 A3007 RMK AO2 RAE47 SLP188 P0007 60011 T01110083 10122 20106 50001=
202403220500 SPECI KSEA 220500Z 22004KT 3SM RA BR OVC035 11/08 A3007 RMK AO2 P0003 T01060083=
202403220453 METAR KSEA 220453Z 00000KT 4SM -RA BR BKN006 OVC032 11/08 A3007 RMK AO2 RAB30 SLP191 P0003 T01060083=
202403220428 SPECI KSEA 220428Z 00000KT 10SM BKN005 BKN010 OVC018 11/09 A3008 RMK AO2 T01060089=
202403220412 SPECI KSEA 220412Z 00000KT 10SM FEW007 BKN018 OVC039 11/09 A3007 RMK AO2 T01110089=
202403220353 METAR KSEA 220353Z 09005KT 10SM FEW018 BKN038 OVC045 11/09 A3007 RMK AO2 SLP190 T01110089=
202403220338 SPECI KSEA 220338Z 11003KT 10SM FEW018 BKN038 OVC046 11/09 A3007 RMK AO2 T01110089=
202403220253 METAR KSEA 220253Z 14006KT 10SM FEW015 BKN024 OVC033 11/09 A3007 RMK AO2 RAE05B30E50 SLP188 P0001 60001 T01110089 58002=
202403220207 SPECI KSEA 220207Z 13005KT 10SM FEW015 BKN024 OVC035 12/08 A3007 RMK AO2 RAE05 P0000 T01170083=
202403220153 METAR KSEA 220153Z 17003KT 8SM -RA FEW015 FEW024 OVC034 12/08 A3007 RMK AO2 RAB45 SLP189 P0000 T01170078=
202403220053 METAR KSEA 220053Z 21007KT 10SM FEW022 SCT040 OVC047 12/07 A3007 RMK AO2 SLP191 T01170072=
202403212353 METAR KSEA 212353Z 19006KT 10SM FEW026 SCT045 BKN060 12/07 A3007 RMK AO2 SLP190 T01220072 10133 20106 56005=
202403212253 METAR KSEA 212253Z 22005KT 10SM FEW026 SCT037 BKN060 13/07 A3008 RMK AO2 SLP192 T01280067=
202403211953 METAR KSEA 211953Z 00000KT 10SM SCT025 BKN050 BKN250 13/06 A3009 RMK AO2 SLP196 T01280061=
202403211853 METAR KSEA 211853Z 20006KT 10SM SCT023 BKN060 BKN250 12/04 A3009 RMK AO2 SLP197 T01170044=
202403211841 SPECI KSEA 211841Z 20006KT 10SM SCT023 BKN060 BKN250 12/05 A3009 RMK AO2 T01170050=
202403211753 METAR KSEA 211753Z VRB06KT 10SM SCT018 BKN024 BKN060 BKN250 11/06 A3009 RMK AO2 SLP195 T01110056 10111 20078 52014=
202403211728 SPECI KSEA 211728Z 19005KT 10SM BKN016 BKN023 10/06 A3009 RMK AO2 T01000061=
202403211653 METAR KSEA 211653Z 22005KT 10SM SCT011 SCT030 BKN060 BKN250 10/06 A3007 RMK AO2 SLP190 T01000061=
202403211553 METAR KSEA 211553Z 18005KT 10SM FEW008 BKN030 BKN060 09/07 A3006 RMK AO2 SLP186 T00890067=
202403211453 METAR KSEA 211453Z 15006KT 10SM FEW008 SCT024 BKN250 08/06 A3004 RMK AO2 SLP181 T00780056 53007=
202403211353 METAR KSEA 211353Z 17005KT 10SM FEW008 OVC029 08/06 A3003 RMK AO2 SLP177 T00780061=
202403211253 METAR KSEA 211253Z 18005KT 10SM FEW008 OVC027 08/06 A3002 RMK AO2 SLP173 T00780061=
202403211249 SPECI KSEA 211249Z 18004KT 10SM FEW010 OVC029 08/06 A3002 RMK AO2=
202403211209 SPECI KSEA 211209Z 18005KT 10SM FEW009 OVC033 08/06 A3001 RMK AO2 T00780061=
202403211153 METAR KSEA 211153Z 20005KT 10SM FEW017 OVC033 08/06 A3001 RMK AO2 SLP168 60002 70003 T00780061 10083 20078 53005=
202403211053 METAR KSEA 211053Z 18005KT 10SM FEW026 OVC055 08/06 A3000 RMK AO2 SLP166 T00780061=
202403210953 METAR KSEA 210953Z 19006KT 10SM FEW011 BKN032 OVC041 08/07 A3000 RMK AO2 RAE45 SLP165 P0000 T00830067=
202403210853 METAR KSEA 210853Z 17004KT 9SM -RA FEW017 OVC047 08/07 A2999 RMK AO2 RAE0759B41 SLP163 P0000 60002 T00830067 53000=
202403210818 SPECI KSEA 210818Z 18003KT 9SM FEW009 SCT016 OVC037 08/07 A2999 RMK AO2 RAE0759 P0000 T00830067=
202403210806 SPECI KSEA 210806Z 00000KT 8SM SCT010 BKN015 OVC035 08/07 A2999 RMK AO2 RAE0759 P0000 T00830072=
202403210753 METAR KSEA 210753Z 29003KT 10SM -RA BKN011 OVC017 08/07 A2999 RMK AO2 RAE07B24 SLP162 P0000 T00830067 401060078=
202403210720 SPECI KSEA 210720Z 15005KT 10SM BKN014 BKN036 OVC050 08/06 A2998 RMK AO2 RAE07 P0000 T00830061=
202403210653 METAR KSEA 210653Z 15005KT 10SM -RA FEW017 BKN030 OVC039 08/06 A2999 RMK AO2 SLP162 P0002 T00830061=
202403210553 METAR KSEA 210553Z 16004KT 9SM -RA FEW024 BKN037 OVC044 08/06 A2999 RMK AO2 SLP163 P0001 60001 T00830061 10100 20083 51004=
202403210453 METAR KSEA 210453Z 17004KT 10SM -RA BKN046 OVC070 09/05 A2998 RMK AO2 RAB45 SLP159 P0000 T00890050=
202403210353 METAR KSEA 210353Z 14006KT 10SM FEW065 BKN090 OVC120 09/04 A2999 RMK AO2 SLP161 T00940044=
202403210253 METAR KSEA 210253Z 17004KT 10SM FEW041 SCT055 OVC110 09/04 A2998 RMK AO2 SLP158 T00940044 53001=
202403210153 METAR KSEA 210153Z 14004KT 10SM FEW022 OVC048 10/04 A2997 RMK AO2 SLP156 T01000044=
202403210053 METAR KSEA 210053Z 13007KT 10SM FEW021 OVC048 10/05 A2997 RMK AO2 SLP156 T01000050=
202403202353 METAR KSEA 202353Z 16007KT 10SM FEW030 OVC041 10/04 A2997 RMK AO2 SLP157 T01000044 10106 20083 56009=
202403202253 METAR KSEA 202253Z 19006KT 10SM FEW028 OVC041 10/04 A2998 RMK AO2 SLP159 T01000044=
202403202153 METAR KSEA 202153Z 20008KT 10SM SCT025 BKN033 OVC044 10/04 A2998 RMK AO2 SLP161 T01000039=
202403202053 METAR KSEA 202053Z 20007KT 10SM SCT025 OVC041 11/04 A3000 RMK AO2 SLP167 T01060044 58005=
202403202027 SPECI KSEA 202027Z 20008KT 10SM SCT026 SCT033 OVC043 09/04 A3001 RMK AO2 T00940039=
202403201953 METAR KSEA 201953Z 20008KT 10SM BKN027 OVC041 09/03 A3001 RMK AO2 SLP170 T00940033=
202403201945 SPECI KSEA 201945Z 20007KT 10SM BKN027 OVC041 09/03 A3001 RMK AO2 T00940033=
202403201853 METAR KSEA 201853Z 19008KT 10SM SCT027 OVC041 09/04 A3002 RMK AO2 SLP172 T00940039=
202403201836 SPECI KSEA 201836Z 20007KT 160V230 10SM FEW027 OVC041 09/04 A3002 RMK AO2 T00940039=
202403201753 METAR KSEA 201753Z VRB05KT 10SM BKN026 OVC035 08/03 A3002 RMK AO2 SLP171 T00830033 10083 20078 51004=
202403201653 METAR KSEA 201653Z 19006KT 10SM BKN017 OVC024 08/04 A3002 RMK AO2 SLP171 T00830039=
202403201643 SPECI KSEA 201643Z 21003KT 10SM BKN017 OVC024 08/04 A3002 RMK AO2 T00780039=
202403201615 SPECI KSEA 201615Z 23004KT 10SM BKN014 OVC020 08/04 A3002 RMK AO2 T00780039=
202403201553 METAR KSEA 201553Z 21005KT 10SM BKN015 OVC030 08/03 A3001 RMK AO2 SLP169 T00780033=
202403201453 METAR KSEA 201453Z 21006KT 10SM OVC015 08/03 A3000 RMK AO2 SLP167 T00780033 52001=
202403201353 METAR KSEA 201353Z 21007KT 10SM OVC016 08/03 A3000 RMK AO2 SLP165 T00780033=
202403201253 METAR KSEA 201253Z 21008KT 10SM OVC016 08/03 A3000 RMK AO2 SLP166 T00780033=
202403201153 METAR KSEA 201153Z 22009KT 10SM OVC017 08/03 A3000 RMK AO2 SLP165 T00780033 10083 20072 55004=
202403201053 METAR KSEA 201053Z 22008KT 10SM OVC016 08/03 A3000 RMK AO2 SLP165 T00780033=
202403201009 SPECI KSEA 201009Z 22009G17KT 10SM OVC015 08/03 A3000 RMK AO2 T00780033=
202403200953 METAR KSEA 200953Z 22009KT 10SM OVC014 08/04 A3001 RMK AO2 SLP167 T00780039=
202403200853 METAR KSEA 200853Z 23006KT 10SM OVC012 08/04 A3001 RMK AO2 SLP170 T00830044 51003=
202403200815 SPECI KSEA 200815Z 21006KT 10SM OVC014 08/04 A3001 RMK AO2 T00780044=
202403200753 METAR KSEA 200753Z 22009KT 10SM OVC017 08/04 A3001 RMK AO2 SLP168 T00780039 401780061=
202403200653 METAR KSEA 200653Z 19008KT 10SM BKN015 08/04 A3001 RMK AO2 SLP171 T00780044=
202403200641 SPECI KSEA 200641Z 20006KT 10SM BKN017 08/04 A3001 RMK AO2 T00780044=
202403200553 METAR KSEA 200553Z 19005KT 10SM FEW007 SCT014 08/04 A3001 RMK AO2 SLP168 T00780044 10178 20078 51014=
202403200547 SPECI KSEA 200547Z 21008KT 10SM FEW007 SCT014 08/04 A3001 RMK AO2=
202403200453 METAR KSEA 200453Z 21007KT 10SM FEW020 08/05 A3000 RMK AO2 SLP164 T00830050=
202403200353 METAR KSEA 200353Z 24006KT 10SM CLR 09/05 A2998 RMK AO2 SLP160 T00890050=
202403200253 METAR KSEA 200253Z 25008KT 10SM CLR 11/06 A2996 RMK AO2 SLP153 T01060061 53003=
202403200153 METAR KSEA 200153Z 22006KT 10SM CLR 14/07 A2995 RMK AO2 SLP148 T01390072=
202403200053 METAR KSEA 200053Z 23008KT 10SM CLR 17/07 A2995 RMK AO2 SLP147 T01670072=
202403192353 METAR KSEA 192353Z 23006KT 10SM CLR 17/06 A2995 RMK AO2 SLP149 T01720061 10178 20111 56016=
202403192253 METAR KSEA 192253Z 23007KT 10SM FEW040 17/07 A2996 RMK AO2 SLP153 T01720067=
202403192153 METAR KSEA 192153Z VRB04KT 10SM FEW040 FEW250 17/06 A2997 RMK AO2 SLP156 T01720056=
202403192053 METAR KSEA 192053Z 24004KT 10SM FEW040 FEW250 16/07 A3000 RMK AO2 SLP165 T01560067 58014=
202403191953 METAR KSEA 191953Z 00000KT 10SM SCT250 14/07 A3002 RMK AO2 SLP172 T01440072=
202403191853 METAR KSEA 191853Z 27004KT 10SM SCT250 13/07 A3003 RMK AO2 SLP176 T01330072=
202403191753 METAR KSEA 191753Z 29004KT 10SM SCT250 11/07 A3004 RMK AO2 SLP179 T01110067 10117 20061 51006=
202403191653 METAR KSEA 191653Z 21003KT 10SM SCT250 11/07 A3004 RMK AO2 SLP178 T01060067=
202403191553 METAR KSEA 191553Z 00000KT 10SM SCT250 09/06 A3003 RMK AO2 SLP176 T00940061=
202403191453 METAR KSEA 191453Z 36003KT 10SM FEW250 08/05 A3002 RMK AO2 SLP173 T00780050 55007=
202403191353 METAR KSEA 191353Z 00000KT 10SM FEW250 07/04 A3002 RMK AO2 SLP171 T00670044=
202403191253 METAR KSEA 191253Z 00000KT 9SM FEW250 08/05 A3003 RMK AO2 SLP175 T00780050=
202403191153 METAR KSEA 191153Z 06003KT 10SM CLR 08/05 A3004 RMK AO2 SLP180 T00830050 10117 20067 58006=
202403191053 METAR KSEA 191053Z 36003KT 10SM CLR 08/06 A3006 RMK AO2 SLP184 T00780056=
202403190953 METAR KSEA 190953Z 01005KT 10SM CLR 08/05 A3006 RMK AO2 SLP185 T00830050=
202403190853 METAR KSEA 190853Z 35004KT 10SM CLR 09/05 A3006 RMK AO2 SLP187 T00890050 56004=
202403190753 METAR KSEA 190753Z 35003KT 10SM CLR 10/06 A3006 RMK AO2 SLP187 T01000056 401890067=
202403190653 METAR KSEA 190653Z 01006KT 10SM CLR 11/06 A3007 RMK AO2 SLP190 T01060056=
202403190553 METAR KSEA 190553Z 35006KT 10SM CLR 11/06 A3008 RMK AO2 SLP191 T01060061 10183 20106 58001=
202403190453 METAR KSEA 190453Z 35006KT 10SM CLR 12/06 A3008 RMK AO2 SLP192 T01220061=
202403190353 METAR KSEA 190353Z 36007KT 10SM FEW250 12/06 A3008 RMK AO2 SLP192 T01220056=
202403190253 METAR KSEA 190253Z 36007KT 10SM FEW250 14/04 A3008 RMK AO2 SLP193 T01390039 56009=
202403190153 METAR KSEA 190153Z 35006KT 10SM SCT250 16/04 A3008 RMK AO2 SLP192 T01560044=
202403190053 METAR KSEA 190053Z 30007KT 10SM SCT250 18/06 A3009 RMK AO2 SLP194 T01780061=
202403182353 METAR KSEA 182353Z 29007KT 10SM FEW250 18/06 A3011 RMK AO2 SLP201 T01830061 10189 20128 56017=
202403182253 METAR KSEA 182253Z 33005KT 10SM FEW250 18/07 A3012 RMK AO2 SLP206 T01830067=
202403182153 METAR KSEA 182153Z 01005KT 10SM FEW250 18/06 A3014 RMK AO2 SLP211 T01830061=
202403182053 METAR KSEA 182053Z 35009KT 10SM FEW250 18/07 A3015 RMK AO2 SLP218 T01780067 58018=
202403181953 METAR KSEA 181953Z 35007KT 10SM SCT250 17/07 A3018 RMK AO2 SLP225 T01670067=
202403181853 METAR KSEA 181853Z 02008KT 10SM SCT250 14/06 A3020 RMK AO2 SLP232 T01440061=
202403181753 METAR KSEA 181753Z 36009KT 10SM SCT250 13/06 A3021 RMK AO2 SLP236 T01280061 10128 20067 50001=
202403181653 METAR KSEA 181653Z 03006KT 10SM FEW005 FEW250 11/06 A3021 RMK AO2 SLP238 T01110061=
202403181553 METAR KSEA 181553Z 03007KT 10SM FEW010 FEW250 09/06 A3021 RMK AO2 SLP237 T00940056=
202403181453 METAR KSEA 181453Z 35006KT 8SM FEW010 FEW250 07/05 A3021 RMK AO2 SLP235 T00720050 53003=
202403181353 METAR KSEA 181353Z 03005KT 10SM FEW250 08/05 A3020 RMK AO2 SLP232 T00830050=
202403181253 METAR KSEA 181253Z 02008KT 10SM CLR 08/05 A3020 RMK AO2 SLP231 T00780050 $=
202403181153 METAR KSEA 181153Z 02004KT 10SM CLR 08/04 A3020 RMK AO2 SLP231 T00780044 10133 20078 51001 $=
202403181053 METAR KSEA 181053Z 36005KT 10SM CLR 08/04 A3020 RMK AO2 SLP231 T00780039 $=
202403180953 METAR KSEA 180953Z 01003KT 10SM CLR 10/04 A3019 RMK AO2 SLP230 T01000039 $=
202403180853 METAR KSEA 180853Z 00000KT 10SM CLR 10/04 A3019 RMK AO2 SLP229 T01000039 58002 $=
202403180753 METAR KSEA 180753Z 01003KT 10SM CLR 11/04 A3020 RMK AO2 SLP231 T01110039 402170083 $=
202403180653 METAR KSEA 180653Z 03012KT 10SM CLR 13/03 A3020 RMK AO2 SLP233 T01330028 $=
202403180553 METAR KSEA 180553Z 02008KT 10SM CLR 13/04 A3020 RMK AO2 SLP233 T01330039 10211 20128 51009 $=
202403180453 METAR KSEA 180453Z 03011KT 10SM CLR 14/03 A3020 RMK AO2 SLP231 T01440033 $=
202403180353 METAR KSEA 180353Z 35004KT 10SM CLR 13/04 A3018 RMK AO2 SLP227 T01330039 $=
202403180253 METAR KSEA 180253Z 34005KT 10SM FEW220 16/04 A3017 RMK AO2 SLP224 T01560044 53000 $=
202403180153 METAR KSEA 180153Z 36005KT 10SM FEW220 18/03 A3017 RMK AO2 SLP221 T01830033 $=
202403180053 METAR KSEA 180053Z 02008KT 10SM CLR 21/04 A3016 RMK AO2 SLP219 T02060039 $=
202403172353 METAR KSEA 172353Z 31007KT 10SM CLR 21/03 A3017 RMK AO2 SLP222 T02110033 10217 20133 56012 $=
202403172253 METAR KSEA 172253Z 27006KT 10SM CLR 21/04 A3018 RMK AO2 SLP227 T02060039 $=
202403172153 METAR KSEA 172153Z 01004KT 10SM CLR 21/03 A3019 RMK AO2 SLP229 T02060033 $=
202403172053 METAR KSEA 172053Z 26005KT 10SM CLR 18/00 A3021 RMK AO2 SLP235 T01830000 56009 $=
202403171953 METAR KSEA 171953Z VRB05KT 10SM FEW200 17/04 A3021 RMK AO2 SLP237 T01670039 $=
202403171853 METAR KSEA 171853Z VRB04KT 10SM FEW200 16/04 A3022 RMK AO2 SLP240 T01560039 $=
202403171753 METAR KSEA 171753Z 18005KT 10SM FEW160 13/04 A3023 RMK AO2 SLP244 T01330044 10139 20083 52010 $=
202403171653 METAR KSEA 171653Z 18004KT 10SM FEW110 13/05 A3022 RMK AO2 SLP240 T01330050 $=
202403171553 METAR KSEA 171553Z 17004KT 10SM FEW090 12/04 A3021 RMK AO2 SLP238 T01220044 $=
202403171453 METAR KSEA 171453Z 00000KT 10SM FEW120 09/03 A3020 RMK AO2 SLP234 T00890028 53012 $=
202403171353 METAR KSEA 171353Z 14004KT 10SM FEW120 09/03 A3019 RMK AO2 SLP230 T00940028 $=
202403171253 METAR KSEA 171253Z 17004KT 10SM CLR 09/03 A3018 RMK AO2 SLP226 T00940033 $=
202403171153 METAR KSEA 171153Z 13003KT 10SM CLR 10/03 A3017 RMK AO2 SLP221 T01000033 10150 20100 51011 $=
202403171053 METAR KSEA 171053Z 14006KT 10SM CLR 10/04 A3016 RMK AO2 SLP219 T01000039 $=
202403170953 METAR KSEA 170953Z 14008KT 10SM CLR 12/04 A3015 RMK AO2 SLP216 T01170044 $=
202403170853 METAR KSEA 170853Z 14008KT 10SM CLR 12/05 A3013 RMK AO2 SLP210 T01220050 51015 $=
202403170753 METAR KSEA 170753Z 13008KT 10SM CLR 13/05 A3012 RMK AO2 SLP206 T01280050 402330067 $=
202403170653 METAR KSEA 170653Z 13004KT 10SM FEW250 14/05 A3010 RMK AO2 SLP200 T01390050 $=
202403170553 METAR KSEA 170553Z 14006KT 10SM FEW250 15/05 A3009 RMK AO2 SLP194 T01500050 10233 20150 51018 $=
202403170453 METAR KSEA 170453Z VRB04KT 10SM FEW250 18/04 A3007 RMK AO2 SLP189 T01830044 $=
202403170353 METAR KSEA 170353Z 18003KT 10SM FEW250 16/06 A3006 RMK AO2 SLP184 T01560056 $=
202403170253 METAR KSEA 170253Z 20003KT 10SM FEW250 18/06 A3004 RMK AO2 SLP178 T01830056 53005 $=
202403170153 METAR KSEA 170153Z 22003KT 10SM FEW250 18/06 A3003 RMK AO2 SLP174 T01830056 $=
202403170053 METAR KSEA 170053Z 32004KT 10SM FEW250 23/02 A3002 RMK AO2 SLP170 T02330022 $=
202403162353 METAR KSEA 162353Z VRB03KT 10SM FEW250 22/04 A3002 RMK AO2 SLP171 T02220039 10228 20128 56007 $=
202403162253 METAR KSEA 162253Z 27005KT 10SM FEW250 21/06 A3003 RMK AO2 SLP175 T02110061 $=
202403162153 METAR KSEA 162153Z 24003KT 10SM FEW250 21/05 A3003 RMK AO2 SLP174 T02110050=
202403162053 METAR KSEA 162053Z 00000KT 10SM FEW250 19/07 A3004 RMK AO2 SLP179 T01890067 58004=
202403161953 METAR KSEA 161953Z 00000KT 10SM FEW250 17/06 A3005 RMK AO2 SLP181 T01670061=
202403161853 METAR KSEA 161853Z 32005KT 10SM FEW250 14/06 A3005 RMK AO2 SLP183 T01390061=
202403161753 METAR KSEA 161753Z 00000KT 10SM FEW250 14/06 A3005 RMK AO2 SLP183 T01390056 10139 20067 53004=
202403161653 METAR KSEA 161653Z 02008KT 10SM FEW250 12/05 A3005 RMK AO2 SLP181 T01170050=
202403161553 METAR KSEA 161553Z 36007KT 10SM FEW250 10/04 A3004 RMK AO2 SLP181 T01000044=
202403161453 METAR KSEA 161453Z 35009KT 10SM SCT250 07/04 A3004 RMK AO2 SLP180 T00720039 51004=
202403161353 METAR KSEA 161353Z 02011KT 10SM FEW250 07/04 A3004 RMK AO2 SLP180 T00720044=
202403161253 METAR KSEA 161253Z 02011KT 10SM CLR 07/04 A3004 RMK AO2 SLP178 T00720039=
202403161153 METAR KSEA 161153Z 36007KT 10SM CLR 07/04 A3003 RMK AO2 SLP176 T00720039 10100 20067 56011=
202403161053 METAR KSEA 161053Z 36009KT 10SM CLR 07/03 A3004 RMK AO2 SLP178 T00670033=
202403160953 METAR KSEA 160953Z 36009KT 10SM CLR 07/03 A3005 RMK AO2 SLP183 T00720033=
202403160853 METAR KSEA 160853Z 36007KT 10SM CLR 08/03 A3006 RMK AO2 SLP186 T00830033 58007=
202403160753 METAR KSEA 160753Z 01011KT 10SM CLR 09/03 A3007 RMK AO2 SLP190 T00890033 401670044=
202403160653 METAR KSEA 160653Z 02010KT 10SM CLR 09/04 A3008 RMK AO2 SLP191 T00940039=
202403160553 METAR KSEA 160553Z 36009KT 10SM CLR 09/04 A3008 RMK AO2 SLP194 T00940044 10161 20094 57000=
202403160453 METAR KSEA 160453Z 01010KT 10SM CLR 10/05 A3009 RMK AO2 SLP196 T01000050=
202403160353 METAR KSEA 160353Z 36009KT 10SM CLR 10/05 A3008 RMK AO2 SLP194 T01000050=
202403160253 METAR KSEA 160253Z 36011KT 10SM FEW250 11/04 A3008 RMK AO2 SLP195 T01110044 56008=
202403160153 METAR KSEA 160153Z 36010KT 10SM SCT250 13/04 A3009 RMK AO2 SLP196 T01330044=
202403160053 METAR KSEA 160053Z 35011KT 10SM SCT250 15/04 A3009 RMK AO2 SLP198 T01500044=
202403152353 METAR KSEA 152353Z 35012KT 10SM SCT250 16/05 A3011 RMK AO2 SLP202 T01610050 10167 20106 56024=
202403152253 METAR KSEA 152253Z 35012KT 10SM FEW140 SCT250 16/06 A3013 RMK AO2 SLP209 T01610056=
202403152153 METAR KSEA 152153Z 35013KT 10SM FEW140 SCT250 16/05 A3015 RMK AO2 SLP217 T01560050=
202403152053 METAR KSEA 152053Z 01011KT 10SM FEW140 FEW250 15/04 A3018 RMK AO2 SLP227 T01500044 58023=
202403151953 METAR KSEA 151953Z 36012G18KT 10SM FEW140 FEW250 14/04 A3021 RMK AO2 SLP236 T01390044=
202403151853 METAR KSEA 151853Z 35009KT 10SM FEW140 FEW250 12/05 A3023 RMK AO2 SLP244 ACSL SE T01220050=
202403151753 METAR KSEA 151753Z 02011KT 10SM FEW140 FEW250 11/04 A3025 RMK AO2 SLP250 ACSL SE T01060039 10111 20050 58009=
202403151653 METAR KSEA 151653Z 02011KT 10SM FEW140 SCT250 09/03 A3026 RMK AO2 SLP253 ACSL SE T00890033=
202403151553 METAR KSEA 151553Z 03013KT 10SM FEW010 SCT250 07/03 A3027 RMK AO2 SLP259 T00720033=
202403151453 METAR KSEA 151453Z 03011KT 10SM BKN250 06/03 A3028 RMK AO2 SLP261 T00560028 56007=
202403151353 METAR KSEA 151353Z 03008KT 10SM BKN250 06/03 A3028 RMK AO2 SLP262 T00560028=
202403151253 METAR KSEA 151253Z 03010KT 10SM SCT250 05/03 A3029 RMK AO2 SLP264 T00500028=
202403151153 METAR KSEA 151153Z 02008KT 10SM SCT250 06/03 A3030 RMK AO2 SLP267 T00560028 10072 20044 56010=
202403151053 METAR KSEA 151053Z 36004KT 10SM FEW250 04/02 A3030 RMK AO2 SLP269 T00440022=
202403150953 METAR KSEA 150953Z 02007KT 10SM FEW250 05/02 A3031 RMK AO2 SLP272 T00500017=
202403150853 METAR KSEA 150853Z 03010KT 10SM FEW250 06/02 A3033 RMK AO2 SLP277 T00610022 58011=
202403150753 METAR KSEA 150753Z 02008KT 10SM FEW250 06/02 A3034 RMK AO2 SLP282 T00610022 401390017=
202403150653 METAR KSEA 150653Z 36007KT 10SM SCT250 06/02 A3035 RMK AO2 SLP285 T00610022=
202403150553 METAR KSEA 150553Z 01009KT 10SM SCT250 07/02 A3036 RMK AO2 SLP290 T00720022 10139 20072 57004=
202403150453 METAR KSEA 150453Z 35009KT 10SM SCT250 07/03 A3037 RMK AO2 SLP292 T00720033=
202403150353 METAR KSEA 150353Z 35008KT 10SM SCT250 08/03 A3037 RMK AO2 SLP292 T00780028=
202403150253 METAR KSEA 150253Z 35007KT 10SM BKN250 08/03 A3037 RMK AO2 SLP294 T00830028 56008=
202403150153 METAR KSEA 150153Z 35009KT 10SM BKN250 10/02 A3038 RMK AO2 SLP296 T01000017=
202403150053 METAR KSEA 150053Z 35011KT 10SM BKN250 12/01 A3039 RMK AO2 SLP299 T01220006=
202403142353 METAR KSEA 142353Z 34006KT 10SM BKN250 14/02 A3040 RMK AO2 SLP301 T01390017 10139 20083 56022=
202403142253 METAR KSEA 142253Z 31008KT 10SM BKN250 13/02 A3041 RMK AO2 SLP306 T01280022=
202403142153 METAR KSEA 142153Z 01006KT 10SM BKN250 13/01 A3044 RMK AO2 SLP314 T01280006=
202403142053 METAR KSEA 142053Z 04007KT 10SM BKN250 12/01 A3046 RMK AO2 SLP323 T01170011 58014=
202403141953 METAR KSEA 141953Z 01009KT 10SM BKN250 11/01 A3048 RMK AO2 SLP331 T01110006=
202403141853 METAR KSEA 141853Z VRB06KT 10SM FEW010 BKN250 10/01 A3049 RMK AO2 SLP334 T01000006=
202403141753 METAR KSEA 141753Z 03003KT 10SM FEW010 BKN250 08/01 A3051 RMK AO2 SLP339 T00830011 10083 20017 58007=
202403141653 METAR KSEA 141653Z 36003KT 10SM FEW010 SCT250 06/01 A3052 RMK AO2 SLP343 T00610011=
202403141553 METAR KSEA 141553Z 00000KT 10SM FEW010 SCT250 04/01 A3052 RMK AO2 SLP345 T00390006=
202403141453 METAR KSEA 141453Z 05004KT 10SM FEW010 FEW180 BKN250 03/01 A3053 RMK AO2 SLP347 T00280006 50000=
202403141353 METAR KSEA 141353Z 00000KT 10SM FEW180 SCT250 02/M01 A3053 RMK AO2 SLP347 T00221011=
202403141253 METAR KSEA 141253Z 00000KT 10SM SCT180 02/M01 A3052 RMK AO2 SLP345 T00221011=
202403141153 METAR KSEA 141153Z 00000KT 10SM FEW180 03/M01 A3053 RMK AO2 SLP346 T00281011 10072 20028 51002=
202403141053 METAR KSEA 141053Z 00000KT 10SM BKN180 03/M01 A3052 RMK AO2 SLP344 T00331006=
202403140953 METAR KSEA 140953Z 14003KT 10SM SCT220 04/00 A3053 RMK AO2 SLP346 T00390000=
202403140853 METAR KSEA 140853Z 11005KT 10SM SCT220 04/00 A3052 RMK AO2 SLP344 T00440000 51007=
202403140753 METAR KSEA 140753Z 13003KT 10SM BKN220 04/M01 A3051 RMK AO2 SLP341 T00441006 401110039=
202403140653 METAR KSEA 140653Z 05005KT 10SM BKN220 07/M01 A3051 RMK AO2 SLP340 T00671006=
202403140553 METAR KSEA 140553Z 04006KT 10SM BKN220 07/00 A3050 RMK AO2 SLP336 T00670000 10106 20061 52009=
202403140453 METAR KSEA 140453Z 01004KT 10SM FEW250 07/M01 A3049 RMK AO2 SLP333 T00671006=
202403140353 METAR KSEA 140353Z 35006KT 10SM CLR 07/M01 A3048 RMK AO2 SLP330 T00671006=
202403140253 METAR KSEA 140253Z 35003KT 10SM FEW060 SCT250 07/M01 A3047 RMK AO2 SLP327 T00721006 53006=
202403140153 METAR KSEA 140153Z 36007KT 10SM FEW035 FEW060 BKN250 09/M01 A3046 RMK AO2 SLP324 T00891011=
202403140053 METAR KSEA 140053Z 34005KT 10SM FEW035 FEW060 BKN250 11/01 A3045 RMK AO2 SLP321 T01060006=
202403132353 METAR KSEA 132353Z 30006KT 10SM FEW035 SCT050 BKN250 10/01 A3045 RMK AO2 SLP320 T01000006 10111 20056 50005=
202403132253 METAR KSEA 132253Z 26006KT 10SM FEW035 SCT050 BKN250 10/01 A3045 RMK AO2 SLP321 T01000011=
202403132153 METAR KSEA 132153Z 21004KT 10SM FEW034 SCT050 BKN250 09/01 A3044 RMK AO2 SLP317 T00940006=
202403132053 METAR KSEA 132053Z 33003KT 10SM FEW025 SCT050 BKN200 08/01 A3044 RMK AO2 SLP315 T00830011 50003=
202403132017 SPECI KSEA 132017Z 20003KT 10SM SCT023 BKN200 08/02 A3044 RMK AO2 T00780017=
202403131953 METAR KSEA 131953Z 00000KT 10SM BKN023 BKN200 07/01 A3044 RMK AO2 SLP317 T00720011=
202403131853 METAR KSEA 131853Z 26003KT 10SM BKN020 BKN070 BKN200 07/01 A3043 RMK AO2 SLP314 T00670011=
202403131753 METAR KSEA 131753Z 19004KT 10SM SCT010 BKN016 BKN050 06/01 A3042 RMK AO2 SLP313 T00560011 10061 20039 51015=
202403131736 SPECI KSEA 131736Z 19005KT 10SM SCT010 BKN016 06/01 A3042 RMK AO2 T00560011=
202403131653 METAR KSEA 131653Z 00000KT 10SM FEW010 BKN014 OVC019 05/02 A3042 RMK AO2 SLP308 T00500022=
202403131631 SPECI KSEA 131631Z 22004KT 10SM SCT010 BKN014 OVC019 05/02 A3041 RMK AO2 T00500022=
202403131602 SPECI KSEA 131602Z 21004KT 10SM BKN009 OVC017 05/02 A3040 RMK AO2 T00500017=
202403131553 METAR KSEA 131553Z 20004KT 10SM SCT011 OVC016 05/02 A3039 RMK AO2 SLP301 T00500017=
202403131453 METAR KSEA 131453Z 18005KT 10SM OVC010 04/01 A3038 RMK AO2 SLP297 T00390011 51024=
202403131353 METAR KSEA 131353Z 19004KT 10SM OVC012 04/01 A3035 RMK AO2 SLP287 T00390011=
202403131316 SPECI KSEA 131316Z 20005KT 10SM OVC014 04/01 A3034 RMK AO2 T00390011=
202403131303 SPECI KSEA 131303Z 20005KT 10SM OVC015 04/01 A3034 RMK AO2 T00390011=
202403131253 METAR KSEA 131253Z 19005KT 10SM OVC013 04/01 A3033 RMK AO2 SLP280 T00390011=
202403131153 METAR KSEA 131153Z 19006KT 10SM OVC012 04/01 A3031 RMK AO2 SLP271 70010 T00390011 10050 20039 53014=
202403131053 METAR KSEA 131053Z 17004KT 10SM OVC011 04/01 A3029 RMK AO2 SLP266 T00390011=
202403130953 METAR KSEA 130953Z 20006KT 10SM OVC012 04/01 A3028 RMK AO2 SLP261 T00390006=
202403130853 METAR KSEA 130853Z 20009KT 10SM OVC015 04/01 A3026 RMK AO2 SLP257 T00440011 51024=
202403130753 METAR KSEA 130753Z 19011KT 10SM OVC016 04/01 A3024 RMK AO2 SLP247 T00440011 400940039=
202403130653 METAR KSEA 130653Z 17008KT 120V190 10SM OVC018 04/01 A3022 RMK AO2 SLP243 T00440011=
202403130638 SPECI KSEA 130638Z 19008KT 10SM BKN018 04/01 A3021 RMK AO2 T00440006=
202403130553 METAR KSEA 130553Z 19007KT 10SM SCT018 04/01 A3019 RMK AO2 SLP232 T00440006 10089 20044 51027=
202403130534 SPECI KSEA 130534Z 19006KT 10SM BKN019 05/01 A3018 RMK AO2 T00500011=
202403130453 METAR KSEA 130453Z 23010KT 10SM FEW018 SCT040 06/01 A3017 RMK AO2 SLP223 T00560011=
202403130353 METAR KSEA 130353Z 22010KT 10SM SCT037 BKN095 06/01 A3014 RMK AO2 SLP216 T00610011=
202403130253 METAR KSEA 130253Z 22008KT 10SM BKN036 BKN100 06/01 A3011 RMK AO2 SLP204 T00610011 51031=
202403130153 METAR KSEA 130153Z 23011G18KT 10SM BKN037 BKN100 07/01 A3008 RMK AO2 SLP195 T00720011=
202403130053 METAR KSEA 130053Z 23011G18KT 10SM FEW029 SCT042 BKN120 07/01 A3006 RMK AO2 SLP187 T00720011=
202403122353 METAR KSEA 122353Z 24013KT 10SM FEW031 SCT070 BKN120 08/01 A3002 RMK AO2 PK WND 23026/2303 SLP173 60001 T00830011 10094 20061 53024=
202403122253 METAR KSEA 122253Z 24015G26KT 10SM SCT031 SCT070 BKN150 09/02 A2999 RMK AO2 PK WND 23030/2228 SLP162 SHRA S-SW T00890017=
202403122153 METAR KSEA 122153Z 23019G25KT 10SM FEW027 SCT060 BKN140 09/02 A2996 RMK AO2 SLP153 VCSH T00890017=
202403122053 METAR KSEA 122053Z 21015G24KT 10SM FEW016 SCT048 BKN100 08/03 A2995 RMK AO2 PK WND 21029/2011 LTG DSNT E RAB09E24 SLP148 SHRA E-S P0001 60001 T00780028 51024=
202403121953 METAR KSEA 121953Z 21016G27KT 10SM SCT023 SCT085 BKN110 08/02 A2993 RMK AO2 PK WND 22027/1945 SLP142 VIRGA SE SHRA S-NW T00830017=
202403121853 METAR KSEA 121853Z 20012G29KT 10SM SCT019 BKN050 BKN080 BKN130 08/04 A2990 RMK AO2 PK WND 21029/1817 SLP133 VCSH T00780039=
202403121809 SPECI KSEA 121809Z 21017G28KT 10SM FEW015 BKN030 BKN050 07/03 A2988 RMK AO2 PK WND 20028/1807 VCSH T00670033=
202403121753 METAR KSEA 121753Z 20015KT 7SM SCT015 BKN026 BKN050 06/03 A2987 RMK AO2 RAB06E30 SLP124 VCSH P0001 60009 T00610028 10072 20056 53034=
202403121713 SPECI KSEA 121713Z 23017G25KT 7SM -RA SCT016 BKN021 OVC041 07/03 A2986 RMK AO2 RAB06 PRESRR P0000 T00670033=
202403121653 METAR KSEA 121653Z 20013KT 10SM SCT017 BKN030 OVC090 07/04 A2983 RMK AO2 RAB1556E15 SLP110 P0000 T00720039=
202403121553 METAR KSEA 121553Z 19013G21KT 7SM SCT012 BKN030 BKN070 07/04 A2979 RMK AO2 RAE23 SLP097 P0001 T00670039=
202403121453 METAR KSEA 121453Z 20012KT 7SM -RA SCT013 SCT027 OVC038 07/04 A2977 RMK AO2 RAB35 SLP089 P0001 60007 T00670044 53024=
202403121353 METAR KSEA 121353Z 19013KT 10SM SCT013 BKN030 OVC080 07/04 A2974 RMK AO2 RAE32 SLP079 P0002 T00670044=
202403121337 SPECI KSEA 121337Z 19013KT 10SM SCT013 BKN030 OVC080 07/04 A2974 RMK AO2 RAE32 P0002 T00670044=
202403121253 METAR KSEA 121253Z 21007KT 6SM -RA BR SCT018 BKN025 OVC043 07/05 A2972 RMK AO2 SLP073 P0004 T00720050=
202403121209 SPECI KSEA 121209Z 21007KT 5SM -RA BR BKN025 OVC032 07/05 A2971 RMK AO2 P0002 T00670050=
202403121153 METAR KSEA 121153Z 19005KT 9SM -RA SCT028 OVC041 07/04 A2970 RMK AO2 SLP065 P0001 60010 70022 T00720044 10083 20072 51010=
202403121053 METAR KSEA 121053Z 18009KT 10SM -RA FEW028 BKN040 OVC048 07/04 A2969 RMK AO2 RAE27B50 SLP063 P0001 T00720044=
202403121038 SPECI KSEA 121038Z 18008KT 10SM FEW029 BKN038 OVC065 07/04 A2970 RMK AO2 RAE27 P0001 T00720044=
202403120953 METAR KSEA 120953Z 19010KT 10SM -RA FEW016 BKN027 OVC035 08/04 A2969 RMK AO2 SLP059 P0003 T00780044=
202403120932 SPECI KSEA 120932Z 20012KT 10SM -RA FEW016 BKN029 OVC035 08/04 A2969 RMK AO2 P0002 T00780044=
202403120853 METAR KSEA 120853Z 19010KT 8SM -RA FEW016 SCT041 OVC080 08/04 A2967 RMK AO2 RAE03B48 SLP054 P0000 60005 T00780044 51013=
202403120753 METAR KSEA 120753Z 20011KT 10SM -RA BKN039 BKN048 BKN060 08/04 A2966 RMK AO2 RAB53 SLP050 P0001 T00780044 400940050=
202403120653 METAR KSEA 120653Z 19012G20KT 10SM BKN036 OVC043 08/04 A2965 RMK AO2 RAE49 SLP047 P0004 T00780044=
202403120553 METAR KSEA 120553Z 19010G16KT 10SM -RA OVC032 08/04 A2963 RMK AO2 SLP042 P0004 60008 T00780039 10089 20072 53013=
202403120453 METAR KSEA 120453Z 18014G23KT 10SM -RA FEW039 BKN050 OVC075 08/03 A2960 RMK AO2 RAB43 SLP031 P0000 T00830033=
202403120353 METAR KSEA 120353Z 18012G18KT 10SM OVC037 08/03 A2960 RMK AO2 RAE35 SLP029 P0000 T00830028=
202403120253 METAR KSEA 120253Z 16009KT 10SM -RA OVC037 07/04 A2959 RMK AO2 SLP029 P0003 60004 T00720039 56013=
202403120153 METAR KSEA 120153Z 17011G17KT 10SM -RA OVC038 08/03 A2960 RMK AO2 SLP031 P0001 T00830033=
202403120053 METAR KSEA 120053Z 16009G19KT 110V190 9SM -RA OVC038 08/03 A2960 RMK AO2 SLP031 P0000 T00830033=
202403112353 METAR KSEA 112353Z 17011KT 10SM -RA BKN039 OVC050 08/04 A2963 RMK AO2 SLP042 P0001 60004 T00830039 10094 20072 56025=
202403112253 METAR KSEA 112253Z 18014G27KT 8SM -RA OVC040 08/03 A2965 RMK AO2 PK WND 18027/2247 SLP050 P0002 T00830033=
202403112153 METAR KSEA 112153Z 18013G18KT 10SM -RA FEW036 BKN045 OVC060 09/04 A2968 RMK AO2 SLP059 P0001 T00940039=
202403112053 METAR KSEA 112053Z 16008KT 10SM -RA BKN045 OVC055 09/03 A2971 RMK AO2 RAB40 SLP066 P0000 60000 T00940028 57027=
202403111953 METAR KSEA 111953Z 17006KT 10SM SCT060 BKN070 OVC090 09/02 A2974 RMK AO2 SLP076 T00940022=
202403111853 METAR KSEA 111853Z 14007KT 10SM SCT060 BKN090 OVC200 08/02 A2976 RMK AO2 SLP085 T00830022=
202403111753 METAR KSEA 111753Z 13006KT 10SM SCT060 BKN085 OVC200 07/02 A2979 RMK AO2 SLP095 T00720022 10078 20050 58016=
202403111653 METAR KSEA 111653Z 15004KT 10SM FEW015 FEW046 BKN075 OVC200 07/03 A2980 RMK AO2 SLP100 T00670028=
202403111553 METAR KSEA 111553Z 20003KT 10SM FEW015 BKN075 OVC200 06/03 A2982 RMK AO2 SLP106 T00610033=
202403111453 METAR KSEA 111453Z 14007KT 10SM FEW015 SCT030 BKN070 BKN200 06/03 A2984 RMK AO2 SLP111 T00560028 58005=
202403111353 METAR KSEA 111353Z 17006KT 10SM FEW027 BKN050 BKN060 06/03 A2985 RMK AO2 SLP115 T00610028=
202403111253 METAR KSEA 111253Z 20007KT 10SM SCT038 SCT060 BKN250 06/03 A2985 RMK AO2 SLP115 T00560033=
202403111153 METAR KSEA 111153Z 20013KT 10SM SCT035 SCT080 BKN250 06/03 A2985 RMK AO2 SLP116 60003 70024 T00560033 10078 20056 50002=
202403111053 METAR KSEA 111053Z 19009KT 10SM SCT015 BKN031 BKN080 06/04 A2986 RMK AO2 SLP119 T00610039=
202403110953 METAR KSEA 110953Z 20009KT 10SM FEW015 BKN035 BKN048 06/04 A2985 RMK AO2 RAB0859E38 SLP115 P0003 T00610039=
202403110853 METAR KSEA 110853Z 18009KT 10SM SCT013 BKN033 BKN043 07/04 A2984 RMK AO2 SLP114 60000 T00670044 51012=
202403110832 SPECI KSEA 110832Z 19011KT 10SM SCT013 BKN031 07/04 A2984 RMK AO2 T00670044=
202403110753 METAR KSEA 110753Z 20011KT 10SM BKN015 OVC024 07/04 A2984 RMK AO2 SLP111 CIG 011V018 T00720044 401000061=
202403110653 METAR KSEA 110653Z 20013G19KT 10SM BKN015 OVC024 07/04 A2982 RMK AO2 RAE21 SLP106 CIG 012V018 P0000 T00720044=
202403110623 SPECI KSEA 110623Z 19011G20KT 10SM BKN016 OVC033 08/04 A2982 RMK AO2 RAE21 P0000 T00780044=
202403110553 METAR KSEA 110553Z 19010KT 10SM -RA SCT022 BKN031 OVC050 07/04 A2981 RMK AO2 RAB51 SLP102 SCT V BKN P0000 60009 T00720044 10078 20067 51027=
202403110538 SPECI KSEA 110538Z 19011KT 10SM SCT019 BKN055 OVC070 08/04 A2980 RMK AO2 T00780044=
202403110453 METAR KSEA 110453Z 18009KT 10SM BKN020 BKN026 08/04 A2980 RMK AO2 SLP098 T00780039=
202403110353 METAR KSEA 110353Z 20013G21KT 10SM BKN021 OVC038 08/04 A2976 RMK AO2 SLP085 T00780044=
202403110253 METAR KSEA 110253Z 18011G19KT 10SM FEW024 BKN029 OVC039 08/04 A2973 RMK AO2 RAE0159 SLP075 P0000 60009 T00780044 52013=
202403110153 METAR KSEA 110153Z 17007KT 8SM -RA BKN029 OVC039 07/05 A2972 RMK AO2 RAB07E16B43 SLP071 P0001 T00720050=
202403110053 METAR KSEA 110053Z 17003KT 10SM FEW015 BKN029 OVC050 07/05 A2970 RMK AO2 RAE44 SLP066 P0008 T00670050=
202403110001 SPECI KSEA 110001Z 22007KT 3SM RA OVC026 07/04 A2970 RMK AO2 P0003 T00720039=
202403102353 METAR KSEA 102353Z 22009KT 4SM -RA OVC030 07/04 A2969 RMK AO2 PK WND 19029/2313 SLP062 P0007 60010 T00720039 10094 20072 53011=
202403102253 METAR KSEA 102253Z 20012G18KT 10SM -RA SCT038 OVC045 09/03 A2966 RMK AO2 RAB43 SLP051 P0000 T00940028=
202403102153 METAR KSEA 102153Z 19010KT 10SM FEW029 OVC044 08/04 A2965 RMK AO2 PK WND 18028/2056 RAE43 SLP047 P0002 T00830039=
202403102053 METAR KSEA 102053Z 18014G23KT 10SM -RA OVC033 08/03 A2966 RMK AO2 RAB30 SLP050 P0001 60001 T00830028 50000=
202403101953 METAR KSEA 101953Z 18010G21KT 10SM SCT033 BKN041 OVC050 08/03 A2966 RMK AO2 PK WND 19030/1934 RAE52 SLP051 P0000 T00830028=
202403101853 METAR KSEA 101853Z 22013G22KT 10SM -RA FEW020 OVC036 08/02 A2967 RMK AO2 RAB40 SLP053 P0000 T00780022=
202403101753 METAR KSEA 101753Z 20006KT 10SM FEW020 BKN049 OVC065 08/03 A2966 RMK AO2 SLP050 60002 T00780028 10083 20061 53006=
202403101653 METAR KSEA 101653Z 20007KT 10SM FEW020 BKN060 OVC070 08/03 A2964 RMK AO2 SLP045 T00780028=
202403101553 METAR KSEA 101553Z 20009KT 10SM FEW020 SCT040 BKN100 07/03 A2964 RMK AO2 SLP043 T00720028=
202403101453 METAR KSEA 101453Z 19007KT 10SM BKN030 BKN070 07/03 A2964 RMK AO2 RAE19 SLP045 P0001 60002 T00720028 51021=
202403101353 METAR KSEA 101353Z 22013KT 6SM -RA OVC034 07/03 A2963 RMK AO2 RAE08B43 SLP041 P0000 T00670028=
202403101253 METAR KSEA 101253Z 20012G32KT 10SM -RA OVC041 08/02 A2961 RMK AO2 PK WND 20032/1244 RAB42 SLP035 P0001 T00780017=
202403101153 METAR KSEA 101153Z 18013KT 10SM FEW070 SCT095 08/00 A2958 RMK AO2 PK WND 18028/1101 SLP023 70003 T00830000 10100 20078 56020=
202403101053 METAR KSEA 101053Z 19020G29KT 10SM BKN070 BKN120 09/00 A2959 RMK AO2 PK WND 18037/1029 SLP027 T00890000=
202403100953 METAR KSEA 100953Z 18015G25KT 10SM OVC065 10/M01 A2962 RMK AO2 SLP036 T01001011=
202403100853 METAR KSEA 100853Z 16013KT 10SM BKN070 BKN090 OVC110 09/M01 A2964 RMK AO2 SLP043 T00891006 58030=
202403100753 METAR KSEA 100753Z 17017G26KT 10SM OVC065 09/M01 A2967 RMK AO2 PK WND 17029/0726 SLP054 T00941006 401170050=
202403100653 METAR KSEA 100653Z 16016G23KT 10SM BKN055 OVC070 09/M01 A2970 RMK AO2 SLP063 T00891006=
202403100553 METAR KSEA 100553Z 16016G26KT 10SM OVC060 08/00 A2973 RMK AO2 PK WND 17026/0546 SLP073 60000 T00830000 10083 20072 58021=
202403100453 METAR KSEA 100453Z 18013G22KT 10SM SCT055 OVC075 08/00 A2975 RMK AO2 SLP083 T00780000=
202403100353 METAR KSEA 100353Z 16010KT 10SM SCT055 OVC075 07/01 A2977 RMK AO2 SLP089 T00720006=
202403100253 METAR KSEA 100253Z 16010KT 10SM BKN045 BKN075 07/01 A2979 RMK AO2 SLP096 60000 T00720006 50004=
202403100153 METAR KSEA 100153Z 20015G25KT 10SM FEW030 BKN045 BKN070 08/01 A2981 RMK AO2 SLP101 T00780006=
202403100053 METAR KSEA 100053Z 21013G22KT 10SM FEW050 SCT090 BKN210 08/02 A2980 RMK AO2 PK WND 25034/0021 RAB22E31 SLP100 P0000 T00780022=
202403092353 METAR KSEA 092353Z 19014KT 10SM FEW035 SCT055 BKN120 BKN210 08/03 A2978 RMK AO2 RAE2257 SLP092 P0000 60003 T00830033 10117 20061 51007=
202403092253 METAR KSEA 092253Z 22014G21KT 6SM -RA BR SCT034 BKN050 BKN120 07/03 A2978 RMK AO2 PK WND 26036/2234 LTG DSNT N RAB28 SLP092 OCNL LTGIC DSNT N CB DSNT N P0003 T00670033=
202403092153 METAR KSEA 092153Z 22018G30KT 10SM SCT036 BKN120 11/03 A2976 RMK AO2 PK WND 22034/2119 RAE02 SLP085 P0000 T01060028=
202403092053 METAR KSEA 092053Z 20021G36KT 8SM -RA FEW030 BKN038 OVC050 09/04 A2976 RMK AO2 PK WND 20038/2043 RAE13B48 SLP084 P0000 60000 T00940039 50004=
202403091953 METAR KSEA 091953Z 22016G25KT 10SM -RA BKN038 OVC045 10/03 A2976 RMK AO2 PK WND 20033/1912 RAB51 SLP084 P0000 T01000033=
202403091853 METAR KSEA 091853Z 21017G31KT 10SM FEW041 OVC060 12/02 A2975 RMK AO2 PK WND 20031/1813 SLP082 T01170022=
202403091753 METAR KSEA 091753Z 20014G22KT 10SM FEW046 BKN060 OVC075 11/02 A2975 RMK AO2 RAE14 SLP080 P0000 60000 T01110017 10111 20050 58001=
202403091653 METAR KSEA 091653Z 15008KT 10SM -RA OVC065 07/01 A2975 RMK AO2 RAB48 SLP083 P0000 T00720006=
202403091553 METAR KSEA 091553Z 19003KT 10SM BKN075 OVC090 07/01 A2975 RMK AO2 SLP082 T00720006=
202403091453 METAR KSEA 091453Z 20004KT 10SM OVC080 07/02 A2975 RMK AO2 SLP082 T00670017 56013=
202403091353 METAR KSEA 091353Z 17003KT 10SM BKN100 OVC140 06/03 A2976 RMK AO2 SLP085 T00560033=
202403091253 METAR KSEA 091253Z 17004KT 10SM BKN095 BKN120 OVC200 06/01 A2977 RMK AO2 SLP089 T00560011=
202403091153 METAR KSEA 091153Z 00000KT 10SM SCT140 OVC180 07/00 A2979 RMK AO2 SLP095 T00720000 10094 20056 58022=
202403091053 METAR KSEA 091053Z 17004KT 10SM OVC170 06/02 A2981 RMK AO2 SLP101 T00560017=
202403090953 METAR KSEA 090953Z 16003KT 10SM OVC170 06/00 A2984 RMK AO2 SLP112 T00610000=
202403090853 METAR KSEA 090853Z 12005KT 10SM OVC170 08/M02 A2986 RMK AO2 SLP117 T00831017 58026=
202403090753 METAR KSEA 090753Z 11007KT 10SM BKN160 OVC220 08/00 A2988 RMK AO2 SLP127 T00830000 401220033=
202403090653 METAR KSEA 090653Z 13005KT 10SM BKN150 OVC220 08/M01 A2992 RMK AO2 SLP139 T00781011=
202403090553 METAR KSEA 090553Z 19003KT 10SM SCT140 BKN240 08/01 A2993 RMK AO2 SLP144 T00780006 10111 20067 56011=
202403090453 METAR KSEA 090453Z 00000KT 10SM FEW100 BKN140 BKN200 08/01 A2994 RMK AO2 SLP147 T00780006=
202403090353 METAR KSEA 090353Z 00000KT 10SM FEW100 BKN140 BKN200 08/01 A2995 RMK AO2 SLP149 T00780006=
202403090253 METAR KSEA 090253Z 00000KT 10SM FEW090 BKN130 BKN250 08/01 A2997 RMK AO2 SLP155 T00830011 56019=
202403090153 METAR KSEA 090153Z 00000KT 10SM SCT090 BKN140 BKN250 09/01 A2998 RMK AO2 SLP161 T00940011=
202403090053 METAR KSEA 090053Z 28005KT 10SM SCT090 BKN140 OVC250 11/M01 A2999 RMK AO2 SLP165 T01061006=
202403082353 METAR KSEA 082353Z 31005KT 10SM SCT140 BKN250 11/01 A3002 RMK AO2 SLP174 T01110006 10122 20072 56039=
202403082253 METAR KSEA 082253Z 27007KT 10SM FEW065 SCT110 OVC250 11/01 A3006 RMK AO2 SLP187 T01060006=
202403082153 METAR KSEA 082153Z VRB03KT 10SM FEW065 SCT110 BKN240 11/00 A3009 RMK AO2 SLP198 T01110000=
202403082053 METAR KSEA 082053Z 27005KT 10SM BKN070 OVC110 09/00 A3014 RMK AO2 SLP214 T00940000 58021=
202403081953 METAR KSEA 081953Z 26004KT 10SM BKN065 OVC090 08/00 A3017 RMK AO2 SLP224 T00830000=
202403081853 METAR KSEA 081853Z 28005KT 10SM BKN070 OVC090 08/00 A3018 RMK AO2 SLP229 T00830000=
202403081753 METAR KSEA 081753Z VRB03KT 10SM SCT055 BKN075 OVC090 08/01 A3020 RMK AO2 SLP235 T00780006 10078 20039 58007=
202403081653 METAR KSEA 081653Z 20004KT 10SM BKN070 OVC080 06/01 A3021 RMK AO2 SLP240 T00610011=
202403081553 METAR KSEA 081553Z 22003KT 10SM BKN070 OVC090 05/00 A3023 RMK AO2 SLP244 T00500000=
202403081453 METAR KSEA 081453Z 17004KT 10SM SCT060 BKN075 OVC090 04/M02 A3022 RMK AO2 SLP243 T00441022 55001=
202403081353 METAR KSEA 081353Z 17004KT 10SM BKN060 OVC085 05/M02 A3022 RMK AO2 SLP241 T00501022=
202403081253 METAR KSEA 081253Z 14004KT 10SM OVC070 04/M02 A3022 RMK AO2 SLP241 T00441022=
202403081153 METAR KSEA 081153Z 15004KT 10SM OVC070 04/M02 A3022 RMK AO2 SLP243 T00391022 10044 20033 58009=
202403081053 METAR KSEA 081053Z 15006KT 10SM OVC070 04/M02 A3024 RMK AO2 SLP247 T00391022=
202403080953 METAR KSEA 080953Z 15005KT 10SM OVC080 03/M02 A3025 RMK AO2 SLP251 T00331022=
202403080853 METAR KSEA 080853Z 16006KT 10SM OVC100 03/M02 A3025 RMK AO2 SLP252 T00331022 53005=
202403080753 METAR KSEA 080753Z 13006KT 10SM SCT120 BKN200 03/M03 A3024 RMK AO2 SLP251 T00331028 400831011=
202403080653 METAR KSEA 080653Z 12007KT 10SM BKN130 BKN200 03/M03 A3024 RMK AO2 SLP250 T00331028=
202403080553 METAR KSEA 080553Z 13006KT 10SM SCT250 04/M03 A3024 RMK AO2 SLP248 T00441033 10083 20044 50002=
202403080453 METAR KSEA 080453Z 10004KT 10SM SCT250 05/M04 A3024 RMK AO2 SLP251 T00501039=
202403080353 METAR KSEA 080353Z 00000KT 10SM SCT250 06/M04 A3024 RMK AO2 SLP249 T00561039=
202403080253 METAR KSEA 080253Z 00000KT 10SM FEW180 SCT250 06/M04 A3023 RMK AO2 SLP247 T00561044 53002=
202403080153 METAR KSEA 080153Z 00000KT 10SM FEW045 FEW100 SCT250 07/M05 A3022 RMK AO2 SLP242 T00671050=
202403080053 METAR KSEA 080053Z 28004KT 10SM FEW045 SCT250 08/M05 A3022 RMK AO2 SLP243 T00781050=
202403072353 METAR KSEA 072353Z 28007KT 10SM FEW042 SCT200 08/M06 A3022 RMK AO2 SLP243 T00831056 10083 20039 56005=
202403072253 METAR KSEA 072253Z 20006KT 10SM SCT042 SCT200 08/M04 A3023 RMK AO2 SLP245 T00831044=
202403072153 METAR KSEA 072153Z 27005KT 10SM FEW020 BKN042 BKN200 08/M05 A3022 RMK AO2 SLP244 T00781050=
202403072053 METAR KSEA 072053Z 29005KT 10SM FEW020 SCT041 BKN200 07/M04 A3024 RMK AO2 SLP249 T00721039 51006=
202403071953 METAR KSEA 071953Z 16003KT 10SM SCT010 BKN220 06/M03 A3023 RMK AO2 SLP247 T00611028=
202403071853 METAR KSEA 071853Z 23003KT 10SM FEW010 SCT220 05/M01 A3023 RMK AO2 SLP246 T00501011=
202403071753 METAR KSEA 071753Z VRB03KT 10SM FEW010 FEW220 04/M01 A3022 RMK AO2 SLP243 T00391011 10039 21011 51009=
202403071653 METAR KSEA 071653Z 17004KT 10SM CLR 02/M03 A3022 RMK AO2 SLP241 T00221028=
202403071553 METAR KSEA 071553Z 16005KT 10SM FEW010 FEW060 SCT220 01/M03 A3021 RMK AO2 SLP241 T00061033=
202403071453 METAR KSEA 071453Z 14005KT 10SM FEW010 FEW065 SCT220 M01/M04 A3019 RMK AO2 SLP235 T10111044 53012=
202403071353 METAR KSEA 071353Z 12006KT 10SM FEW065 M01/M04 A3018 RMK AO2 SLP229 T10061044=
202403071253 METAR KSEA 071253Z 14005KT 10SM FEW065 M01/M04 A3016 RMK AO2 SLP225 T10111039=
202403071153 METAR KSEA 071153Z 12005KT 10SM FEW065 M01/M04 A3016 RMK AO2 SLP222 T10061039 10033 21006 51008=
202403071053 METAR KSEA 071053Z 12003KT 10SM SCT065 01/M03 A3015 RMK AO2 SLP219 T00061033=
202403070953 METAR KSEA 070953Z 09003KT 10SM SCT065 01/M03 A3014 RMK AO2 SLP217 T00111033=
202403070853 METAR KSEA 070853Z 03003KT 10SM BKN065 02/M04 A3013 RMK AO2 SLP213 T00171039 53004=
202403070753 METAR KSEA 070753Z 33004KT 10SM BKN070 01/M03 A3013 RMK AO2 SLP211 T00111033 400721022=
202403070653 METAR KSEA 070653Z 07004KT 10SM SCT070 03/M03 A3012 RMK AO2 SLP209 T00281033=
202403070553 METAR KSEA 070553Z 06006KT 10SM SCT070 03/M03 A3012 RMK AO2 SLP208 T00331028 10056 20033 53006=
202403070453 METAR KSEA 070453Z 05007KT 10SM SCT070 03/M03 A3011 RMK AO2 SLP206 T00331028=
202403070353 METAR KSEA 070353Z 03007KT 10SM SCT070 04/M02 A3010 RMK AO2 SLP205 T00391022=
202403070253 METAR KSEA 070253Z 36006KT 10SM BKN070 04/M02 A3010 RMK AO2 SLP204 T00391017 53006=
202403070153 METAR KSEA 070153Z 35004KT 10SM BKN070 04/M03 A3009 RMK AO2 SLP201 T00441028=
202403070053 METAR KSEA 070053Z 31004KT 10SM FEW032 BKN070 06/M03 A3009 RMK AO2 SLP199 T00561033=
202403062353 METAR KSEA 062353Z 26003KT 10SM FEW033 BKN070 06/M05 A3008 RMK AO2 SLP198 T00561050 10072 20022 57002=
202403062253 METAR KSEA 062253Z 32005KT 10SM FEW033 OVC065 06/M03 A3009 RMK AO2 SLP199 T00561033=
202403062153 METAR KSEA 062153Z 31006KT 10SM FEW032 BKN060 06/M03 A3009 RMK AO2 SLP197 T00561033=
202403062053 METAR KSEA 062053Z 25005KT 10SM FEW015 BKN060 BKN200 06/M05 A3009 RMK AO2 SLP199 T00561050 56004=
202403061953 METAR KSEA 061953Z VRB04KT 10SM FEW010 BKN060 BKN200 06/M04 A3010 RMK AO2 SLP201 T00561039=
202403061853 METAR KSEA 061853Z 00000KT 10SM FEW010 BKN060 BKN200 04/M04 A3010 RMK AO2 SLP200 T00391044=
202403061753 METAR KSEA 061753Z 16003KT 10SM FEW010 BKN060 BKN200 02/M05 A3010 RMK AO2 SLP204 T00221050 10022 21022 51006=
202403061653 METAR KSEA 061653Z 16006KT 10SM BKN060 BKN200 01/M06 A3010 RMK AO2 SLP203 T00111056=
202403061553 METAR KSEA 061553Z 13008KT 10SM OVC060 00/M06 A3009 RMK AO2 SLP201 T00001056=
202403061453 METAR KSEA 061453Z 13005KT 10SM SCT055 BKN200 M02/M06 A3008 RMK AO2 SLP197 T10171056 53005=
202403061353 METAR KSEA 061353Z 12006KT 10SM BKN055 M01/M05 A3008 RMK AO2 SLP195 T10111050=
202403061253 METAR KSEA 061253Z 12005KT 10SM SCT055 M02/M05 A3007 RMK AO2 SLP194 T10171050=
202403061153 METAR KSEA 061153Z 16003KT 10SM SCT050 M01/M04 A3007 RMK AO2 SLP192 T10111044 10028 21017 56003=
202403061053 METAR KSEA 061053Z 00000KT 10SM FEW046 M01/M04 A3007 RMK AO2 SLP192 T10061039=
202403060953 METAR KSEA 060953Z 11007KT 10SM FEW046 M01/M04 A3008 RMK AO2 SLP194 T10061044=
202403060853 METAR KSEA 060853Z 12003KT 10SM BKN044 00/M04 A3008 RMK AO2 SLP195 T00001044 53006=
202403060753 METAR KSEA 060753Z 06005KT 10SM FEW050 02/M04 A3007 RMK AO2 SLP192 T00171044 400721006=
202403060653 METAR KSEA 060653Z 04005KT 10SM FEW050 01/M04 A3007 RMK AO2 SLP190 T00111039=
202403060553 METAR KSEA 060553Z 06006KT 10SM CLR 02/M03 A3006 RMK AO2 SLP188 T00221033 10067 20017 53007=
202403060453 METAR KSEA 060453Z 04007KT 10SM CLR 03/M03 A3005 RMK AO2 SLP186 T00281028=
202403060353 METAR KSEA 060353Z 01007KT 10SM CLR 02/M03 A3005 RMK AO2 SLP185 T00221033=
202403060253 METAR KSEA 060253Z 35007KT 10SM FEW040 02/M04 A3004 RMK AO2 SLP182 T00221039 53005=
202403060153 METAR KSEA 060153Z 35008KT 10SM FEW040 FEW250 04/M04 A3003 RMK AO2 SLP178 T00391039=
202403060053 METAR KSEA 060053Z 36008KT 10SM FEW040 FEW250 06/M04 A3002 RMK AO2 SLP176 T00611039=
202403052353 METAR KSEA 052353Z 30010KT 10SM SCT038 SCT250 07/M03 A3002 RMK AO2 SLP176 T00671033 10072 20028 55003=
202403052253 METAR KSEA 052253Z 35006KT 10SM SCT037 SCT250 07/M03 A3002 RMK AO2 SLP175 T00671033=
202403052153 METAR KSEA 052153Z 36006KT 10SM BKN034 06/M02 A3002 RMK AO2 SLP175 T00611022=
202403052053 METAR KSEA 052053Z 35006G16KT 10SM SCT026 07/M02 A3003 RMK AO2 SLP179 T00671017 50001=
202403051953 METAR KSEA 051953Z 02005KT 10SM SCT010 SCT200 06/M02 A3003 RMK AO2 SLP180 T00561017=
202403051853 METAR KSEA 051853Z 04009KT 10SM SCT008 SCT200 04/M02 A3003 RMK AO2 SLP180 T00391017=
202403051800 SPECI KSEA 051800Z 06005KT 10SM SCT004 BKN050 03/M01 A3003 RMK AO2 T00281006=
202403051753 METAR KSEA 051753Z 05005KT 7SM BKN004 BKN050 03/00 A3003 RMK AO2 SLP179 BKN004 V SCT T00280000 10028 20000 51013=
202403051653 METAR KSEA 051653Z 02005KT 1 1/2SM BR BKN003 01/M01 A3002 RMK AO2 SFC VIS 6 SLP176 T00111006=
202403051553 METAR KSEA 051553Z 05006KT 1/2SM R16L/P6000FT BR BKN002 BKN010 01/M01 A3000 RMK AO2 SFC VIS 6 SLP171 T00061011=
202403051453 METAR KSEA 051453Z 03005KT 1/2SM R16L/P6000FT BR BKN002 BKN010 00/M01 A2999 RMK AO2 SFC VIS 5 SLP166 T00001011 53013=
202403051438 SPECI KSEA 051438Z 02005KT 1/2SM R16L/P6000FT BR OVC002 00/M01 A2999 RMK AO2 SFC VIS 5 T00001011=
202403051353 METAR KSEA 051353Z 01006KT 1SM R16L/P6000FT OVC002 01/M01 A2998 RMK AO2 SFC VIS 7 SLP160 T00061006 $=
202403051347 SPECI KSEA 051347Z 01005KT 1SM R16L/P6000FT OVC002 01/M01 A2997 RMK AO2 SFC VIS 7 $=
202403051253 METAR KSEA 051253Z 03004KT 3/4SM R16L/P6000FT OVC002 01/00 A2997 RMK AO2 SFC VIS 5 SLP157 T00110000 $=
202403051153 METAR KSEA 051153Z 05006KT 7SM OVC003 01/00 A2995 RMK AO2 SLP152 70020 T00110000 10033 21006 53002 $=
202403051053 METAR KSEA 051053Z 04003KT 7SM BKN004 OVC055 01/00 A2995 RMK AO2 SLP150 T00110000 $=
202403051043 SPECI KSEA 051043Z 06004KT 10SM BKN004 OVC055 01/00 A2995 RMK AO2 T00110000 $=
202403051010 SPECI KSEA 051010Z 01005KT 10SM SCT009 OVC055 01/M01 A2994 RMK AO2 T00111006 $=
202403050953 METAR KSEA 050953Z 03008KT 10SM FEW002 OVC007 01/M01 A2995 RMK AO2 SLP150 T00111006 $=
202403050942 SPECI KSEA 050942Z 03010KT 10SM FEW002 OVC007 01/M01 A2995 RMK AO2 T00111006 $=
202403050912 SPECI KSEA 050912Z 02007KT 5SM OVC003 01/M01 A2995 RMK AO2 T00061006 $=
202403050853 METAR KSEA 050853Z 36005KT 7SM SCT003 OVC039 00/M01 A2995 RMK AO2 SLP150 T00001011 53002 $=
202403050753 METAR KSEA 050753Z 00000KT 7SM FEW001 SCT055 01/M01 A2993 RMK AO2 SLP144 T00061011 400720006 $=
202403050653 METAR KSEA 050653Z 05006KT 9SM SCT060 02/M01 A2994 RMK AO2 SLP146 T00171006 $=
202403050553 METAR KSEA 050553Z 06007KT 9SM FEW002 SCT029 OVC065 02/M01 A2994 RMK AO2 SNE30 SLP148 P0000 60020 T00171006 10061 20006 58001 $=
202403050534 SPECI KSEA 050534Z 05006KT 9SM SCT001 BKN027 OVC065 01/M01 A2994 RMK AO2 SNE30 P0000 T00111006 $=
202403050505 SPECI KSEA 050505Z 06008KT 5SM -SN BR SCT004 OVC025 01/M01 A2994 RMK AO2 P0000 T00111006 $=
202403050453 METAR KSEA 050453Z 06007KT 3SM -SN BR BKN005 OVC015 01/M01 A2994 RMK AO2 SLP148 P0006 T00111006=
202403050448 SPECI KSEA 050448Z 05008KT 2SM -SN BR BKN005 OVC012 02/M01 A2994 RMK AO2 P0006=
202403050426 SPECI KSEA 050426Z 05004KT 1 1/2SM -SN BR FEW004 OVC012 01/M01 A2994 RMK AO2 P0004 T00111006=
202403050415 SPECI KSEA 050415Z 01003KT 1 1/2SM -SN BR OVC009 01/M01 A2994 RMK AO2 P0003 T00111006=
202403050402 SPECI KSEA 050402Z 07003KT 1SM R16L/P6000FT -SN BR VV009 01/M01 A2994 RMK AO2 P0001 T00111006=
202403050353 METAR KSEA 050353Z VRB03KT 1 1/4SM R16L/5000VP6000FT -SN BR FEW004 OVC010 01/M01 A2994 RMK AO2 RAB0259E43SNB03 SLP149 P0014 T00061011=
202403050349 SPECI KSEA 050349Z 11003KT 1 1/4SM R16L/5000VP6000FT -SN BR FEW004 OVC010 01/M01 A2994 RMK AO2 RAB0259E43SNB03 P0013=
202403050345 SPECI KSEA 050345Z 14004KT 1 3/4SM -SN BR OVC010 01/M01 A2994 RMK AO2 RAB0259E43SNB03 P0011 T00061011=
202403050327 SPECI KSEA 050327Z 00000KT 3SM -RASN OVC013 01/M01 A2994 RMK AO2 RAB0259SNB03 P0007 T00111006=
202403050306 SPECI KSEA 050306Z 34003KT 3SM -RASN BKN017 OVC030 02/M01 A2993 RMK AO2 RAB0259SNB03 P0004 T00171006=
202403050253 METAR KSEA 050253Z 27010KT 10SM SCT031 BKN060 OVC080 02/M01 A2993 RMK AO2 SLP144 T00221006 53006=
202403050153 METAR KSEA 050153Z 36005KT 10SM FEW016 BKN100 BKN180 04/00 A2991 RMK AO2 SLP139 T00440000=
202403050053 METAR KSEA 050053Z 27005KT 10SM FEW025 SCT100 BKN180 06/M02 A2991 RMK AO2 SLP137 T00561017=
202403042353 METAR KSEA 042353Z 26007KT 10SM FEW025 SCT100 BKN200 06/M01 A2991 RMK AO2 SLP136 T00611011 10072 20050 56005=
202403042253 METAR KSEA 042253Z 25010KT 10SM FEW030 FEW050 OVC100 06/M01 A2991 RMK AO2 SLP138 VCSH T00611006=
202403042153 METAR KSEA 042153Z 23011G20KT 10SM FEW020 SCT037 BKN050 BKN200 06/M02 A2991 RMK AO2 SLP138 VCSH T00611017=
202403042053 METAR KSEA 042053Z 24012KT 10SM SCT037 BKN050 BKN060 BKN200 07/M02 A2992 RMK AO2 SLP142 T00721022 50004=
202403041953 METAR KSEA 041953Z 21011KT 10SM SCT034 BKN050 BKN200 07/M03 A2993 RMK AO2 SLP144 T00671033=
202403041853 METAR KSEA 041853Z 20011KT 10SM SCT025 BKN035 BKN200 07/M01 A2992 RMK AO2 SLP141 T00671006=
202403041753 METAR KSEA 041753Z 20011KT 10SM SCT021 BKN200 06/00 A2991 RMK AO2 SLP138 T00560000 10056 20017 51021=
202403041700 SPECI KSEA 041700Z 18009KT 10SM BKN015 04/M01 A2990 RMK AO2 T00391006=
202403041653 METAR KSEA 041653Z 18008KT 10SM SCT017 BKN120 BKN200 04/M01 A2989 RMK AO2 SLP131 T00391006=
202403041627 SPECI KSEA 041627Z 18010KT 10SM SCT017 BKN120 BKN200 03/M01 A2989 RMK AO2 T00281011=
202403041553 METAR KSEA 041553Z 19011KT 10SM SCT016 BKN021 BKN120 BKN200 02/M01 A2987 RMK AO2 SLP124 T00221011=
202403041453 METAR KSEA 041453Z 17007KT 10SM BKN016 BKN021 02/M01 A2985 RMK AO2 SLP117 T00221006 53020=
202403041426 SPECI KSEA 041426Z 20010KT 10SM BKN016 BKN021 02/M01 A2983 RMK AO2 T00221006=
202403041353 METAR KSEA 041353Z 21010KT 10SM BKN014 OVC023 02/00 A2982 RMK AO2 SLP108 CIG 010V018 T00220000=
202403041253 METAR KSEA 041253Z 21011KT 10SM OVC013 02/00 A2981 RMK AO2 SLP103 CIG 011V018 T00220000=
202403041205 SPECI KSEA 041205Z 22011KT 10SM SCT008 OVC013 02/00 A2979 RMK AO2 T00220000=
202403041153 METAR KSEA 041153Z 21011KT 10SM BKN009 OVC013 02/00 A2979 RMK AO2 SLP096 60002 70012 T00220000 10028 20017 51009=
202403041053 METAR KSEA 041053Z 20011KT 10SM BKN007 OVC012 02/01 A2978 RMK AO2 RAE04DZB04E50SNE04 SLP093 P0000 T00220006=
202403041004 SPECI KSEA 041004Z 20011KT 10SM -DZ OVC006 02/00 A2977 RMK AO2 RAE04DZB04SNE04 P0000 T00170000=
202403040953 METAR KSEA 040953Z 20009KT 10SM -RASN OVC006 02/00 A2977 RMK AO2 SNB15 SLP091 P0002 T00170000=
202403040915 SPECI KSEA 040915Z 19013G20KT 6SM -RASN OVC007 02/00 A2976 RMK AO2 SNB15 P0001 T00170000=
202403040853 METAR KSEA 040853Z 20013KT 10SM -RA OVC007 02/00 A2976 RMK AO2 SLP087 P0000 60000 T00170000 53011=
202403040753 METAR KSEA 040753Z 20014KT 9SM -RA OVC008 02/00 A2975 RMK AO2 SLP083 P0000 T00220000 400610017=
202403040737 SPECI KSEA 040737Z 20015G24KT 8SM -RA OVC008 02/00 A2975 RMK AO2 P0000 T00220000=
202403040653 METAR KSEA 040653Z 19012KT 10SM -RA BKN013 OVC018 03/00 A2973 RMK AO2 RAB46 SLP078 P0000 T00280000=
202403040646 SPECI KSEA 040646Z 19013G21KT 10SM -RA BKN013 OVC018 03/00 A2973 RMK AO2 RAB46 P0000 T00280000=
202403040553 METAR KSEA 040553Z 19014G21KT 10SM OVC015 03/00 A2973 RMK AO2 PK WND 20027/0521 RAE42 SLP076 CIG 013V019 P0000 60002 T00280000 10056 20028 52009=
202403040453 METAR KSEA 040453Z 19013KT 10SM -RA BKN016 OVC022 03/00 A2972 RMK AO2 SLP072 P0001 T00330000=
202403040429 SPECI KSEA 040429Z 18010KT 9SM -RA BKN015 OVC022 03/00 A2971 RMK AO2 P0001 T00280000=
202403040353 METAR KSEA 040353Z 19012KT 7SM -RA BKN011 OVC016 03/01 A2971 RMK AO2 PK WND 21027/0321 RAB42 SLP071 P0001 T00280006=
202403040342 SPECI KSEA 040342Z 19014G22KT 8SM -RA BKN013 OVC021 03/00 A2971 RMK AO2 PK WND 21027/0321 RAB42 P0000 T00280000=
202403040253 METAR KSEA 040253Z 19013G19KT 10SM BKN022 OVC044 04/M01 A2970 RMK AO2 SLP066 T00391006 53006=
202403040153 METAR KSEA 040153Z 20013G19KT 10SM BKN026 BKN044 04/M01 A2969 RMK AO2 SLP064 T00441006=
202403040053 METAR KSEA 040053Z 22009KT 10SM SCT022 BKN029 BKN037 05/00 A2969 RMK AO2 SLP061 T00500000=
202403032353 METAR KSEA 032353Z 21012KT 10SM BKN021 BKN030 OVC037 05/M01 A2968 RMK AO2 SLP061 60002 T00501006 10061 20022 53002=
202403032253 METAR KSEA 032253Z 20012G19KT 10SM SCT021 BKN028 BKN033 06/01 A2967 RMK AO2 SLP057 T00560006=
202403032153 METAR KSEA 032153Z 19014G22KT 10SM BKN021 BKN028 OVC033 06/01 A2967 RMK AO2 SLP057 T00560006=
202403032053 METAR KSEA 032053Z 19015G25KT 10SM BKN018 BKN023 OVC033 05/01 A2968 RMK AO2 SLP058 60002 T00500006 50002=
202403031953 METAR KSEA 031953Z 20012G22KT 10SM BKN014 BKN022 BKN050 04/01 A2968 RMK AO2 PK WND 18026/1903 SLP060 T00440011=
202403031853 METAR KSEA 031853Z 18009KT 10SM SCT009 BKN013 OVC039 03/01 A2968 RMK AO2 RAE50 SLP059 P0002 T00280011=
202403031753 METAR KSEA 031753Z 20012KT 8SM -RA FEW010 OVC016 03/01 A2967 RMK AO2 RAE29B37SNB29E37 SLP056 P0004 60006 T00280006 10028 20017 53018=
202403031729 SPECI KSEA 031729Z 19008KT 8SM -SN FEW010 BKN015 OVC022 02/00 A2966 RMK AO2 RAE29SNB29 P0002 T00220000=
202403031718 SPECI KSEA 031718Z 20008KT 10SM -RA SCT015 BKN030 OVC037 03/01 A2966 RMK AO2 P0001 T00280006=
202403031653 METAR KSEA 031653Z 18007KT 10SM -RA BKN030 BKN042 OVC050 02/01 A2965 RMK AO2 RAB52 SLP050 P0000 T00220006=
202403031553 METAR KSEA 031553Z 15009KT 10SM FEW010 BKN039 OVC070 02/00 A2963 RMK AO2 RAE50 SLP043 P0000 T00170000=
202403031453 METAR KSEA 031453Z 17011G19KT 7SM -RA OVC016 02/M01 A2962 RMK AO2 RAB30 SLP038 P0002 60002 T00171006 53010=
202403031427 SPECI KSEA 031427Z 19015G21KT 10SM BKN026 OVC035 03/M01 A2961 RMK AO2 T00281011=
202403031353 METAR KSEA 031353Z 18008KT 10SM OVC047 03/M02 A2961 RMK AO2 SLP034 T00281017=
202403031253 METAR KSEA 031253Z 14004KT 10SM BKN039 02/M02 A2959 RMK AO2 SLP029 T00221022=
202403031153 METAR KSEA 031153Z 15006KT 10SM BKN039 BKN046 OVC110 02/M02 A2959 RMK AO2 SLP028 70009 T00221017 10033 20022 53004=
202403031053 METAR KSEA 031053Z 18004KT 10SM OVC035 03/M02 A2958 RMK AO2 SLP026 T00281017=
202403030953 METAR KSEA 030953Z 14006KT 10SM SCT035 SCT046 OVC060 02/M01 A2958 RMK AO2 SLP025 T00221011=
202403030853 METAR KSEA 030853Z 15004KT 10SM BKN040 OVC055 03/M01 A2958 RMK AO2 SLP024 T00281006 53006=
202403030753 METAR KSEA 030753Z 13005KT 10SM OVC050 03/M01 A2957 RMK AO2 SLP021 T00281006 400670011=
202403030653 METAR KSEA 030653Z 12007KT 10SM OVC055 03/M01 A2957 RMK AO2 SLP021 T00281006=
202403030553 METAR KSEA 030553Z 16004KT 10SM SCT040 BKN070 BKN095 02/00 A2956 RMK AO2 SLP018 60000 T00220000 10056 20022 51002=
202403030453 METAR KSEA 030453Z 20004KT 10SM FEW010 SCT030 BKN040 03/01 A2956 RMK AO2 RAE34 SLP018 P0000 T00280006=
202403030435 SPECI KSEA 030435Z 23004KT 10SM FEW010 BKN030 OVC040 03/01 A2956 RMK AO2 RAE34 P0000 T00280006=
202403030417 SPECI KSEA 030417Z 22009KT 8SM -RA BKN012 BKN020 OVC030 03/01 A2956 RMK AO2 P0000 T00280006=
202403030353 METAR KSEA 030353Z 21009G21KT 9SM -RA SCT012 BKN020 OVC030 03/00 A2956 RMK AO2 PK WND 22027/0332 SLP018 RAB46 P0000 T00280000=
202403030336 SPECI KSEA 030336Z 23018G27KT 10SM SCT019 BKN026 BKN039 03/M01 A2956 RMK AO2 PK WND 22027/0332 T00331006=
202403030253 METAR KSEA 030253Z 21012G18KT 10SM SCT026 BKN060 BKN110 04/M01 A2955 RMK AO2 SLP016 T00391011 53014=
202403030153 METAR KSEA 030153Z 20015G23KT 10SM FEW037 SCT047 BKN100 05/M02 A2953 RMK AO2 SLP007 T00501017=
202403030142 SPECI KSEA 030142Z 21013G19KT 10SM FEW037 SCT047 BKN095 05/M01 A2952 RMK AO2 T00501011=
202403030053 METAR KSEA 030053Z 23009KT 10SM BKN026 BKN038 BKN065 05/M01 A2951 RMK AO2 SLP003 T00501006=
202403022353 METAR KSEA 022353Z 17008KT 10SM FEW008 BKN023 BKN049 04/01 A2951 RMK AO2 SLP002 60005 T00440011 10067 20011 51011=
202403022332 SPECI KSEA 022332Z 18006KT 10SM FEW007 BKN023 OVC047 04/01 A2951 RMK AO2 T00440011=
202403022253 METAR KSEA 022253Z 18006KT 7SM FEW006 SCT031 BKN055 03/01 A2951 RMK AO2 RAB25E36SNB34E53 SLP001 P0005 T00280011=
202403022248 SPECI KSEA 022248Z 21005KT 7SM R16L/4000VP6000FT -SN FEW006 SCT018 BKN036 02/01 A2951 RMK AO2 RAB25E36SNB34 P0005=
202403022234 SPECI KSEA 022234Z 22012G25KT 2 1/2SM R16L/5000VP6000FT RASN BR SCT006 BKN016 OVC042 01/M01 A2951 RMK AO2 RAB25SNB34 P0003 T00111011=
202403022153 METAR KSEA 022153Z 24009KT 10SM FEW030 SCT070 BKN085 05/M02 A2949 RMK AO2 RAB31E41 SLP994 P0000 T00501022=
202403022053 METAR KSEA 022053Z 21008G18KT 10SM SCT038 BKN140 06/M01 A2948 RMK AO2 SLP991 T00561006 51022=
202403021953 METAR KSEA 021953Z 23011KT 10SM FEW024 SCT037 BKN046 06/M01 A2946 RMK AO2 SLP985 VCSH T00611011=
202403021853 METAR KSEA 021853Z 20015G22KT 10SM FEW018 SCT024 BKN100 06/01 A2944 RMK AO2 SLP978 T00560006=
202403021849 SPECI KSEA 021849Z 21011KT 10SM FEW018 SCT024 BKN100 06/01 A2944 RMK AO2=
202403021818 SPECI KSEA 021818Z 21014KT 10SM FEW017 BKN026 BKN200 04/00 A2943 RMK AO2 T00440000=
202403021753 METAR KSEA 021753Z 20013KT 10SM BKN014 BKN200 04/01 A2941 RMK AO2 SLP969 60004 T00440006 10044 20011 53026=
202403021653 METAR KSEA 021653Z 20013KT 10SM BKN014 BKN019 03/01 A2938 RMK AO2 SLP959 T00330006=
202403021604 SPECI KSEA 021604Z 21014G20KT 10SM BKN010 OVC016 03/01 A2936 RMK AO2 T00280006=
202403021553 METAR KSEA 021553Z 21013G21KT 10SM SCT010 BKN016 03/01 A2935 RMK AO2 SNE08 SLP949 P0001 T00280006=
202403021509 SPECI KSEA 021509Z 20009KT 9SM BKN015 BKN026 01/M01 A2933 RMK AO2 SNE08 P0001 T00111006=
202403021453 METAR KSEA 021453Z 22012KT 4SM -SN BR BKN016 OVC024 01/M01 A2934 RMK AO2 PK WND 22028/1432 RAB35E38SNB38 SLP943 P0003 60003 T00111006 53018=
202403021428 SPECI KSEA 021428Z 19010KT 10SM BKN023 OVC031 03/00 A2932 RMK AO2 T00330000=
202403021353 METAR KSEA 021353Z 17009KT 10SM FEW023 BKN030 03/M01 A2931 RMK AO2 SLP933 T00281006=
202403021253 METAR KSEA 021253Z 20007KT 10SM SCT031 BKN060 BKN090 04/00 A2930 RMK AO2 SLP928 T00390000=
202403021153 METAR KSEA 021153Z 19007KT 10SM SCT030 BKN075 BKN090 03/M01 A2928 RMK AO2 SLP924 60000 70013 T00331006 10061 20028 53003=
202403021053 METAR KSEA 021053Z 18007KT 10SM OVC043 03/M01 A2927 RMK AO2 SLP921 T00331006=
202403020953 METAR KSEA 020953Z 18004KT 10SM FEW025 SCT050 OVC080 03/M01 A2927 RMK AO2 RAE06 SLP919 P0000 T00331006=
202403020912 SPECI KSEA 020912Z 18007KT 10SM SCT025 BKN035 OVC045 03/M01 A2928 RMK AO2 RAE06 P0000 T00331006=
202403020853 METAR KSEA 020853Z 17009KT 9SM -RA BKN025 OVC033 04/M01 A2927 RMK AO2 SLP922 P0000 60000 T00391011 55010=
202403020837 SPECI KSEA 020837Z 18007KT 10SM -RA BKN026 OVC035 04/M01 A2927 RMK AO2 PCPN VRY LGT P0000 T00391006=
202403020753 METAR KSEA 020753Z 11006KT 10SM -RA FEW013 BKN032 OVC045 04/M02 A2926 RMK AO2 WSHFT 0640 RAB51 SLP918 PCPN VRY LGT P0000 T00441022 400610017=
202403020657 SPECI KSEA 020657Z VRB06G17KT 10SM SCT025 BKN034 OVC050 05/M01 A2929 RMK AO2 WSHFT 0640 VIRGA T00501011=
202403020653 METAR KSEA 020653Z 11012G24KT 10SM SCT025 BKN034 OVC050 04/M02 A2930 RMK AO2 SLP928 VIRGA T00441017=
202403020553 METAR KSEA 020553Z 05007KT 10SM BKN110 03/00 A2931 RMK AO2 SLP932 60001 T00330000 10050 20017 56031=
202403020453 METAR KSEA 020453Z 02009KT 10SM SCT110 BKN220 03/00 A2932 RMK AO2 SLP936 T00330000=
202403020353 METAR KSEA 020353Z 03006KT 10SM FEW025 BKN220 03/01 A2935 RMK AO2 SLP947 T00330006=
202403020253 METAR KSEA 020253Z 06009KT 10SM FEW025 FEW050 BKN220 03/01 A2940 RMK AO2 SLP964 60001 T00330006 58026=
202403020153 METAR KSEA 020153Z 13003KT 10SM FEW028 SCT050 BKN180 04/M01 A2944 RMK AO2 SLP976 T00441006=
202403020053 METAR KSEA 020053Z 20004KT 10SM FEW028 BKN039 BKN050 04/01 A2946 RMK AO2 RAE12 SLP984 P0001 T00440011=
202403020019 SPECI KSEA 020019Z 00000KT 10SM SCT020 BKN030 BKN045 04/02 A2946 RMK AO2 RAE12 P0001 T00440017=
202403012353 METAR KSEA 012353Z 18005KT 5SM -RA BR FEW015 BKN027 OVC041 04/02 A2948 RMK AO2 RAB2254 SLP990 P0000 60012 T00440017 10050 20022 58003=
202403012329 SPECI KSEA 012329Z 13009KT 7SM -RA SCT010 BKN024 OVC041 04/02 A2948 RMK AO2 RAB2254 P0000 T00440017=
202403012253 METAR KSEA 012253Z 13009KT 9SM FEW013 BKN036 OVC055 04/02 A2949 RMK AO2 SLP995 SNE22RAE22 P0001 T00390017=
202403012226 SPECI KSEA 012226Z 12008KT 10SM SCT018 BKN034 BKN060 03/01 A2949 RMK AO2 SNE22RAE22 P0001 T00330011=
202403012222 SPECI KSEA 012222Z 13008KT 10SM FEW009 BKN023 OVC060 04/02 A2949 RMK AO2 SNE22 P0001 T00390017=
202403012153 METAR KSEA 012153Z 13006KT 4SM -RASN BR SCT009 BKN015 OVC023 03/01 A2949 RMK AO2 SNB35 SLP995 P0006 T00280006=
202403012138 SPECI KSEA 012138Z 16005KT 7SM -RASN FEW009 OVC017 02/00 A2949 RMK AO2 SNB35 P0005 T00220000=
202403012053 METAR KSEA 012053Z 00000KT 7SM R16L/5500VP6000FT -RA SCT017 OVC021 03/01 A2949 RMK AO2 SLP994 P0004 60005 T00280006 58000=
202403011953 METAR KSEA 011953Z 00000KT 7SM -RA BKN019 OVC030 03/00 A2949 RMK AO2 SLP995 P0001 T00330000=
202403011936 SPECI KSEA 011936Z VRB05KT 7SM -RA BKN021 OVC030 04/M01 A2949 RMK AO2 P0000 T00391006=
202403011853 METAR KSEA 011853Z 18007KT 10SM -RA BKN035 OVC048 05/M01 A2949 RMK AO2 SLP995 RAB34 P0000 T00501006=
202403011753 METAR KSEA 011753Z 18005KT 10SM FEW015 BKN065 BKN100 04/M01 A2949 RMK AO2 SLP994 60000 T00441006 10044 20022 58007=
202403011653 METAR KSEA 011653Z 18009KT 10SM FEW015 SCT040 BKN140 04/M01 A2949 RMK AO2 SLP996 T00391011=
202403011553 METAR KSEA 011553Z 19007KT 10SM FEW015 BKN042 BKN050 BKN180 03/M01 A2951 RMK AO2 SLP003 T00331011=
202403011453 METAR KSEA 011453Z 19006KT 10SM FEW015 BKN042 BKN070 BKN220 03/M01 A2951 RMK AO2 SLP001 60000 T00281006 55001=
202403011353 METAR KSEA 011353Z 17008KT 10SM SCT042 BKN055 OVC110 02/01 A2950 RMK AO2 SLP000 T00220006=
202403011253 METAR KSEA 011253Z 16007KT 10SM FEW017 OVC039 02/00 A2950 RMK AO2 RAB10E35B45E52 SLP999 P0000 T00220000=
202403011237 SPECI KSEA 011237Z 18008KT 10SM SCT013 SCT022 OVC029 02/01 A2951 RMK AO2 RAB10E35 P0000 T00220006=
202403011219 SPECI KSEA 011219Z 19012G24KT 10SM -RA BKN014 BKN031 OVC095 03/00 A2951 RMK AO2 RAB10 P0000 T00280000=
202403011211 SPECI KSEA 011211Z 18018G24KT 10SM -RA BKN016 BKN050 OVC095 03/00 A2951 RMK AO2 RAB10 P0000 T00280000=
202403011203 SPECI KSEA 011203Z 17013G20KT 10SM SCT018 BKN050 OVC110 03/00 A2951 RMK AO2 T00280000=
202403011153 METAR KSEA 011153Z 18010KT 10SM BKN018 OVC100 03/00 A2951 RMK AO2 SLP002 60001 70049 T00280000 10033 20022 55000=
202403011133 SPECI KSEA 011133Z 16011KT 10SM BKN019 BKN046 03/00 A2951 RMK AO2 T00280000=
202403011053 METAR KSEA 011053Z 17010KT 10SM BKN065 03/00 A2951 RMK AO2 RAB10E34 SLP001 P0000 T00280000=
202403011000 SPECI KSEA 011000Z 18008KT 10SM SCT014 SCT024 OVC035 03/01 A2951 RMK AO2 T00280011=
202403010953 METAR KSEA 010953Z 18008KT 10SM FEW012 BKN028 OVC037 03/01 A2951 RMK AO2 RAE03 SLP002 P0000 T00280011=
202403010949 SPECI KSEA 010949Z 19008KT 10SM FEW015 BKN028 BKN038 03/01 A2951 RMK AO2 RAE03 P0000=
202403010921 SPECI KSEA 010921Z 17011KT 10SM SCT013 03/01 A2950 RMK AO2 RAE03 P0000 T00280006=
202403010905 SPECI KSEA 010905Z 17010KT 10SM BKN013 OVC027 03/01 A2950 RMK AO2 RAE03 P0000 T00280011=
202403010853 METAR KSEA 010853Z 18010KT 9SM -RA SCT014 OVC025 03/01 A2950 RMK AO2 SLP997 P0001 60001 T00330011 53006=
202403010828 SPECI KSEA 010828Z 18008KT 10SM -RA FEW017 OVC027 03/01 A2949 RMK AO2 P0000 T00330011=
202403010753 METAR KSEA 010753Z 19012KT 10SM -RA FEW028 BKN039 OVC070 03/01 A2948 RMK AO2 RAB24 SLP992 P0000 T00280006 400610011=
202403010653 METAR KSEA 010653Z 18008KT 10SM BKN055 BKN070 OVC095 03/01 A2947 RMK AO2 SLP989 T00280011=
202403010553 METAR KSEA 010553Z 15007KT 10SM FEW033 BKN055 03/01 A2948 RMK AO2 SLP992 60034 T00280006 10044 20011 55005=
202403010506 SPECI KSEA 010506Z 15005KT 10SM FEW005 SCT075 BKN120 02/01 A2948 RMK AO2 T00220006=
202403010453 METAR KSEA 010453Z 15006KT 10SM FEW005 BKN026 BKN120 02/01 A2948 RMK AO2 RAB18E51 SLP991 P0002 T00220006=
202403010433 SPECI KSEA 010433Z VRB06KT 5SM -RA SCT006 BKN023 OVC033 02/01 A2949 RMK AO2 RAB18 P0001 T00170006=
202403010400 SPECI KSEA 010400Z 16005KT 10SM FEW004 BKN035 OVC070 01/00 A2949 RMK AO2 T00110000=
202403010353 METAR KSEA 010353Z 16005KT 10SM SCT004 OVC029 01/00 A2949 RMK AO2 RAE51SNB22E51 SLP994 P0009 T00110000=
202403010339 SPECI KSEA 010339Z 22004KT 6SM -RASN BR BKN004 OVC019 01/00 A2949 RMK AO2 SNB22 P0009 T00110000=
202403010323 SPECI KSEA 010323Z 22007KT 2 1/2SM -RASN BR BKN004 OVC010 01/00 A2950 RMK AO2 SNB22 P0008 T00110000=
202403010318 SPECI KSEA 010318Z 21008KT 3SM RA BR BKN004 BKN008 OVC015 01/M01 A2950 RMK AO2 P0007 T00111006=
202403010314 SPECI KSEA 010314Z 22010G18KT 3SM RA BR BKN006 OVC017 01/M01 A2950 RMK AO2 P0006 T00111006=
202403010303 SPECI KSEA 010303Z 22011G18KT 6SM -RA BR SCT008 SCT014 OVC021 02/01 A2950 RMK AO2 P0003 T00220006=
202403010253 METAR KSEA 010253Z 21009KT 9SM -RA FEW012 OVC023 02/01 A2950 RMK AO2 SLP996 P0003 60023 T00220006 55001=
202403010153 METAR KSEA 010153Z 18008KT 9SM -RA FEW005 FEW011 OVC027 02/00 A2949 RMK AO2 SNB12E53 SLP996 P0013 T00170000=
202403010149 SPECI KSEA 010149Z 17009KT 6SM -RASN BR SCT005 OVC021 01/M01 A2949 RMK AO2 SNB12 P0012=
202403010131 SPECI KSEA 010131Z 21006KT 3SM -RASN BR SCT005 OVC011 01/M01 A2950 RMK AO2 SNB12 P0010 T00111006=
202403010112 SPECI KSEA 010112Z 21007KT 3SM RASN BR SCT008 OVC013 02/01 A2950 RMK AO2 SNB12 P0005 T00220006=
202403010109 SPECI KSEA 010109Z 21008KT 3SM RA BR SCT008 OVC013 02/01 A2950 RMK AO2 P0004 T00220006=
202403010053 METAR KSEA 010053Z 22007KT 5SM -RA BR SCT008 OVC015 03/01 A2950 RMK AO2 PK WND 20027/0004 RAB2357 SLP998 P0007 T00280006=
202403010050 SPECI KSEA 010050Z 21008KT 5SM -RA BR SCT008 OVC015 03/01 A2950 RMK AO2 PK WND 20027/0004 RAB2357 P0007=
202403010025 SPECI KSEA 010025Z 20011KT 6SM -RA FEW012 OVC025 03/01 A2950 RMK AO2 PK WND 20027/0004 RAB2357 P0002 T00330006=

# No short TAF reports from KSEA in databse.

###################################
#  large TAF from KSEA
###################################
202403312320 TAF KSEA 312320Z 0100/0206 34008KT P6SM FEW030 FEW200 FM010600
                       15005KT P6SM SCT200 FM010900 17004KT P6SM
                       SCT200 FM011500 21006KT P6SM FEW010 SCT200
                       FM011800 25006KT P6SM SCT200=
202403312052 KSEA 312052Z 3121/0124 36007KT P6SM FEW030 FEW200 FM010500 15005KT
                       P6SM SCT200 FM011500 21006KT P6SM FEW010
                       SCT200 FM011800 24006KT P6SM SCT200=
202403311720 TAF KSEA 311720Z 3118/0124 02008KT P6SM FEW030 SCT200
                      TEMPO 3118/3119 BKN015 FM010600 15005KT P6SM
                       SCT200 FM011500 21006KT P6SM FEW010 SCT200
                       FM011800 23006KT P6SM SCT200=
202403311448 KSEA 311448Z 3115/0118 03007KT P6SM FEW006 BKN010 FM311700 36008KT
                       P6SM SCT010 SCT200 FM010600 16005KT P6SM
                       SCT200 FM011600 22005KT P6SM FEW010 SCT200=
202403311138 TAF KSEA 311138Z 3112/0118 02006KT P6SM SCT200 FM311500 02006KT
                       P6SM BKN006 BKN200 FM311700 35008KT P6SM
                       SCT200 FM010600 15006KT P6SM SCT200=
202403310906 KSEA 310906Z 3109/0112 02007KT P6SM FEW070 SCT250 FM311400 02007KT
                       P6SM SCT007 BKN200 FM311700 35010KT P6SM
                       SCT200 FM010200 35006KT P6SM SCT200 FM011000
                       15005KT P6SM FEW050 SCT200=
202403310520 TAF KSEA 310520Z 3106/0112 04006KT P6SM FEW070 SCT250 FM311400
                       01007KT P6SM SCT007 BKN200 FM311700 35010KT
                       P6SM SCT200 FM010200 35006KT P6SM SCT200
                       FM011000 15005KT P6SM FEW050 SCT200=
202403310301 KSEA 310301Z 3103/0106 02006KT P6SM FEW035 BKN240 FM311400 01007KT
                       P6SM FEW007 BKN200 FM311700 36009KT P6SM
                       FEW050 SCT200 FM312100 33010KT P6SM FEW050
                       SCT200=
202403302320 TAF KSEA 302320Z 3100/0106 34010KT P6SM FEW035 BKN240 FM310500
                       04006KT P6SM SCT200 FM311700 36008KT P6SM
                       SCT050 BKN200 FM312100 34010KT P6SM SCT050
                       BKN200=
202403302040 KSEA 302040Z 3021/3124 01008KT P6SM FEW025 BKN220 FM310500 05006KT
                       P6SM SCT200 FM311700 36008KT P6SM SCT050
                       BKN200=
202403301720 TAF KSEA 301720Z 3018/3124 01008KT P6SM FEW250 FM310500 05006KT
                       P6SM SKC FM311700 36008KT P6SM SKC=
202403301507 KSEA 301507Z 3015/3118 05008KT P6SM SCT010
                      TEMPO 3015/3016 BKN008 FM301600 03008KT P6SM
                       SKC FM301800 34008KT P6SM SKC FM310600 04006KT
                       P6SM SKC=
202403301356 KSEA 301356Z 3014/3118 03008KT P6SM SCT005 FM301600 03008KT P6SM
                       SKC FM301800 34008KT P6SM SKC FM310600 04006KT
                       P6SM SKC=
202403301122 TAF KSEA 301122Z 3012/3118 03008KT P6SM SKC FM301800 34008KT P6SM
                       SKC FM310600 04006KT P6SM SKC=
202403300912 KSEA 300912Z 3009/3112 03008KT P6SM SKC FM301600 32007KT P6SM SCT250
                       FM302000 31011KT P6SM SCT250 FM310600 06005KT
                       P6SM BKN250=
202403300520 TAF KSEA 300520Z 3006/3112 03008KT P6SM SKC FM301000 05006KT P6SM
                       SCT250 FM301600 32007KT P6SM SCT250 FM302000
                       31011KT P6SM SCT250 FM310600 06005KT P6SM
                       BKN250=
202403300334 KSEA 300334Z 3004/3106 36012KT P6SM FEW040 FEW250 FM300700 03007KT
                       P6SM SKC FM301000 05006KT P6SM SCT250 FM301600
                       33007KT P6SM SCT250 FM302000 31011KT P6SM
                       SCT250=
202403292320 TAF KSEA 292320Z 3000/3106 36014KT P6SM BKN250 FM300700 03007KT
                       P6SM SKC FM301000 05006KT P6SM SCT250 FM301600
                       33007KT P6SM SCT250 FM302000 31011KT P6SM
                       SCT250=
202403292100 KSEA 292100Z 2921/3024 30006KT P6SM SCT040 BKN250 FM292300 36014KT
                       P6SM BKN250 FM300700 03007KT P6SM SKC FM301000
                       05006KT P6SM SCT250 FM301600 33009KT P6SM
                       BKN250=
202403291720 TAF KSEA 291720Z 2918/3024 VRB03KT P6SM SCT060 BKN150 FM292000
                       36006KT P6SM SCT070 BKN200 FM292300 36014KT
                       P6SM BKN200 FM300600 03007KT P6SM SKC FM301000
                       05006KT P6SM SCT250 FM301600 36009KT P6SM
                       BKN250=
202403291132 TAF KSEA 291132Z 2912/3018 18008KT P6SM -SHRA BKN035 OVC050 FM291400
                       18008KT P6SM SCT035 BKN050 OVC070 FM291800
                       VRB03KT P6SM BKN070 BKN200 FM292000 36006KT
                       P6SM SCT070 BKN200 FM292300 36014KT P6SM
                       BKN200 FM300600 03006KT P6SM SKC=
202403290911 KSEA 290911Z 2909/3012 18008KT P6SM SCT035 BKN050 OVC080 FM291800
                       35005KT P6SM SCT050 BKN100 FM292100 36010KT
                       P6SM BKN250 FM300600 03008KT P6SM SKC=
202403290520 TAF KSEA 290520Z 2906/3012 21012KT P6SM SCT050 SCT070 FM290900
                       16006KT P6SM OVC050 FM291800 35005KT P6SM
                       SCT050 BKN100 FM292100 36010KT P6SM BKN250=
202403290301 KSEA 290301Z 2903/3006 20010KT P6SM -SHRA FEW035 BKN050 BKN070
                       FM290700 16006KT P6SM -SHRA OVC060 FM291400
                       13004KT P6SM OVC050 FM291700 35005KT P6SM
                       OVC050=
202403282331 TAF KSEA 282331Z 2900/3006 19010G18KT P6SM -SHRA BKN045 OVC050
                       FM290700 16006KT P6SM -SHRA OVC060 FM291400
                       13004KT P6SM OVC050 FM291700 35005KT P6SM
                       OVC050=
202403282123 KSEA 282123Z 2821/2924 19010G18KT P6SM -SHRA BKN045 OVC050 FM290000
                       19010G20KT P6SM -SHRA OVC040 FM290700 16006KT
                       P6SM -SHRA OVC060 FM291500 13004KT P6SM
                       OVC050=
202403281744 TAF KSEA 281744Z 2818/2924 14009KT P6SM -SHRA BKN050 FM282000 19010G21KT
                       P6SM -SHRA BKN045 OVC050 FM290000 19010G20KT
                       P6SM -SHRA OVC040 FM290700 16006KT P6SM
                       -SHRA OVC060 FM291500 13004KT P6SM OVC050=
202403281354 KSEA 281354Z 2814/2918 12009KT P6SM -SHRA SCT045 OVC070 FM281800
                       17008KT P6SM -RA BKN035 OVC050 FM290000
                       19010KT P6SM -SHRA OVC040 FM290700 16006KT
                       P6SM -SHRA OVC060=
202403281124 TAF KSEA 281124Z 2812/2918 13005KT P6SM -SHRA BKN025 OVC030 FM281300
                       12007KT P6SM -SHRA OVC040 FM281800 17008KT
                       P6SM -RA BKN035 OVC050 FM290000 19010KT
                       P6SM -SHRA OVC040 FM290700 16006KT P6SM
                       -SHRA OVC060=
202403280913 KSEA 280913Z 2809/2912 16007KT P6SM -RA FEW004 BKN025 OVC040 FM281000
                       13005KT P6SM -SHRA OVC050 FM281700 17008KT
                       P6SM -RA OVC050 FM290000 19010KT P6SM -SHRA
                       OVC050=
202403280520 TAF KSEA 280520Z 2806/2912 15009KT P6SM FEW050 SCT070 FM280900
                       16007KT P6SM VCSH OVC040 FM281000 13005KT
                       P6SM -SHRA OVC050 FM281700 17008KT P6SM
                       -RA OVC050 FM290000 19010KT P6SM -SHRA OVC050=
202403280236 KSEA 280236Z 2803/2906 19005KT P6SM BKN035 BKN060 FM280700 16007KT
                       P6SM -RA OVC040 FM281000 13005KT P6SM -SHRA
                       OVC050 FM281700 17008KT P6SM -SHRA OVC050=
202403272335 TAF KSEA 272335Z 2800/2906 20009KT P6SM -SHRA BKN035 FM280300 17006KT
                       P6SM VCSH BKN035 FM281000 13005KT P6SM -SHRA
                       OVC050 FM281700 17008KT P6SM -SHRA OVC050=
202403272053 KSEA 272053Z 2721/2824 20009KT P6SM -SHRA BKN035 FM280300 17006KT
                       P6SM VCSH BKN035 FM281000 13005KT P6SM -SHRA
                       OVC050=
202403271732 TAF KSEA 271732Z 2718/2824 14011G20KT P6SM -SHRA OVC035
                      TEMPO 2718/2720 OVC025 FM272000 20009KT P6SM
                       -SHRA OVC035 FM280300 17006KT P6SM VCSH
                       BKN035 FM281000 13005KT P6SM -SHRA OVC050=
202403271720 TAF KSEA 271720Z 2718/2824 14011G20KT P6SM -SHRA OVC035
                      TEMPO 2718/2720 OVC025 FM272000 20009KT P6SM
                       -SHRA OVC035 FM280300 17006KT P6SM VCSH
                       BKN035 FM281000 13005KT P6SM -SHRA OVC050=
202403271350 KSEA 271350Z 2714/2818 12009G15KT P6SM -RA OVC035 FM271600 15011G20KT
                       P6SM -SHRA OVC035
                      TEMPO 2717/2720 OVC025 FM272000 20009KT P6SM
                       VCSH OVC035 FM280300 17006KT P6SM VCSH BKN035=
202403271127 TAF KSEA 271127Z 2712/2818 12009G15KT P6SM -RA OVC040 FM271600
                       15011G20KT P6SM -SHRA OVC035
                      TEMPO 2717/2720 OVC025 FM272000 20009KT P6SM
                       VCSH OVC035 FM280300 17006KT P6SM VCSH BKN035=
202403270900 KSEA 270900Z 2709/2812 15005KT P6SM VCSH OVC040 FM271200 11009G15KT
                       P6SM -RA OVC035 FM271600 15011G20KT P6SM
                       OVC025 FM272000 20009KT P6SM OVC035
                      PROB30 2720/2724 -SHRA FM280000 21010KT P6SM
                       OVC035=
202403270520 TAF KSEA 270520Z 2706/2812 21006KT P6SM FEW050 BKN060 BKN200 FM270800
                       13005KT P6SM BKN080 FM271200 11009G15KT
                       P6SM -RA OVC035 FM271600 15011G20KT P6SM
                       OVC025
                      PROB30 2716/2720 -RA FM272000 20009KT P6SM
                       OVC035
                      PROB30 2720/2724 -SHRA FM280000 21010KT P6SM
                       OVC035=
202403270246 KSEA 270246Z 2703/2806 20008KT P6SM FEW035 SCT250 FM270800 13005KT
                       P6SM VCSH OVC080 FM271200 11009G15KT P6SM
                       -RA OVC035 FM271600 15011G20KT P6SM OVC025
                       PROB30 2716/2720 -RA FM272000 20009KT P6SM
                       OVC035
                      PROB30 2720/2724 -SHRA=
202403262334 TAF KSEA 262334Z 2700/2806 22012G20KT P6SM FEW035 SCT080 FM270800
                       13005KT P6SM VCSH OVC080 FM271200 11009G15KT
                       P6SM -RA OVC035 FM271600 15011G20KT P6SM
                       OVC025
                      PROB30 2716/2720 -RA FM272000 20009KT P6SM
                       OVC035
                      PROB30 2720/2724 -SHRA=
202403262056 KSEA 262056Z 2621/2724 22015G22KT P6SM SCT035 SCT070 FM270000 20008KT
                       P6SM SCT070 FM270500 13005KT P6SM VCSH OVC080
                       FM271200 11011KT P6SM OVC025
                      PROB30 2712/2718 -RA=
202403261914 KSEA 261914Z 2619/2724 22012G20KT P6SM SCT025 BKN035 BKN070 FM270000
                       20008KT P6SM SCT070 FM270500 13005KT P6SM
                       VCSH OVC080 FM271200 11011KT P6SM OVC025
                       PROB30 2712/2718 -RA=
202403261723 TAF KSEA 261723Z 2618/2724 22011G16KT P6SM VCSH OVC020 FM262000
                       22012G18KT P6SM BKN040 FM270000 20008KT
                       P6SM SCT070 FM270500 13005KT P6SM VCSH OVC080
                       FM271200 11011KT P6SM OVC025
                      PROB30 2712/2718 -RA=
202403261456 KSEA 261456Z 2615/2718 23009KT P6SM VCSH BKN010 OVC020 FM261900
                       22011KT P6SM BKN040 FM270000 23008KT P6SM
                       OVC070 FM270300 18005KT P6SM OVC070 FM270900
                       13005KT P6SM VCSH OVC040 FM271200 11006KT
                       P6SM -RA OVC030=
202403261124 TAF KSEA 261124Z 2612/2718 23005KT P6SM VCSH BKN010 OVC015 FM261900
                       22011KT P6SM BKN040 FM270000 23008KT P6SM
                       OVC070 FM270300 18005KT P6SM OVC070 FM270900
                       13005KT P6SM VCSH OVC040 FM271200 11006KT
                       P6SM -RA OVC030=
202403260814 KSEA 260814Z 2608/2712 21007KT P6SM VCSH FEW010 OVC025
                      TEMPO 2608/2610 -RA BKN009 FM261900 22011KT
                       P6SM BKN040 FM270000 23008KT P6SM OVC070=
202403260547 TAF KSEA 260547Z 2606/2712 17006KT P6SM BKN018 BKN020 OVC030 FM260700
                       21007KT P6SM VCSH FEW010 OVC025 FM261900
                       22011KT P6SM BKN040 FM270000 23008KT P6SM
                       OVC070=
202403260239 KSEA 260239Z 2603/2706 14006KT P6SM BKN015 BKN035 FM260700 21007KT
                       P6SM VCSH FEW010 OVC025 FM261900 22011KT
                       P6SM BKN040=
202403252323 TAF KSEA 252323Z 2600/2706 21010KT P6SM -SHRA BKN040 OVC050 FM260300
                       23008KT P6SM VCSH OVC030 FM260700 21007KT
                       P6SM VCSH FEW010 OVC025 FM261900 22011KT
                       P6SM BKN040=
202403252056 KSEA 252056Z 2521/2624 21014KT P6SM -SHRA SCT030 OVC045 FM260000
                       23008KT P6SM VCSH OVC030 FM260700 21007KT
                       P6SM VCSH FEW010 OVC025 FM261700 20008KT
                       P6SM BKN040=
202403251724 TAF KSEA 251724Z 2518/2624 21014KT P6SM VCSH FEW025 BKN035 OVC045
                       FM252200 23008KT P6SM VCSH OVC030 FM260000
                       21007KT P6SM VCSH FEW010 OVC025 FM261700
                       20008KT P6SM BKN040=
202403251456 KSEA 251456Z 2515/2618 20010KT P6SM BKN045 BKN050 FM251700 21010KT
                       P6SM BKN035 OVC045 FM252200 23006KT P6SM
                       VCSH OVC030 FM260000 21005KT P6SM VCSH OVC025
                       FM261500 21007KT P6SM VCSH BKN040=
202403251122 TAF KSEA 251122Z 2512/2618 21009KT P6SM BKN045 BKN050 FM251700
                       21010KT P6SM OVC035 FM252200 23006KT P6SM
                       VCSH OVC030 FM260000 21005KT P6SM VCSH OVC025
                       FM261500 21007KT P6SM VCSH BKN040=
202403250858 KSEA 250858Z 2509/2612 21014KT P6SM SCT015 BKN050 OVC090 FM251200
                       19010KT P6SM OVC030 FM251700 21008KT P6SM
                       OVC035 FM252200 23006KT P6SM VCSH OVC025=
202403250527 TAF KSEA 250527Z 2506/2612 22011G18KT P6SM SCT050 BKN070 FM250900
                       20009KT P6SM OVC030 FM251100 19008KT P6SM
                       OVC025 FM251700 21008KT P6SM OVC035 FM252200
                       23006KT P6SM VCSH OVC025=
202403250300 KSEA 250300Z 2503/2606 20006KT P6SM BKN050 FM250900 18008KT P6SM
                       OVC030 FM251100 19007KT P6SM OVC025 FM251700
                       21009KT P6SM OVC035 FM252200 23006KT P6SM
                       VCSH OVC025=
202403242323 TAF KSEA 242323Z 2500/2606 21006KT P6SM FEW035 FM250300 21006KT
                       P6SM FEW050 BKN100 FM250900 18008KT P6SM
                       OVC030 FM251100 19007KT P6SM OVC025 FM251700
                       21009KT P6SM OVC035 FM252200 23006KT P6SM
                       VCSH OVC025=
202403242102 KSEA 242102Z 2421/2524 29004KT P6SM BKN035 FM250300 21006KT P6SM
                       OVC050 FM250900 20008KT P6SM OVC030 FM251100
                       19007KT P6SM OVC025=
202403241726 TAF KSEA 241726Z 2418/2524 03005KT P6SM SCT016 BKN040 BKN060
                      TEMPO 2418/2421 25005KT FM242100 25006KT
                       P6SM BKN050 FM250300 21006KT P6SM OVC050
                       FM250900 20008KT P6SM OVC030 FM251100 19007KT
                       P6SM OVC025=
202403241536 KSEA 241536Z 2416/2518 30003KT P6SM SCT009 SCT014 BKN021 FM241800
                       22004KT P6SM OVC030 FM242100 25006KT P6SM
                       BKN050 FM250300 21006KT P6SM OVC050 FM250900
                       20008KT P6SM OVC030=
202403241355 KSEA 241355Z 2414/2518 02006KT P6SM VCSH BKN009 OVC035 FM241500
                       24004KT 6SM BR SCT009 OVC015 FM241800 22004KT
                       P6SM OVC030 FM242100 25006KT P6SM BKN050
                       FM250300 21006KT P6SM OVC050 FM250900 20008KT
                       P6SM OVC030=
202403241122 TAF KSEA 241122Z 2412/2518 02006KT P6SM VCSH FEW015 OVC035 FM241500
                       24004KT 6SM BR OVC015 FM241800 22004KT P6SM
                       OVC030 FM242100 25006KT P6SM BKN050 FM250300
                       21006KT P6SM OVC050 FM250900 20008KT P6SM
                       OVC030=
202403240911 KSEA 240911Z 2409/2512 35005KT P6SM VCSH BKN007 OVC035 FM241200
                       34004KT 5SM BR OVC007 FM241500 20004KT 6SM
                       BR OVC015 FM241800 22004KT P6SM OVC025 FM242100
                       25006KT P6SM BKN050 FM250300 21006KT P6SM
                       OVC050=
202403240749 KSEA 240749Z 2408/2512 36005KT P6SM VCSH BKN025 OVC035 FM241200
                       18004KT P6SM BKN015
                      TEMPO 2412/2416 5SM BR OVC007 FM241800 22004KT
                       P6SM OVC025 FM242100 25006KT P6SM BKN050
                       FM250300 21006KT P6SM OVC050=
202403240520 TAF KSEA 240520Z 2406/2512 35006KT P6SM VCSH SCT015 BKN040 FM240900
                       VRB03KT P6SM VCSH OVC015 FM241200 18004KT
                       P6SM BKN015
                      TEMPO 2412/2416 5SM BR OVC007 FM241800 22004KT
                       P6SM OVC025 FM242100 25006KT P6SM BKN050
                       FM250300 21006KT P6SM OVC050=
202403240258 KSEA 240258Z 2403/2506 35006KT P6SM VCSH SCT015 BKN040 FM240700
                       18004KT P6SM -SHRA OVC015 FM241200 17004KT
                       P6SM BKN015 FM241800 21004KT P6SM OVC020
                       FM242100 25006KT P6SM BKN050=
202403232320 TAF KSEA 232320Z 2400/2506 36006KT P6SM VCSH SCT015 BKN028 BKN130
                       FM240300 35006KT P6SM VCSH OVC025 FM240700
                       18004KT P6SM -SHRA OVC015 FM241200 17004KT
                       P6SM BKN015 FM241800 21004KT P6SM OVC020
                       FM242100 25006KT P6SM BKN050=
202403232101 KSEA 232101Z 2321/2424 34004KT P6SM VCSH FEW009 SCT030 BKN070 FM240300
                       35006KT P6SM VCSH OVC030 FM240700 18004KT
                       P6SM -SHRA OVC015 FM241200 17004KT P6SM
                       BKN015 FM241800 21004KT P6SM BKN050=
202403231739 TAF KSEA 231739Z 2318/2424 35004KT 4SM -SHRA BR SCT005 SCT015 OVC035
                       TEMPO 2318/2320 3SM -RA BR BKN005 BKN015
                       FM232000 33004KT P6SM VCSH OVC035 FM240700
                       18004KT P6SM -SHRA OVC015 FM241200 17004KT
                       P6SM BKN015 FM241800 21004KT P6SM BKN050=
202403231522 KSEA 231522Z 2315/2418 33003KT 4SM -RA BR SCT003 SCT015 BKN050
                       TEMPO 2315/2317 BKN005 BKN015 OVC040 FM231700
                       33005KT P6SM -SHRA BKN025 OVC050 FM232100
                       33004KT P6SM VCSH OVC050 FM240300 34006KT
                       P6SM OVC035 FM240700 18004KT P6SM VCSH OVC015=
202403231331 KSEA 231331Z 2314/2418 VRB03KT P6SM VCSH SCT005 BKN040 BKN080
                      TEMPO 2314/2317 6SM BR BKN005 BKN015 OVC040
                       FM231700 15005KT P6SM -SHRA BKN025 OVC050
                       FM232100 33004KT P6SM VCSH OVC050 FM240300
                       34006KT P6SM OVC035 FM240700 18004KT P6SM
                       VCSH OVC015=
202403231123 TAF KSEA 231123Z 2312/2418 11005KT P6SM VCSH BKN050 BKN080
                      TEMPO 2314/2317 6SM -SHRA BR BKN025 OVC040
                       FM231700 15005KT P6SM -SHRA BKN030 OVC050
                       FM232100 33004KT P6SM VCSH OVC050 FM240300
                       34006KT P6SM OVC035 FM240700 18004KT P6SM
                       VCSH OVC015=
202403230906 KSEA 230906Z 2309/2412 11005KT P6SM VCSH BKN040 BKN070
                      TEMPO 2310/2314 6SM -SHRA BR BKN025 OVC040
                       FM231400 15005KT P6SM -SHRA BKN025 OVC040
                       FM232000 02004KT P6SM VCSH OVC040 FM232200
                       32006KT P6SM VCSH OVC050 FM240300 35006KT
                       P6SM OVC025=
202403230520 TAF KSEA 230520Z 2306/2412 14003KT P6SM -RA SCT007 OVC025
                      TEMPO 2306/2310 5SM BR OVC005 FM231200 15005KT
                       P6SM -SHRA BKN020 OVC030
                      TEMPO 2313/2317 3SM BR OVC015 FM232000 02004KT
                       P6SM VCSH OVC040 FM232200 32006KT P6SM VCSH
                       OVC050 FM240300 35006KT P6SM OVC025=
202403230258 KSEA 230258Z 2303/2406 36006KT P6SM VCSH OVC060 FM230600 14003KT
                       P6SM -RA OVC025 FM231200 14005KT P6SM -SHRA
                       BKN020 OVC030 FM232000 02004KT P6SM VCSH
                       OVC040 FM232200 30006KT P6SM VCSH OVC050=
202403222321 TAF KSEA 222321Z 2300/2406 36008KT P6SM VCSH OVC060 FM230600 14003KT
                       P6SM -RA OVC025 FM231200 14005KT P6SM -SHRA
                       BKN020 OVC030 FM232000 02004KT P6SM VCSH
                       OVC040 FM232200 30006KT P6SM OVC050=
202403222056 KSEA 222056Z 2221/2324 02005KT 4SM -RA BR FEW009 BKN040 OVC060
                       FM222200 36006KT P6SM -SHRA OVC050 FM230800
                       11003KT P6SM -RA OVC020 FM231200 14005KT
                       P6SM -SHRA BKN015 OVC025 FM232000 02004KT
                       P6SM VCSH OVC040=
202403221958 KSEA 221958Z 2220/2324 35005KT P6SM -RA BKN040 OVC060 FM222200
                       36006KT P6SM -SHRA OVC050 FM230800 11003KT
                       P6SM -RA OVC020 FM231200 14005KT P6SM -SHRA
                       BKN015 OVC025 FM232000 02004KT P6SM VCSH
                       OVC040=
202403221728 TAF KSEA 221728Z 2218/2324 01007KT P6SM -RA BKN050 OVC100 FM222000
                       35007KT P6SM -SHRA OVC060 FM230800 11003KT
                       P6SM -RA OVC020 FM231200 14005KT P6SM -SHRA
                       BKN015 OVC025 FM232000 02004KT P6SM VCSH
                       OVC040=
202403221623 KSEA 221623Z 2216/2318 35005KT P6SM BKN150 FM221700 01007KT P6SM
                       -RA OVC060 FM222000 35007KT P6SM -SHRA OVC060
                       FM230800 11003KT P6SM RA OVC020=
202403221512 KSEA 221512Z 2215/2318 35005KT P6SM BKN150 FM221700 01007KT P6SM
                       OVC060 FM222000 35007KT P6SM -SHRA OVC060
                       FM230800 11003KT P6SM RA OVC020=
202403221120 TAF KSEA 221120Z 2212/2318 04005KT P6SM OVC060 FM221700 01007KT
                       P6SM OVC060 FM222000 35007KT P6SM -SHRA
                       OVC060 FM230800 11003KT P6SM RA OVC020=
202403220906 KSEA 220906Z 2209/2312 12003KT P6SM BKN045 OVC050 FM221200 04005KT
                       P6SM OVC060 FM221700 01007KT P6SM OVC060
                       FM222100 35007KT P6SM -SHRA OVC060 FM230000
                       34005KT P6SM -SHRA OVC050=
202403220520 TAF KSEA 220520Z 2206/2312 14005KT P6SM SCT015 BKN025 OVC035
                      TEMPO 2206/2208 4SM -RA BR OVC007 FM220800
                       12003KT P6SM BKN035 OVC050 FM221200 04005KT
                       P6SM OVC060 FM221700 01007KT P6SM OVC060
                       FM222100 35007KT P6SM -SHRA OVC060 FM230000
                       34005KT P6SM -SHRA OVC050=
202403220300 KSEA 220300Z 2203/2306 14005KT P6SM SCT015 BKN025 OVC035 FM220800
                       12003KT P6SM BKN035 OVC050 FM221200 04005KT
                       P6SM OVC060 FM221700 01007KT P6SM OVC060
                       FM222100 35007KT P6SM -SHRA OVC060 FM230000
                       34005KT P6SM -SHRA OVC050=
202403212329 TAF KSEA 212329Z 2200/2306 21005KT P6SM VCSH BKN050 OVC070 FM220500
                       14003KT P6SM BKN035 OVC050 FM221200 06005KT
                       P6SM OVC060 FM221700 01007KT P6SM OVC060
                       FM222100 35007KT P6SM -SHRA OVC060 FM230000
                       34005KT P6SM -SHRA OVC050=
202403212106 KSEA 212106Z 2121/2224 20003KT P6SM SCT025 OVC050 FM212300 21005KT
                       P6SM VCSH OVC040 FM220500 14003KT P6SM BKN035
                       OVC050 FM221200 06005KT P6SM OVC070 FM222100
                       35007KT P6SM -SHRA OVC060=
202403211720 TAF KSEA 211720Z 2118/2224 20007KT P6SM SCT025 OVC050 FM212300
                       21005KT P6SM VCSH OVC040 FM220500 14005KT
                       P6SM BKN035 OVC050 FM221200 06005KT P6SM
                       OVC070 FM222100 01006KT P6SM -SHRA OVC060=
202403211500 KSEA 211500Z 2115/2218 19005KT P6SM FEW008 SCT025 OVC040 FM211700
                       20007KT P6SM SCT025 OVC050 FM212300 21005KT
                       P6SM -SHRA OVC035 FM220500 14005KT P6SM
                       VCSH OVC025=
202403211138 TAF KSEA 211138Z 2112/2218 19005KT P6SM BKN015 OVC040 FM212300
                       21005KT P6SM -SHRA OVC035 FM220500 14005KT
                       P6SM VCSH OVC025=
202403210851 KSEA 210851Z 2109/2212 20005KT P6SM -SHRA BKN015 OVC035 FM211200
                       19006KT 6SM BR OVC020 FM212300 15005KT P6SM
                       -SHRA OVC035=
202403210520 TAF KSEA 210520Z 2106/2212 18006KT P6SM -SHRA SCT030 OVC050 FM210800
                       20005KT P6SM -SHRA OVC025 FM211200 19006KT
                       6SM BR OVC020 FM212300 15005KT P6SM -SHRA
                       OVC035=
202403210302 KSEA 210302Z 2103/2206 17005KT P6SM FEW040 OVC050 FM210500 22006KT
                       P6SM VCSH OVC035 FM210700 20005KT P6SM -SHRA
                       OVC025 FM211200 19005KT 6SM BR OVC020
                      PROB30 2112/2115 -RA FM211500 18004KT 6SM
                       BR OVC025 FM212300 22007KT P6SM OVC035=
202403202320 TAF KSEA 202320Z 2100/2206 20008KT P6SM FEW030 OVC040 FM210300
                       22006KT P6SM VCSH OVC035 FM210500 20005KT
                       P6SM -SHRA OVC025 FM211200 19005KT 6SM BR
                       OVC020
                      PROB30 2112/2115 -RA FM211500 18004KT 6SM
                       BR OVC025 FM212300 22007KT P6SM OVC035=
202403202053 KSEA 202053Z 2021/2124 20008KT P6SM SCT025 SCT030 OVC040 FM210300
                       22006KT P6SM VCSH OVC020 FM210500 20005KT
                       P6SM -SHRA OVC025 FM211200 19005KT 6SM BR
                       OVC020
                      PROB30 2112/2114 -RA FM211400 18004KT 6SM
                       BR OVC025=
202403201720 TAF KSEA 201720Z 2018/2124 19006KT P6SM BKN017 OVC025 FM202100
                       23010KT P6SM OVC025 FM210300 22006KT P6SM
                       VCSH OVC020 FM210500 20005KT P6SM -SHRA
                       OVC025 FM211200 19005KT 6SM BR OVC020
                      PROB30 2112/2114 -RA=
202403201459 KSEA 201459Z 2015/2118 21006KT P6SM OVC015 FM202100 19010KT P6SM
                       OVC025 FM210300 19006KT P6SM VCSH OVC020
                       FM210500 20005KT P6SM -SHRA OVC025 FM211200
                       19005KT P6SM OVC020
                      PROB30 2112/2114 -RA=
202403201303 KSEA 201303Z 2013/2118 22007KT P6SM SCT009 OVC015 FM202100 19008G16KT
                       P6SM SCT015 OVC035 FM210300 19006KT P6SM
                       VCSH OVC025 FM210500 20005KT P6SM -SHRA
                       OVC025=
202403201139 TAF KSEA 201139Z 2012/2118 22006KT P6SM SCT009 OVC015 FM202100
                       19005KT P6SM SCT015 OVC035 FM210300 19006KT
                       P6SM VCSH OVC025 FM210500 20005KT P6SM -SHRA
                       OVC025=
202403200857 KSEA 200857Z 2009/2112 22006KT P6SM SCT009 OVC015 FM202100 19005KT
                       P6SM SCT015 OVC035 FM210300 19006KT P6SM
                       VCSH OVC025=
202403200651 KSEA 200651Z 2007/2112 22006KT P6SM SCT009 OVC015 FM201800 19005KT
                       P6SM SCT015 OVC040 FM202000 21008KT P6SM
                       FEW020 BKN040 OVC060 FM210500 19006KT P6SM
                       VCSH OVC025=
202403200520 TAF KSEA 200520Z 2006/2112 23006KT P6SM SCT250 FM200900 20005KT
                       P6SM SCT009 OVC015 FM201800 19005KT P6SM
                       SCT015 OVC040 FM202000 21008KT P6SM FEW020
                       BKN040 OVC060 FM210500 19006KT P6SM VCSH
                       OVC025=
202403200254 KSEA 200254Z 2003/2106 22006KT P6SM SCT250 FM201000 20005KT P6SM
                       BKN007 OVC010 FM201800 19005KT P6SM BKN020
                       OVC060 FM202000 21008KT P6SM FEW020 BKN040
                       OVC070 FM210300 19006KT P6SM VCSH OVC040=
202403192320 TAF KSEA 192320Z 2000/2106 22006KT P6SM SCT250 FM201000 20005KT
                       P6SM BKN007 OVC010 FM201800 19005KT P6SM
                       BKN020 OVC060 FM202000 21008KT P6SM FEW020
                       BKN040 OVC070 FM210300 19006KT P6SM VCSH
                       OVC040=
202403192041 KSEA 192041Z 1921/2024 27003KT P6SM FEW250 FM192300 22006KT P6SM
                       SCT250 FM201000 20005KT P6SM BKN007 OVC010
                       FM201700 19005KT P6SM BKN020 OVC060 FM202000
                       21008KT P6SM SCT030 OVC050=
202403191720 TAF KSEA 191720Z 1918/2024 23003KT P6SM FEW250 FM192200 22006KT
                       P6SM SCT250 FM201000 20005KT P6SM BKN007
                       OVC010 FM201800 19005KT P6SM BKN020 OVC060
                       FM202100 21008KT P6SM SCT030 OVC050=
202403191425 KSEA 191425Z 1914/2018 25003KT P6SM FEW250 FM192100 23007KT P6SM
                       SCT250 FM200400 21007KT P6SM SCT150 FM200900
                       23005KT P6SM OVC007=
202403191122 TAF KSEA 191122Z 1912/2018 01006KT P6SM FEW250 FM191800 30005KT
                       P6SM FEW250 FM192100 25007KT P6SM SCT250
                       FM200400 21007KT P6SM SCT150 FM200900 23005KT
                       P6SM OVC007=
202403190854 KSEA 190854Z 1909/2012 01006KT P6SM FEW250 FM191200 35003KT 6SM
                       BCFG SCT004 FM191800 30005KT P6SM FEW250
                       FM192100 25007KT P6SM SCT250 FM200400 21007KT
                       P6SM SCT150=
202403190520 TAF KSEA 190520Z 1906/2012 01006KT P6SM FEW250 FM191200 35003KT
                       6SM BCFG SCT004 FM191800 30005KT P6SM FEW250
                       FM192100 25007KT P6SM SCT250 FM200400 21007KT
                       P6SM SCT150=
202403190301 KSEA 190301Z 1903/2006 01006KT P6SM FEW250 FM191200 VRB03KT 6SM
                       BCFG SCT004 FM191700 30005KT P6SM FEW250
                       FM192100 25007KT P6SM SCT250=
202403182322 TAF KSEA 182322Z 1900/2006 35008KT P6SM FEW250 FM190400 02006KT
                       P6SM FEW250 FM191200 VRB03KT 6SM BCFG SCT004
                       FM191500 33006KT P6SM FEW250 FM191800 24007KT
                       P6SM SCT250=
202403182108 KSEA 182108Z 1821/1924 35009KT P6SM FEW250 FM190300 02005KT P6SM
                       FEW250 FM191200 VRB03KT P6SM SCT002 FM191500
                       03006KT P6SM FEW250=
202403181742 TAF KSEA 181742Z 1818/1924 03007KT P6SM FEW005 FEW250 FM182000
                       36007KT P6SM FEW250 FM190400 03005KT P6SM
                       FEW250 FM191200 VRB03KT P6SM SCT002 FM191500
                       03006KT P6SM FEW250=
202403181500 KSEA 181500Z 1815/1918 36006KT P6SM FEW010 FEW250 FM181700 34009KT
                       P6SM FEW250 FM190400 02006KT P6SM FEW250
                       FM191300 VRB03KT P6SM SCT002=
202403181136 TAF KSEA 181136Z 1812/1918 02006KT P6SM SKC FM181500 02006KT P6SM
                       SCT002 FM181700 36008KT P6SM SKC FM191300
                       VRB03KT P6SM SCT002=
202403180914 KSEA 180914Z 1809/1912 02006KT P6SM FEW250 FM181400 02006KT P6SM
                       SCT004 FM181700 36008KT P6SM FEW250=
202403180538 TAF KSEA 180538Z 1806/1912 02008KT P6SM FEW250 FM181400 02006KT
                       P6SM SCT004 FM181700 36008KT P6SM FEW250=
202403180253 KSEA 180253Z 1803/1906 01006KT P6SM FEW250 FM181200 02005KT P6SM
                       SCT004 FM181700 36007KT P6SM FEW250=
202403172320 TAF KSEA 172320Z 1800/1906 31006KT P6SM SKC FM180200 01006KT P6SM
                       FEW250 FM181100 01006KT P6SM SCT004 FM181700
                       01006KT P6SM FEW250=
202403172111 KSEA 172111Z 1721/1824 26005KT P6SM SKC FM172200 32006KT P6SM FEW120
                       FM180200 01006KT P6SM SCT120 FM181400 01006KT
                       P6SM SCT004
                      TEMPO 1814/1816 4SM BR BKN004 FM181700 01006KT
                       P6SM SKC=
202403171746 TAF KSEA 171746Z 1718/1824 20004KT P6SM FEW110 FM171900 32006KT
                       P6SM FEW120 FM180200 01006KT P6SM SCT120
                       FM181400 01006KT P6SM SCT004
                      TEMPO 1814/1816 4SM BR BKN004 FM181700 01006KT
                       P6SM SKC=
202403171454 KSEA 171454Z 1715/1818 14004KT P6SM FEW120 FM171800 32006KT P6SM
                       SCT120 FM180200 01006KT P6SM SCT120 FM181400
                       01006KT 4SM BR BKN004 FM181700 01006KT P6SM
                       SKC=
202403171126 TAF KSEA 171126Z 1712/1818 15006KT P6SM SKC FM171800 32006KT P6SM
                       SKC FM180200 01006KT P6SM SKC FM181400 01006KT
                       4SM BR BKN004 FM181700 01006KT P6SM SKC=
202403170909 KSEA 170909Z 1709/1812 15006KT P6SM SKC FM171700 32006KT P6SM SKC
                       FM180200 01006KT P6SM SKC=
202403170539 TAF KSEA 170539Z 1706/1812 VRB03KT P6SM SKC FM171700 32006KT P6SM
                       SKC FM180200 01006KT P6SM SKC=
202403170252 KSEA 170252Z 1703/1806 19004KT P6SM FEW250 FM171700 32006KT P6SM
                       SKC FM172300 01006KT P6SM FEW250=
202403162320 TAF KSEA 162320Z 1700/1806 VRB04KT P6SM SKC FM170300 15006KT P6SM
                       SKC FM171200 20004KT P6SM SKC FM171700 32006KT
                       P6SM SKC FM172300 01006KT P6SM SKC=
202403161753 TAF KSEA 161753Z 1618/1724 35009KT P6SM SCT250 FM170000 VRB04KT
                       P6SM SKC FM170300 12006KT P6SM SKC FM171200
                       20003KT P6SM SKC FM171700 32006KT P6SM SKC=
202403161506 KSEA 161506Z 1615/1718 35009KT P6SM SCT250 FM170000 12006KT P6SM
                       SKC FM171700 32006KT P6SM SKC=
202403161136 TAF KSEA 161136Z 1612/1718 36008KT P6SM FEW250 FM170000 12006KT
                       P6SM SKC FM171700 32006KT P6SM SKC=
202403160938 KSEA 160938Z 1610/1712 36008KT P6SM FEW250 FM170000 12006KT P6SM
                       SKC=
202403160520 TAF KSEA 160520Z 1606/1712 36011KT P6SM FEW250 FM160800 03009KT
                       P6SM FEW250 FM161600 26004KT P6SM SKC=
202403160251 KSEA 160251Z 1603/1706 36010KT P6SM SCT250 FM160600 03008KT P6SM
                       FEW250 FM161600 VRB03KT P6SM SKC=
202403160054 KSEA 160054Z 1601/1706 35012KT P6SM SCT250 FM160600 03006KT P6SM
                       SKC FM161200 05005KT P6SM SKC FM161600 VRB03KT
                       P6SM SKC=
202403152100 KSEA 152100Z 1521/1624 01010KT P6SM FEW150 FM160600 03006KT P6SM
                       SKC FM161200 05005KT P6SM SKC FM161600 VRB03KT
                       P6SM SKC=
202403151740 TAF KSEA 151740Z 1518/1624 02010KT P6SM SCT250 FM152100 01010KT
                       P6SM FEW250 FM160600 03006KT P6SM SKC FM161200
                       05005KT P6SM SKC FM161600 VRB03KT P6SM SKC=
202403151453 KSEA 151453Z 1515/1618 03008KT P6SM BKN250 FM152100 01010KT P6SM
                       SCT250 FM160600 03006KT P6SM SKC=
202403151141 TAF KSEA 151141Z 1512/1618 01006KT P6SM BKN250 FM152100 01010KT
                       P6SM SCT250 FM160600 03006KT P6SM SKC=
202403150922 KSEA 150922Z 1509/1612 01010KT P6SM SCT250=
202403150530 TAF KSEA 150530Z 1506/1612 35009KT P6SM SCT250 FM150900 02009KT
                       P6SM SCT250 FM152200 35011KT P6SM SCT250
                       FM160400 02009KT P6SM SKC=
202403150255 KSEA 150255Z 1503/1606 35009KT P6SM BKN250 FM150500 02008KT P6SM
                       BKN250 FM151500 02010KT P6SM SCT250=
202403142320 TAF KSEA 142320Z 1500/1606 03008KT P6SM SCT250 FM151500 02010KT
                       P6SM SCT250=
202403142059 KSEA 142059Z 1421/1524 04008KT P6SM SCT250 FM151500 02010KT P6SM
                       SCT250=
202403141739 TAF KSEA 141739Z 1418/1524 01008KT P6SM FEW010 SCT250 FM151500
                       02010KT P6SM SCT250=
202403141603 KSEA 141603Z 1416/1518 05005KT P6SM SCT200 FM141700 01008KT P6SM
                       SCT250=
202403141348 KSEA 141348Z 1414/1518 02003KT P6SM SCT200 FM141700 01008KT P6SM
                       SCT250=
202403141120 TAF KSEA 141120Z 1412/1518 02003KT P6SM BKN200 FM141700 01008KT
                       P6SM SCT250=
202403140851 KSEA 140851Z 1409/1512 04005KT P6SM BKN250 FM141200 03006KT P6SM
                       FEW006 BKN250 FM141700 01007KT P6SM SCT250=
202403140520 TAF KSEA 140520Z 1406/1512 04005KT P6SM SCT250 FM141200 03006KT
                       P6SM FEW010 SCT250 FM141800 01007KT P6SM
                       SCT250=
202403140258 KSEA 140258Z 1403/1506 35005KT P6SM FEW050 SCT250 FM140600 04005KT
                       P6SM BKN250 FM141200 03006KT P6SM SCT250
                       FM141700 01007KT P6SM SCT250=
202403132320 TAF KSEA 132320Z 1400/1506 30005KT P6SM SCT050 BKN250 FM140600
                       04005KT P6SM BKN250 FM141200 03006KT P6SM
                       SCT250 FM141700 01007KT P6SM SCT250=
202403132120 KSEA 132120Z 1321/1424 VRB03KT P6SM BKN050 FM140000 34005KT P6SM
                       BKN100 BKN200 FM140600 04005KT P6SM BKN200
                       FM141200 03006KT P6SM SCT200=
202403131729 TAF KSEA 131729Z 1318/1424 21004KT P6SM FEW010 BKN015 OVC020 FM132000
                       23005KT P6SM BKN050 FM140000 34005KT P6SM
                       BKN100 BKN200 FM140600 04005KT P6SM BKN200
                       FM141200 05005KT P6SM SCT200=
202403131504 KSEA 131504Z 1315/1418 18006KT P6SM BKN010 BKN030 FM131700 19006KT
                       P6SM BKN025 BKN045
                      TEMPO 1317/1320 SCT025 BKN050 FM132000 23005KT
                       P6SM BKN050 FM140000 34005KT P6SM BKN100
                       BKN200 FM140600 04005KT P6SM BKN200 FM141200
                       05005KT P6SM SCT200=
202403131120 TAF KSEA 131120Z 1312/1418 17006KT P6SM BKN012 BKN030 FM131700
                       19006KT P6SM BKN025 BKN045
                      TEMPO 1317/1320 SCT025 BKN050 FM132000 23005KT
                       P6SM BKN050 FM140000 34005KT P6SM BKN100
                       BKN200 FM140600 04005KT P6SM BKN200 FM141200
                       05005KT P6SM SCT200=
202403130938 KSEA 130938Z 1310/1412 18008KT P6SM VCSH BKN015 BKN040 FM131400
                       19007KT P6SM BKN035 FM131700 22005KT P6SM
                       BKN045 FM140000 32005KT P6SM BKN100=
202403130711 KSEA 130711Z 1307/1412 18008KT P6SM VCSH BKN020 BKN040 FM131400
                       19007KT P6SM BKN035 FM131700 22005KT P6SM
                       BKN045 FM140000 32005KT P6SM BKN100=
202403130523 TAF KSEA 130523Z 1306/1412 21010KT P6SM VCSH FEW020 BKN040 FM130900
                       19007KT P6SM BKN035 FM131700 22005KT P6SM
                       BKN045 FM140000 32005KT P6SM BKN100=
202403130258 KSEA 130258Z 1303/1406 22010G20KT P6SM VCSH BKN035 BKN100 FM130700
                       19007KT P6SM VCSH BKN035 FM131300 18006KT
                       P6SM OVC025 FM131700 19005KT P6SM BKN035=
202403122330 TAF KSEA 122330Z 1300/1406 22010G20KT P6SM VCSH SCT030 BKN040 FM130700
                       19007KT P6SM VCSH BKN035 FM131300 18006KT
                       P6SM OVC025 FM131700 19005KT P6SM BKN035=
202403122056 KSEA 122056Z 1221/1324 21015G25KT P6SM -SHRA SCT025 BKN080 FM130000
                       22009KT P6SM VCSH FEW020 BKN040 FM130700
                       19007KT P6SM BKN030 FM131300 18006KT P6SM
                       OVC025 FM131700 19005KT P6SM BKN035=
202403121732 TAF KSEA 121732Z 1218/1324 19010G20KT P6SM -SHRA SCT012 OVC030
                       FM130000 22009KT P6SM VCSH FEW020 BKN040
                       FM130700 19007KT P6SM BKN030 FM131300 18006KT
                       P6SM OVC025 FM131700 19005KT P6SM BKN035=
202403121616 KSEA 121616Z 1216/1318 18012G22KT P6SM -SHRA SCT013 BKN030 OVC080
                       FM121700 20011G20KT P6SM -SHRA OVC035 FM130000
                       22009KT P6SM VCSH FEW020 BKN040 FM130700
                       19007KT P6SM BKN030 FM131300 18006KT P6SM
                       OVC025=
202403121455 KSEA 121455Z 1215/1318 18012KT P6SM -SHRA SCT013 BKN030 OVC080
                       TEMPO 1215/1217 BKN022 OVC035 FM121700 20011KT
                       P6SM -SHRA OVC035 FM130000 22009KT P6SM
                       VCSH FEW020 BKN040 FM130700 19007KT P6SM
                       BKN030 FM131300 18006KT P6SM OVC022=
202403121124 TAF KSEA 121124Z 1212/1318 18010KT P6SM -SHRA SCT022 BKN035
                      TEMPO 1213/1217 BKN022 OVC035 FM121700 20011KT
                       P6SM -SHRA OVC035 FM130000 22009KT P6SM
                       VCSH FEW020 BKN040 FM130700 19007KT P6SM
                       BKN030 FM131300 18006KT P6SM OVC022=
202403120812 KSEA 120812Z 1208/1312 20011KT P6SM -SHRA BKN035 BKN070 FM121000
                       20010KT P6SM -SHRA BKN030 FM121600 20011KT
                       P6SM -SHRA OVC040 FM130000 23008KT P6SM
                       VCSH FEW020 BKN045=
202403120521 TAF KSEA 120521Z 1206/1312 18014G23KT P6SM -RA FEW040 BKN050 OVC070
                       FM121000 20010KT P6SM -SHRA OVC025 FM121600
                       20011KT P6SM -SHRA OVC040 FM130000 23008KT
                       P6SM VCSH FEW020 BKN045=
202403120252 KSEA 120252Z 1203/1306 18010G18KT P6SM -RA OVC035 FM121000 20010KT
                       P6SM -SHRA BKN015 OVC025 FM121600 22011KT
                       P6SM -SHRA OVC050 FM130000 23008KT P6SM
                       VCSH BKN080=
202403112324 TAF KSEA 112324Z 1200/1306 19015G25KT P6SM -RA OVC025 FM120500
                       20011G19KT P6SM -SHRA BKN015 OVC025 FM121600
                       22011KT P6SM -SHRA OVC050 FM130000 23008KT
                       P6SM VCSH BKN080=
202403112104 KSEA 112104Z 1121/1224 16010KT P6SM -RA OVC045 FM120100 19012G20KT
                       P6SM -RA OVC025 FM120400 19013G23KT P6SM
                       -RA OVC025 FM120900 20011G18KT P6SM -SHRA
                       BKN015 OVC025 FM121600 22011KT P6SM -SHRA
                       OVC050=
202403111739 TAF KSEA 111739Z 1118/1224 16008KT P6SM VCSH FEW025 OVC050 FM112000
                       17011G17KT P6SM -RA OVC035 FM120100 19015G28KT
                       P6SM -RA OVC025 FM120500 19013G23KT P6SM
                       -RA OVC025 FM120900 20011G18KT P6SM -SHRA
                       BKN015 OVC025 FM121600 22011KT P6SM -SHRA
                       OVC050=
202403111446 KSEA 111446Z 1115/1218 17008KT P6SM FEW025 OVC050 FM112000 14011KT
                       P6SM -RA OVC035 FM120000 15014G25KT P6SM
                       -RA SCT025 OVC035 FM120400 17015G28KT P6SM
                       -RA OVC025 FM121000 18013G20KT P6SM -SHRA
                       BKN015 OVC025=
202403111221 KSEA 111221Z 1112/1218 18010KT P6SM VCSH SCT015 BKN040 FM111500
                       18008KT P6SM OVC040 FM112000 14011KT P6SM
                       -RA OVC035 FM120000 15014G22KT P6SM -RA
                       SCT025 OVC035 FM120400 17015G25KT P6SM -RA
                       OVC025 FM121000 18013G20KT P6SM -SHRA BKN015
                       OVC025=
202403111130 TAF KSEA 111130Z 1112/1218 18010KT P6SM VCSH SCT015 BKN030 FM111500
                       18008KT P6SM OVC040 FM112000 14011KT P6SM
                       -RA OVC035 FM120000 15014G22KT P6SM -RA
                       SCT025 OVC035 FM120400 17015G25KT P6SM -RA
                       OVC025 FM121000 18013G20KT P6SM -SHRA BKN015
                       OVC025=
202403110912 KSEA 110912Z 1109/1212 18010KT P6SM -SHRA SCT015 BKN035 FM111300
                       18008KT P6SM OVC025 FM111900 17012G20KT
                       P6SM -RA OVC050 FM120100 19020G30KT P6SM
                       SHRA SCT025 OVC035 FM120400 17012G20KT P6SM
                       SHRA BKN025=
202403110526 TAF KSEA 110526Z 1106/1212 18010KT P6SM -SHRA BKN020 FM111300 18008KT
                       P6SM OVC025 FM111900 17012G20KT P6SM -RA
                       OVC050 FM120100 19020G30KT P6SM SHRA SCT025
                       OVC035 FM120400 17012G20KT P6SM SHRA BKN025=
202403110308 KSEA 110308Z 1103/1206 20010G20KT P6SM VCSH FEW025 BKN030 OVC040
                       FM110600 19013G20KT P6SM -SHRA OVC025 FM111300
                       18008KT P6SM OVC025 FM111900 17012G20KT
                       P6SM -RA OVC050 FM120100 19020G30KT P6SM
                       SHRA SCT025 OVC035=
202403110001 TAF KSEA 110001Z 1100/1206 19010G20KT P6SM -SHRA SCT018 OVC035
                       FM110200 20010KT P6SM VCSH BKN030 FM110600
                       19013G20KT P6SM -SHRA OVC025 FM111300 18008KT
                       P6SM OVC025 FM111900 17012G20KT P6SM -RA
                       OVC050 FM120100 19020G30KT P6SM SHRA SCT025
                       OVC035=
202403102108 KSEA 102108Z 1021/1124 18014G23KT P6SM -SHRA SCT018 OVC035 FM110000
                       19013G22KT P6SM -SHRA OVC035 FM110600 20012G18KT
                       P6SM VCSH BKN030 FM111300 18008KT P6SM OVC025=
202403101720 TAF KSEA 101720Z 1018/1124 19011KT P6SM -RA BKN030 OVC080 FM102000
                       19014G22KT P6SM -SHRA SCT018 OVC030 FM110000
                       19013G22KT P6SM -SHRA OVC035 FM110600 20012G18KT
                       P6SM VCSH BKN030 FM111300 18008KT P6SM OVC025=
202403101510 KSEA 101510Z 1015/1118 19011KT P6SM -RA BKN030 OVC080 FM102000
                       19014G22KT P6SM -SHRA SCT018 OVC030 FM110000
                       19013G22KT P6SM -SHRA OVC035 FM110600 20012G18KT
                       P6SM VCSH BKN030 FM111300 18008KT P6SM OVC025=
202403101122 TAF KSEA 101122Z 1012/1118 18015G25KT P6SM -RA OVC040 FM101500
                       17012G18KT P6SM -RA OVC025 FM102000 19014G22KT
                       P6SM -SHRA SCT018 OVC030 FM110000 19013G22KT
                       P6SM -SHRA OVC035 FM110600 20012G18KT P6SM
                       VCSH BKN030 FM111300 18008KT P6SM OVC025=
202403100851 KSEA 100851Z 1009/1112 16015G25KT P6SM -RA OVC040 FM101500 15011KT
                       P6SM -RA OVC025 FM102100 19015G28KT 6SM
                       -RA BKN018 OVC025 FM110000 19015G24KT P6SM
                       -SHRA OVC035=
202403100526 TAF KSEA 100526Z 1006/1112 18012G22KT P6SM -SHRA SCT050 OVC070
                       FM100900 15012G20KT P6SM -RA OVC040 FM101500
                       15011KT P6SM -RA OVC025 FM102100 19015G28KT
                       6SM -RA BKN018 OVC025 FM110000 19015G24KT
                       P6SM -SHRA OVC035=
202403100253 KSEA 100253Z 1003/1106 22015G25KT P6SM -RA FEW030 BKN045 OVC070
                       FM100400 16011KT P6SM -SHRA OVC050 FM100900
                       14013G20KT P6SM -RA OVC040 FM101500 15011KT
                       P6SM -RA OVC025 FM102100 19017G29KT P6SM
                       -RA BKN018 OVC025=
202403092320 TAF KSEA 092320Z 1000/1106 22016G25KT P6SM -RA BKN035 OVC045 FM100400
                       16011KT P6SM -SHRA OVC050 FM100900 14013G20KT
                       P6SM -RA OVC040 FM101500 15011KT P6SM -RA
                       OVC025 FM102100 19017G29KT P6SM -RA BKN018
                       OVC025=
202403092011 KSEA 092011Z 0920/1024 22016G25KT P6SM -RA BKN035 OVC045 FM100400
                       16011KT P6SM -SHRA OVC050 FM100900 14013G20KT
                       P6SM -RA OVC040 FM101500 15011KT P6SM -RA
                       OVC027=
202403091720 TAF KSEA 091720Z 0918/1024 16010KT P6SM -RA OVC060 FM091900 18014G24KT
                       P6SM -RA OVC045 FM100400 16011KT P6SM -SHRA
                       OVC050 FM100900 14013G20KT P6SM -RA OVC040
                       FM101500 15011KT P6SM -RA OVC027=
202403091457 KSEA 091457Z 0915/1018 18006KT P6SM OVC080 FM091600 17010KT P6SM
                       -RA OVC060 FM091900 18014G24KT P6SM -RA
                       OVC045 FM100400 16011KT P6SM -SHRA OVC050
                       FM100900 14013G20KT P6SM -RA OVC040 FM101500
                       15011KT P6SM -RA OVC027=
202403091129 TAF KSEA 091129Z 0912/1018 16006KT P6SM OVC100 FM091600 17010KT
                       P6SM -RA OVC060 FM091900 18014G24KT P6SM
                       -RA OVC045 FM100400 16011KT P6SM -SHRA OVC050
                       FM100900 14013G20KT P6SM -RA OVC040 FM101500
                       15011KT P6SM -RA OVC027=
202403091032 KSEA 091032Z 0911/1012 13005KT P6SM FEW090 BKN180 FM091200 16006KT
                       P6SM VCSH OVC060 FM091500 18009KT P6SM -RA
                       OVC050 FM091900 18016G24KT P6SM -RA OVC050
                       FM100400 17010KT P6SM -SHRA OVC050=
202403090538 TAF KSEA 090538Z 0906/1012 13005KT P6SM FEW090 BKN250 FM091200
                       16006KT P6SM VCSH OVC060 FM091500 18009KT
                       P6SM -RA OVC050 FM091900 18016G24KT P6SM
                       -RA OVC050 FM100400 17010KT P6SM -SHRA OVC050=
202403090258 KSEA 090258Z 0903/1006 13005KT P6SM FEW090 BKN250 FM091200 16006KT
                       P6SM VCSH OVC060 FM091500 18009KT P6SM VCSH
                       OVC050 FM091900 19016G24KT P6SM -RA OVC050=
202403082320 TAF KSEA 082320Z 0900/1006 26006KT P6SM FEW060 SCT100 OVC250 FM090300
                       13005KT P6SM BKN250 FM091200 16006KT P6SM
                       VCSH OVC060 FM091500 18009KT P6SM VCSH OVC050
                       FM091900 19016G23KT P6SM -RA OVC050=
202403082057 KSEA 082057Z 0821/0924 26005KT P6SM VCSH BKN070 OVC110 FM090000
                       18004KT P6SM VCSH OVC100 FM090300 13005KT
                       P6SM OVC100 FM091200 17006KT P6SM VCSH OVC060
                       FM091500 18008KT P6SM -RA OVC050=
202403081723 TAF KSEA 081723Z 0818/0924 20004KT P6SM VCSH BKN070 OVC080 FM082100
                       18005KT P6SM VCSH OVC100 FM090000 18004KT
                       P6SM VCSH OVC100 FM090300 13005KT P6SM OVC100
                       FM091200 17006KT P6SM VCSH OVC060 FM091500
                       18008KT P6SM -RA OVC050=
202403081452 KSEA 081452Z 0815/0918 15004KT P6SM VCSH OVC070 FM082100 18005KT
                       P6SM VCSH OVC100 FM090000 18004KT P6SM VCSH
                       OVC100 FM090700 13005KT P6SM OVC100=
202403081120 TAF KSEA 081120Z 0812/0918 16005KT P6SM OVC070 FM081500 14004KT
                       P6SM VCSH OVC060 FM082100 18005KT P6SM VCSH
                       OVC100 FM090000 18004KT P6SM VCSH OVC100
                       FM090700 13005KT P6SM OVC100=
202403080900 KSEA 080900Z 0809/0912 16005KT P6SM OVC100 FM081300 13004KT P6SM
                       OVC050 FM081500 14004KT P6SM VCSH OVC050
                       FM082100 18005KT P6SM VCSH OVC100=
202403080520 TAF KSEA 080520Z 0806/0912 00000KT P6SM SCT250 FM081300 13004KT
                       P6SM OVC050 FM081500 14004KT P6SM VCSH OVC050
                       FM082100 18005KT P6SM VCSH OVC100=
202403080235 KSEA 080235Z 0803/0906 25004KT P6SM FEW040 FEW100 SCT250 FM080400
                       14005KT P6SM OVC100 FM081300 13004KT P6SM
                       OVC050 FM081500 14004KT P6SM VCSH OVC050=
202403072320 TAF KSEA 072320Z 0800/0906 21004KT P6SM SCT040 SCT200 FM080400
                       14005KT P6SM OVC100 FM081300 13004KT P6SM
                       OVC050=
202403072058 KSEA 072058Z 0721/0824 24004KT P6SM FEW020 BKN250 FM080000 21004KT
                       P6SM BKN250 FM080400 14005KT P6SM OVC100
                       FM081300 13004KT P6SM OVC050=
202403071720 TAF KSEA 071720Z 0718/0824 17005KT P6SM SCT250 FM072000 22004KT
                       P6SM BKN250 FM080400 14005KT P6SM OVC100
                       FM081300 13004KT P6SM OVC050=
202403071457 KSEA 071457Z 0715/0818 14005KT P6SM BKN045 FM071800 23005KT P6SM
                       BKN070 FM080000 20004KT P6SM BKN200 FM080700
                       13005KT P6SM OVC100=
202403071456 KSEA 071456Z 0715/0818 14003KT P6SM BKN045 FM071600 17004KT P6SM
                       BKN050 FM072100 24005KT P6SM BKN070 FM080000
                       20004KT P6SM BKN200 FM080700 13005KT P6SM
                       OVC100=
202403071122 TAF KSEA 071122Z 0712/0818 12004KT P6SM BKN060 FM071300 14003KT
                       P6SM BKN035 FM071600 17004KT P6SM BKN050
                       FM072100 24005KT P6SM BKN070 FM080000 20004KT
                       P6SM BKN200 FM080700 13005KT P6SM OVC100=
202403070855 KSEA 070855Z 0709/0812 33004KT P6SM BKN060 BKN200 FM071300 14003KT
                       P6SM BKN030 FM071600 17004KT P6SM BKN050
                       FM072100 24005KT P6SM BKN070 FM080000 20004KT
                       P6SM BKN200=
202403070520 TAF KSEA 070520Z 0706/0812 05006KT P6SM SCT070 FM070900 10004KT
                       P6SM BKN060 BKN200 FM071300 14003KT P6SM
                       BKN030 FM071600 17004KT P6SM BKN050 FM072100
                       24005KT P6SM BKN070 FM080000 20004KT P6SM
                       BKN200=
202403070257 KSEA 070257Z 0703/0806 36006KT P6SM BKN070 FM070600 05006KT P6SM
                       BKN060 BKN200 FM070900 13004KT P6SM BKN060
                       BKN200 FM071300 14003KT P6SM BKN030 FM071600
                       17004KT P6SM BKN050 FM072100 24005KT P6SM
                       BKN070=
202403062329 TAF KSEA 062329Z 0700/0806 31006KT P6SM FEW030 BKN060 FM070600
                       08006KT P6SM BKN060 BKN200 FM070900 13004KT
                       P6SM BKN060 BKN200 FM071300 14003KT P6SM
                       BKN030 FM071600 17004KT P6SM BKN050 FM072100
                       24005KT P6SM BKN070=
202403062224 KSEA 062224Z 0622/0724 31006KT P6SM FEW030 BKN060 FM070600 08006KT
                       P6SM BKN060 BKN200 FM070900 13004KT P6SM
                       BKN060 BKN200 FM071300 14003KT P6SM BKN030
                       FM071600 17004KT P6SM BKN050=
202403062103 KSEA 062103Z 0621/0724 25006KT P6SM FEW015 BKN060 BKN200 FM070500
                       04006KT P6SM BKN060 BKN200 FM071300 15003KT
                       P6SM BKN030 FM071600 14004KT P6SM BKN050=
202403061733 TAF KSEA 061733Z 0618/0724 16006KT P6SM BKN060 BKN200 FM062000
                       21006KT P6SM BKN060 BKN200 FM070500 04006KT
                       P6SM BKN060 BKN200 FM071300 15003KT P6SM
                       BKN030 FM071600 14004KT P6SM BKN050=
202403061400 KSEA 061400Z 0614/0718 12005KT P6SM BKN050 FM061800 24006KT P6SM
                       BKN070 FM070500 04006KT P6SM BKN200 FM071000
                       13004KT P6SM OVC060=
202403061120 TAF KSEA 061120Z 0612/0718 12005KT P6SM FEW050 FM061400 VRB03KT
                       6SM BR SCT002 FM061800 24006KT P6SM BKN070
                       FM070500 04006KT P6SM BKN200 FM071000 13004KT
                       P6SM OVC060=
202403060906 KSEA 060906Z 0609/0712 12005KT P6SM BKN050 FM061300 VRB03KT 6SM
                       BR SCT002 FM061800 24006KT P6SM SCT120 BKN200
                       FM070500 14006KT P6SM BKN200=
202403060535 TAF KSEA 060535Z 0606/0712 04006KT P6SM SKC FM061300 VRB03KT 6SM
                       BR SCT002 FM061800 24006KT P6SM SCT120 BKN200
                       FM070500 14006KT P6SM BKN200=
202403060303 KSEA 060303Z 0603/0706 36008KT P6SM SKC FM060800 09004KT P6SM SKC
                       FM061300 VRB03KT 5SM BR SCT002 SCT200 FM061700
                       VRB03KT P6SM BKN120 FM061900 22006KT P6SM
                       BKN120=
202403052342 TAF KSEA 052342Z 0600/0706 36008KT P6SM SCT040 SCT200 FM060600
                       09006KT P6SM SCT200 FM061300 VRB03KT 5SM
                       BR SCT002 SCT200 FM061700 VRB03KT P6SM BKN120
                       FM061900 22006KT P6SM BKN120=
202403052158 KSEA 052158Z 0522/0624 36006KT P6SM BKN035 FM052300 35007KT P6SM
                       BKN200 FM060600 09003KT P6SM BKN050 FM060800
                       11003KT 3SM BR SCT010 BKN040 FM061700 VRB03KT
                       6SM BR OVC050 FM061900 22005KT P6SM SCT060=
202403052059 KSEA 052059Z 0521/0624 35007KT P6SM SCT025 SCT200
                      TEMPO 0521/0523 BKN025 FM052300 35007KT P6SM
                       BKN200 FM060600 09003KT P6SM BKN050 FM060800
                       11003KT 3SM BR SCT010 BKN040 FM061700 VRB03KT
                       6SM BR OVC050 FM061900 22005KT P6SM SCT060=
202403051744 TAF KSEA 051744Z 0518/0624 02006KT 6SM BR SCT005 FM051900 35007KT
                       P6SM SKC FM052300 35008KT P6SM BKN200 FM060600
                       09003KT P6SM BKN050 FM060800 11003KT 3SM
                       BR SCT010 BKN040 FM061700 VRB03KT 6SM BR
                       OVC050 FM061900 22005KT P6SM SCT060=
202403051616 KSEA 051616Z 0516/0618 05006KT 1/2SM FG BKN002 BKN010 FM051700
                       04004KT 6SM BR BKN010 BKN020 FM051900 35007KT
                       P6SM SCT050 FM052300 35008KT P6SM BKN200
                       FM060600 12006KT P6SM BKN050=
202403051357 KSEA 051357Z 0514/0618 04006KT P6SM OVC002 FM051600 03004KT P6SM
                       SCT006 OVC035 FM051900 35007KT P6SM BKN050
                       FM052300 35008KT P6SM BKN200 FM060600 12006KT
                       P6SM BKN050=
202403051237 KSEA 051237Z 0513/0618 04006KT P6SM OVC003 FM051400 04006KT P6SM
                       SCT006 BKN011 OVC020 FM051900 35007KT P6SM
                       BKN050 FM052300 35008KT P6SM BKN200 FM060600
                       12006KT P6SM BKN050=
202403051124 TAF KSEA 051124Z 0512/0618 04006KT P6SM BKN004 OVC050 FM051400
                       04006KT P6SM SCT006 BKN011 OVC020 FM051900
                       35007KT P6SM BKN050 FM052300 35008KT P6SM
                       BKN200 FM060600 12006KT P6SM BKN050=
202403050918 KSEA 050918Z 0509/0612 04006KT P6SM SCT004 OVC040
                      TEMPO 0509/0510 5SM BR OVC003 FM051200 04006KT
                       P6SM SCT006 BKN011 OVC020 FM051600 04006KT
                       P6SM SCT015 BKN025 FM051900 35006KT P6SM
                       BKN050 FM052300 35006KT P6SM BKN200 FM060600
                       12006KT P6SM BKN200=
202403050725 KSEA 050725Z 0507/0612 04006KT P6SM SCT004 OVC040 FM051200 04006KT
                       P6SM SCT006 BKN011 OVC020 FM051600 04006KT
                       P6SM SCT015 BKN025 FM051900 35006KT P6SM
                       BKN050 FM052300 35006KT P6SM BKN200 FM060600
                       12006KT P6SM BKN200=
202403050539 TAF KSEA 050539Z 0506/0612 04006KT 5SM BR SCT004 OVC022
                      TEMPO 0506/0508 3SM -SN BKN004 OVC025 FM051200
                       04006KT P6SM SCT006 BKN011 OVC020 FM051600
                       04006KT P6SM SCT015 BKN025 FM051900 35006KT
                       P6SM BKN050 FM052300 35006KT P6SM BKN200
                       FM060600 12006KT P6SM BKN200=
202403050358 KSEA 050358Z 0504/0606 VRB03KT 1SM -SN BR FEW004 OVC010 FM050430
                       VRB03KT 4SM BR SCT010 BKN020 OVC040 FM050600
                       VRB03KT P6SM SCT020 BKN040 FM050900 05003KT
                       P6SM SCT020 BKN025 OVC050 FM051200 03005KT
                       P6SM OVC025 FM052100 31006KT P6SM BKN050=
202403050202 KSEA 050202Z 0502/0606 36006KT P6SM -SHRA SCT025 BKN045 BKN100
                       FM050600 04005KT P6SM SCT050 OVC100 FM050900
                       05003KT P6SM SCT020 BKN025 OVC050 FM051200
                       03005KT P6SM OVC025 FM052100 31006KT P6SM
                       BKN050=
202403042332 TAF KSEA 042332Z 0500/0606 25010KT P6SM VCSH FEW030 FEW050 OVC100
                       FM050400 04005KT P6SM SCT050 OVC100 FM050900
                       05003KT P6SM SCT020 BKN025 OVC050 FM051200
                       03005KT P6SM OVC025 FM052100 31006KT P6SM
                       BKN050=
202403042106 KSEA 042106Z 0421/0524 24012KT P6SM SCT035 BKN050 BKN200 FM050400
                       04005KT P6SM SCT050 FM050700 05003KT P6SM
                       SCT020 BKN025 OVC050 FM051200 03005KT P6SM
                       OVC025 FM052100 31006KT P6SM BKN050=
202403041729 TAF KSEA 041729Z 0418/0524 18009KT P6SM SCT015 SCT200
                      TEMPO 0418/0421 BKN015 FM042100 21008KT P6SM
                       SCT025 BKN040 FM050400 04005KT P6SM SCT050
                       FM050700 05003KT P6SM SCT020 BKN025 OVC050
                       FM051200 03005KT P6SM OVC025 FM052100 31006KT
                       P6SM BKN050=
202403041328 KSEA 041328Z 0413/0518 21011KT P6SM VCSH OVC013
                      TEMPO 0413/0415 4SM -SHRASN FM041700 21012KT
                       P6SM SCT015 OVC025 FM042300 21008KT P6SM
                       SCT025 BKN040 FM050400 04005KT P6SM SCT050
                       FM050700 05003KT P6SM SCT020 BKN025 OVC050=
202403041127 TAF KSEA 041127Z 0412/0518 20011KT P6SM VCSH BKN007 OVC012
                      TEMPO 0412/0416 4SM -SHRASN FM041700 21012KT
                       P6SM SCT012 OVC025 FM042300 21008KT P6SM
                       SCT025 BKN040 FM050400 04005KT P6SM SCT050
                       FM050700 05003KT P6SM SCT020 BKN025 OVC050=
202403040911 KSEA 040911Z 0409/0512 18012G20KT P6SM -SHRA BKN009 OVC015
                      TEMPO 0410/0414 4SM -SHRASN FM041700 21008KT
                       P6SM SCT012 BKN022 OVC035 FM042300 21008KT
                       P6SM SCT025 BKN040 FM050400 08006KT P6SM
                       SCT050 BKN200=
202403040755 KSEA 040755Z 0408/0512 18012G20KT P6SM -SHRA BKN009 OVC015
                      TEMPO 0410/0414 4SM -SHRASN FM041700 21008KT
                       P6SM SCT012 BKN022 OVC035 FM042300 21008KT
                       P6SM SCT025 BKN040 FM050400 08006KT P6SM
                       SCT050 BKN200=
202403040539 TAF KSEA 040539Z 0406/0512 18012KT P6SM -SHRA BKN012 OVC020
                      TEMPO 0410/0414 4SM -SHRASN FM042000 21008KT
                       P6SM SCT012 BKN022 OVC035 FM042300 21008KT
                       P6SM SCT025 BKN040 FM050400 08006KT P6SM
                       SCT050 BKN200=
202403040343 KSEA 040343Z 0404/0506 18012KT P6SM VCSH OVC025 FM040900 19008KT
                       P6SM BKN015 OVC040 FM041800 21008KT P6SM
                       SCT025 BKN050=
202403032331 TAF KSEA 032331Z 0400/0506 20012G19KT P6SM VCSH SCT021 BKN028 BKN035
                       FM040300 18012KT P6SM VCSH OVC025 FM040900
                       19008KT P6SM BKN015 OVC040 FM041800 21008KT
                       P6SM SCT025 BKN050=
202403032111 KSEA 032111Z 0321/0424 19015G25KT P6SM VCSH BKN018 BKN023 OVC035
                       FM040900 19008KT P6SM BKN025 OVC040=
202403031733 TAF KSEA 031733Z 0318/0424 18010KT P6SM -SHRA BKN030 BKN040 OVC050
                       TEMPO 0318/0320 -SHSNRA BKN015 FM032000
                       19008KT P6SM VCSH SCT025 OVC040 FM040900
                       19008KT P6SM BKN025 OVC040=
202403031607 KSEA 031607Z 0316/0418 15009KT P6SM -SHRA FEW010 BKN040 OVC070
                       TEMPO 0316/0320 -SHRA BKN015 FM032000 19008KT
                       P6SM VCSH SCT025 OVC040 FM040900 19008KT
                       P6SM BKN025 OVC040=
202403031303 KSEA 031303Z 0313/0418 15005KT P6SM -SHRA SCT030 OVC040
                      TEMPO 0313/0316 4SM -SHSNRA FM031600 17008KT
                       P6SM VCSH BKN025 OVC040 FM032000 19008KT
                       P6SM VCSH SCT025 OVC040 FM040900 19008KT
                       P6SM BKN025 OVC040=
202403031139 TAF KSEA 031139Z 0312/0418 18005KT P6SM SCT025 BKN040 FM031300
                       18007KT 6SM -SHRA BKN025 OVC040
                      TEMPO 0313/0316 4SM -SHSNRA FM031600 17008KT
                       P6SM VCSH BKN025 OVC040 FM032000 19008KT
                       P6SM VCSH SCT025 OVC040 FM040900 19008KT
                       P6SM BKN025 OVC040=
202403030909 KSEA 030909Z 0309/0412 15005KT P6SM SCT025 BKN040 FM031200 17008KT
                       P6SM SCT025 BKN040
                      TEMPO 0312/0316 4SM -SHRASN BKN025 OVC040
                       FM031600 17008KT P6SM VCSH BKN025 OVC040
                       FM032000 19008KT P6SM VCSH SCT025 OVC040
                       FM040900 19008KT P6SM BKN025 OVC040=
202403030541 TAF KSEA 030541Z 0306/0412 20008KT P6SM SCT025 BKN040 FM031200
                       17008KT P6SM SCT025 BKN040
                      TEMPO 0312/0316 4SM -SHRASN BKN025 OVC040
                       FM031600 17008KT P6SM VCSH BKN025 OVC040
                       FM032000 19008KT P6SM VCSH SCT025 OVC040
                       FM040900 19008KT P6SM BKN025 OVC040=
202403030316 KSEA 030316Z 0303/0406 20012G18KT P6SM VCSH SCT025 BKN050 OVC100
                       FM030900 15005KT P6SM VCSH OVC050 FM031600
                       17007KT P6SM VCSH OVC030 FM032000 21009KT
                       P6SM VCSH OVC050=
202403022323 TAF KSEA 022323Z 0300/0406 18010KT P6SM VCSH SCT030 BKN060 FM030600
                       15007KT P6SM VCSH BKN050 OVC100 FM030900
                       15005KT P6SM VCSH OVC050
                      PROB30 0309/0315 P6SM -RASN SCT025 OVC050
                       FM031600 17007KT P6SM VCSH OVC030 FM032000
                       21009KT P6SM VCSH OVC050=
202403021734 TAF KSEA 021734Z 0218/0324 20013G20KT P6SM VCSH BKN014 BKN020 FM022000
                       20012G20KT P6SM VCSH SCT025 OVC050 FM030600
                       15007KT P6SM VCSH BKN050 OVC100 FM030900
                       15005KT P6SM VCSH OVC050
                      PROB30 0309/0315 P6SM -RASN SCT025 OVC050=
202403021610 KSEA 021610Z 0216/0318 20011G20KT P6SM VCSH SCT015 BKN050
                      TEMPO 0216/0220 -SHRA BKN015 FM022200 20012G20KT
                       P6SM -SHRA SCT025 OVC060 FM030600 17006KT
                       P6SM SCT040 OVC060=
202403021355 KSEA 021355Z 0214/0318 20008KT P6SM VCSH OVC045
                      TEMPO 0214/0215 6SM -SHRA BR OVC025 FM022200
                       20012KT P6SM -SHRA SCT025 OVC060 FM030600
                       17006KT P6SM SCT040 OVC060=
202403021120 TAF KSEA 021120Z 0212/0318 19008KT P6SM VCSH OVC045
                      TEMPO 0213/0215 6SM -SHRA BR OVC025 FM022200
                       20012KT P6SM -SHRA SCT025 OVC060 FM030600
                       17006KT P6SM SCT040 OVC060=
202403020907 KSEA 020907Z 0209/0312 17010KT 6SM -SHRA BKN025 OVC035 FM021300
                       16008KT P6SM VCSH OVC040 FM022200 20012KT
                       P6SM -SHRA SCT025 OVC060 FM030600 17006KT
                       P6SM SCT040 OVC060=
202403020535 TAF KSEA 020535Z 0206/0312 04008KT P6SM FEW025 BKN200 FM020800
                       08005KT P6SM -RA OVC035 FM021000 15006KT
                       P6SM -RA OVC020 FM021300 16008KT P6SM VCSH
                       OVC040 FM021700 20012KT P6SM VCSH SCT040
                       OVC060 FM030600 17006KT P6SM SCT040 OVC060=
202403020300 KSEA 020300Z 0203/0306 07007KT P6SM FEW030 BKN200 FM020800 10005KT
                       P6SM VCSH OVC035 FM021000 15004KT P6SM VCSH
                       OVC020 FM021700 18012KT P6SM SCT040 OVC060=
202403012323 TAF KSEA 012323Z 0200/0306 13009KT P6SM FEW013 BKN035 OVC060 FM020300
                       08006KT P6SM VCSH BKN050 FM020800 10005KT
                       P6SM VCSH OVC035 FM021000 15004KT P6SM VCSH
                       OVC020 FM021700 18012KT P6SM SCT040 OVC060=
202403012209 KSEA 012209Z 0122/0224 13008KT 4SM -RASN BR SCT009 BKN015 OVC020
                       FM012300 14005KT 6SM BR BKN020 FM020300
                       08006KT P6SM -SHRA BKN050 FM020800 10005KT
                       P6SM VCSH OVC035 FM021700 18009G15KT P6SM
                       SCT040 OVC060=
202403011959 KSEA 011959Z 0120/0224 VRB05KT P6SM -RA BKN020 OVC030 FM012200
                       18008KT P6SM -RA BKN020 OVC035 FM020300
                       08006KT P6SM -SHRA BKN050 FM020800 10005KT
                       P6SM VCSH OVC035 FM021700 18009G15KT P6SM
                       SCT040 OVC060=
202403011720 TAF KSEA 011720Z 0118/0224 19010KT P6SM FEW015 SCT040 BKN140 FM012000
                       21007KT P6SM -SHRA SCT040 OVC050 FM020300
                       08006KT P6SM -SHRA BKN050 FM020800 10005KT
                       P6SM VCSH OVC035 FM021700 18009G15KT P6SM
                       SCT040 OVC060=
202403011433 KSEA 011433Z 0115/0218 18010G18KT 6SM -SHRASN SCT025 OVC040 FM011800
                       19010KT P6SM -SHRA SCT040 OVC060 FM020300
                       11006KT P6SM -SHRA BKN050 FM020800 16005KT
                       P6SM -SHRASN OVC035 FM021700 18009G15KT
                       P6SM -SHRA SCT040 OVC060=
202403011133 TAF KSEA 011133Z 0112/0218 17011KT P6SM VCSH SCT025 OVC060 FM011300
                       18010G18KT 6SM -SHRASN SCT025 OVC040 FM011800
                       19010KT P6SM -SHRA SCT040 OVC060 FM020300
                       11006KT P6SM -SHRA BKN050 FM020800 16005KT
                       P6SM -SHRASN OVC035 FM021700 18009G15KT
                       P6SM -SHRA SCT040 OVC060=
202403010904 KSEA 010904Z 0109/0212 18012G18KT 6SM -SHRASN BR OVC025 FM011300
                       19009KT 6SM BR VCSH OVC030 FM011600 19009KT
                       P6SM OVC050
                      PROB30 0118/0123 -SHRA FM020300 11006KT P6SM
                       BKN050=
202403010521 TAF KSEA 010521Z 0106/0212 17008KT 5SM -SHRASN BR SCT005 BKN025
                       OVC035 FM010800 18012G18KT 5SM -SHRASN BR
                       OVC020 FM011300 19009KT 6SM BR VCSH OVC030
                       FM011600 19009KT P6SM OVC050
                      PROB30 0118/0123 -SHRA FM020300 11006KT P6SM
                       BKN050=
202403010141 KSEA 010141Z 0102/0206 18011KT 5SM -SHRASN BR SCT008 OVC015 FM010900
                       18012G18KT 6SM -SHRASN BR OVC022 FM011300
                       15006KT 6SM BR OVC035 FM011600 15009KT P6SM
                       OVC050=